area,item_code,target2_code,addr2,lng,addr1,open_info,target2_etc,type,close_info,zipcode,img_name,name,target1_code,target1_etc,idx,item_etc,lat,제공대상,제공인원,제공품목
서울,99,,"1층 (논현동, 두원빌딩) 더 수제비",127.032748388739,"서울 강남구 논현로132길 29","11시~8시 (평일),  11시~6시 (토)",,01,일요일,06053,c5ab989ad40d4f7ba804b68ae7449d3a.jpg,"삼청골명가 더수제비 ",02,,348,"수제비, 들깨수제비,들깨감자옹심이,감",37.5155564146922,Nan,"동반 1인","수제비, 들깨수제비,들깨감자옹심이,감"
서울,02,"01,02","지하 1층",127.059383424452,"서울 강남구 대치동 1016-4","오후1시 - 오후 10시",,02,"일요일 휴무",06279,7f956996ed404dd888f5102b267fe245.jpg,"87.5 탭댄스 컴퍼니",02,,393,,37.4975141236791,"결식아동,독거노인","동반 1인",
서울,,,남자빌딩3층,127.041067594119,"서울 강남구 도곡로 203",,,03,,06231,NULL,피트니스플랜비,,,748,,37.4927790108557,Nan,Nan,
서울,02,01,"아가도스빌딩 1층 바바에스 대치점",127.059558169501,"서울 강남구 도곡로 449","10:00 ~21:00",,03,,06209,NULL,바바에스안경원(대치점),01,,729,,37.4988301355807,결식아동,"아이 본인만",
서울,99,"01,02",,127.040892026487,"서울 강남구 선릉로111길 33",9~19,,02,없음,06103,afb257251b1244c4ae21e3a8b2272213.jpeg,한국전문연주자협회,03,,872,티켓,37.5100709056876,"결식아동,독거노인","동반 2인",티켓
서울,01,"01,02",101,127.043912415042,"서울 강남구 언주로69길 16",10~21,,01,연중무휴,06226,dc68812e49754702b668c0b61171173c.jpg,우리카페,02,,454,,37.4964253536579,"결식아동,독거노인","동반 1인",
서울,,,3층,127.034897822252,"서울 강남구 테헤란로 143",,,99,,06132,NULL,메이머스트,,,925,,37.500619211163,Nan,Nan,
서울,99,,"다른타워 8층 법률사무소 서화담",127.039650741179,"서울 강남구 학동로 335","09시 ~ 18시",,99,"토요일, 일요일, 관공서 공휴일 등",06060,NULL,"법률사무소 서화담",01,,64,급식카드소지학생대상법률서비스,37.5169881563922,Nan,"아이 본인만",급식카드소지학생대상법률서비스
서울,99,"01,02,99","102-2호 통닭&강동생족발보쌈",127.168780176356,"서울 강동구 고덕로 390",점심12시~밤12시,"소방관은 전메뉴 50%할인",01,"연중무휴 , 포장 배달 전문점",05274,cf423ae9061341bdad4f5031b168a4d4.jpg,통닭&강동생족발보쌈,99,"포장 배달 전문점입니다.",624,아동=통닭1마리무료&전메뉴50%할인,37.5566264093618,"결식아동,독거노인,소방관은 전메뉴 50%할인","포장 배달 전문점입니다.",아동=통닭1마리무료&전메뉴50%할인
서울,99,01,203호,127.163703763594,"서울 강동구 동남로82길 120",10-20,,03,"공휴일 일요일",05224,bc173fd2a34149a3850d85a3ca8dbc70.jpeg,벨라로그,01,,833,주니어컷,37.5600131037078,결식아동,"아이 본인만",주니어컷
서울,01,"01,02","2층 암사비치푸드마켓",127.12620474698,"서울 강동구 상암로 24","pm 4::30 ~ PM 12:00",,01,없음,05242,NULL,암사비치푸드마켓,03,,512,,37.5505214571878,"결식아동,독거노인","동반 2인",
서울,02,01,"1층 101호(성내동)",127.121714791038,"서울 강동구 성내로 7","09:00 ~ 21:00",,01,"1, 3주 일요일",05392,2fad6b7e0ab54666b65b8e130cccf62e.jpg,미미고찹쌀꽈배기강동구청점,02,,978,,37.5306211120485,결식아동,"동반 1인",
서울,01,01,"1층 103호 엥겔커피",127.130319582447,"서울 강동구 성안로 39",12:00-24:00,,01,"매주 수요일",05396,NULL,엥겔플랜트,02,,330,,37.527383733568,결식아동,"동반 1인",
서울,01,01,"105호 식사준비",127.174497989376,"서울 강동구 아리수로93나길 50",10:00~20:00,,01,없음,05415,7a3e969675c24fceba5d7edbe1510e68.png,"식사준비 강일점",01,,123,,37.5720997177008,결식아동,"아이 본인만",
서울,02,01,신참떡볶이,127.142054351358,"서울 강동구 양재대로 1549","10시30분~22시 30분",,01,없음,05315,NULL,"신참떡볶이 굽은다리역점",02,,596,,37.5440484317022,결식아동,"동반 1인",
서울,99,01,"라라브레드 1층",127.141220445342,"서울 강동구 양재대로116길 13","11:00 ~ 20:00",,01,x,05343,NULL,라라브레드,01,,654,"직원선택 빵2종",37.5386777654734,결식아동,"아이 본인만","직원선택 빵2종"
서울,,,,127.132107671568,"서울 강동구 진황도로29길 8",,,99,,05337,NULL,청춘집합소,,,270,,37.5385119859067,Nan,Nan,
서울,02,01,"b114 미화동",127.133115595362,"서울 강동구 천호대로 1089",10시30분~20시,,01,15-17시,05339,7b57cff0eea441e3bcda1ceb05171170.png,미화동,01,,519,,37.5366048791746,결식아동,"아이 본인만",
서울,01,"01,02",1층,127.14899761506,"서울 강동구 천호대로 1240-13",10:00~8:00,,02,금요일,05359,6747d5cf1fb34004a8af1963dbee0ebc.jpg,허브문화예술창작소,01,,1045,,37.5358651089613,"결식아동,독거노인","아이 본인만",
서울,99,01,"동아빌딩 2층",127.022452181913,"서울 강북구 노해로 41",17시~02시,,01,"월,화요일  17~18시  식사제공가능",01077,c11ace05a0cf422983dd803a6ef41891.jpg,아이엠,01,,204,"파스타 메뉴",37.6393058776416,결식아동,"아이 본인만","파스타 메뉴"
서울,,"01,99",1층,127.026641902994,"서울 강북구 덕릉로 115",,"입양보류아동,무연고아동",01,,01069,NULL,인생푸드,,,844,,37.6351365082522,"결식아동,입양보류아동,무연고아동",Nan,
서울,01,"01,02","B2 송탄영빈루",127.030517678336,"서울 강북구 도봉로 62",10:30~19:30,,01,,01215,71f6fa046fcf49838ba2ec4c54fe4cf3.jpg,"롯데백화점 미아점 송탄영빈루 ",01,,175,,37.6145929759749,"결식아동,독거노인","아이 본인만",
서울,99,01,1층,127.0168280634,"서울 강북구 삼양로93길 3",,,01,,01087,NULL,"땅땅치킨 수유점",01,,940,"1인식사제공(서울회관) 스몰치킨제공",37.6373055460892,결식아동,"아이 본인만","1인식사제공(서울회관) 스몰치킨제공"
서울,01,"01,02","진영빌딩 1층 달리는커피",127.016648114846,"서울 강북구 솔샘로 216","평일 10시~20시 /토요일 10시~18시",,01,"매주 일요일 휴무",01193,51f2ae71e02f4bd3902ae72c2fe44a7a.jpeg,"달리는커피 서울 삼각산점",01,,1042,,37.6198929274703,"결식아동,독거노인","아이 본인만",
서울,01,"01,02","2층 작심스터디카페 발산점",126.83730333193,"서울 강서구 강서로 324",24시간,,02,"365일 영업",07680,478a824727114b6484272f3a0e33dcaa.png,"작심스터디카페 발산점",01,,792,,37.554590947838,"결식아동,독거노인","아이 본인만",
서울,99,01,지하1층,126.840498784915,"서울 강서구 강서로56길 17",매일10:30~20:30,,01,없음,07584,5f0111fc3a8344878c626521a0223ecb.jpg,마라홀릭,01,,199,마라탕,37.559933531546,결식아동,"아이 본인만",마라탕
서울,02,01,"야채가게 ",126.846764855624,"서울 강서구 곰달래로25길 65-27",09시-20시까지,,99,없음,07756,6ba053ca33c149f083d38290f7d86c6e.jpg,우리상회,02,,483,,37.5329700893004,결식아동,"동반 1인",
서울,99,"01,02","류마타워 1층 111호 엘로이카페",126.825514827621,"서울 강서구 공항대로 164",08:00~19:00,,01,"2주 4주 일요일",07807,09259e6692f040c190b505b51fb33965.jpg,엘로이카페,02,,891,"카드 제시 할 시 1인당 음료 한잔",37.5593259702511,"결식아동,독거노인","동반 1인","카드 제시 할 시 1인당 음료 한잔"
서울,01,01,"2층 212호 양평해장국",126.834327579685,"서울 강서구 공항대로 242","매일 09 : 00 ~ 21 : 00",,01,"휴무시간 업음, 휴무일 설, 추석 연휴 ",07805,a73f0a82b961448ba0a5f068bfc1d3b7.png,"양평해장국 강서마곡점",99,"동반자 모두",31,,37.5584801960397,결식아동,"동반자 모두",
서울,99,"01,02",,126.864267295287,"서울 강서구 공항대로59가길 7","예약제로 운영",,02,,07563,909655424fe745099b84d69de959eea0.png,"심리상담연구소 문",99,"아동 및 가족",776,"심리상담 심리평가 등 심리상담서비스",37.5521844920922,"결식아동,독거노인","아동 및 가족","심리상담 심리평가 등 심리상담서비스"
서울,01,"01,02","101동 앞 상가 개러지키친 7호",126.847028675022,"서울 강서구 등촌동 701",16:30~02:00,,01,x,07587,68070fbccaee45acb619659570ec3fb3.jpg,연어꽃,01,,731,,37.559838467768,"결식아동,독거노인","아이 본인만",
서울,99,01,"2층 223,4호",126.827466061572,"서울 강서구 마곡동 760-2","10:30 - 20:30",,03,"1월1일, 명절당일휴무",07788,NULL,샵일구구공,01,,545,"컷트 무료",37.5678542358386,결식아동,"아이 본인만","컷트 무료"
서울,99,"01,02","B동 221호",126.825645363269,"서울 강서구 마곡서로 152",17:00~00:00,,01,"매주 월요일 & 매달 마지막 주의 일요일",07788,f274963b783743a19399346928d81184.jpg,EXPER2,99,"4명까지 가능",717,"당일날 제일 맛있는 메뉴들로 제공!",37.5677107355183,"결식아동,독거노인","4명까지 가능","당일날 제일 맛있는 메뉴들로 제공!"
서울,01,"01,02",,126.825645363269,"서울 강서구 마곡서로 152",,,03,,07788,NULL,"아트포유 셀프사진관",02,,923,,37.5677107355183,"결식아동,독거노인","동반 1인",
서울,01,01,"103호 순흑네",126.825637723392,"서울 강서구 마곡중앙로 59-9",07~20시까지,,01,"일요일 휴무",07807,e7505477c05e44c9a38a6be76c6307da.png,"순희네 꼬마김밥",01,,553,,37.5588474526291,결식아동,"아이 본인만",
서울,99,02,"2층 "금수저"",126.83790949064,"서울 강서구 양천로47길 24","월-금/11:00~20:00 토/11:00~15:00",,01,"매주 일요일 휴무",07522,93cf93cb8d9b44f58af5d508a5b52ef2.png,금수저,03,,648,"백숙을 제외한 전메뉴 (1인 1메뉴)",37.571512748194,독거노인,"동반 2인","백숙을 제외한 전메뉴 (1인 1메뉴)"
서울,02,01,"1층 샌드위치만드는언니",126.839432281354,"서울 강서구 월정로30길 64","월-토 10시~9시",,01,"매주 일요일",07767,a11cd095b3aa4331b5acadf40ac27bf2.jpg,샌드위치만드는언니,01,,409,,37.5348782159865,결식아동,"아이 본인만",
서울,02,01,1층정육점,126.844926152646,"서울 강서구 화곡동 348-4","09-30  22:00",,99,없음,07770,a00e830f04494c50b8121d015cb29bc3.jpg,청춘푸줏간,01,,366,,37.5330070629047,결식아동,"아이 본인만",
서울,,,2f,126.856802264958,"서울 강서구 화곡동 822-20",non,,99,non,07738,NULL,(주)지니글로벌네트웍스,,,23,,37.5344331168718,Nan,Nan,
서울,99,01,"1층 컴포즈커피",126.849702897388,"서울 강서구 화곡로 313",08:00~23:00,,01,없음,07686,d388176af7db4ace801c1f56a2ddb110.jpg,"컴포즈커피 강서구청점",99,"아이 본인 직접 방문",117,"원하는 음료 한잔",37.5522837108672,결식아동,"아이 본인 직접 방문","원하는 음료 한잔"
서울,02,01,"그랜드아이파크 1층/2층",126.85129237152,"서울 강서구 화곡로 347",오전08:00~오후11:00,,01,연중무휴,07649,b7511b8423534f0195de65e7d8c80470.png,투썸플레이스강서구청점,01,,62,,37.5548351849155,결식아동,"아이 본인만",
서울,99,01,"이루는교회 2층 카핏",126.956299965025,"서울 관악구 관악로 234","오전10시 ~ 오후7시",,01,일요일.공휴일,08737,b591a418317640c49e7ffc7fd91bfb78.jpg,카핏,01,,290,"음료1. 디저트1",37.4849602023242,결식아동,"아이 본인만","음료1. 디저트1"
서울,01,"01,02","모두의주방 지하1층 3호",126.956789333907,"서울 관악구 관악로 251","오전9시~익일 오전12시",,01,,08727,NULL,까사피에스타,02,,676,,37.4868970093613,"결식아동,독거노인","동반 1인",
서울,01,01,"1층 부타앤카츠",126.922869808867,"서울 관악구 난곡로34길 70","오전 9시30분 ~ 오후11시",,01,연중무휴,08854,cd1f155fd8b9401b95ecdab00d125f2a.jpeg,부타앤카츠,99,"사장 맘대루",718,,37.4719762339743,결식아동,"사장 맘대루",
서울,02,01,"1층 피자헛",126.918275457904,"서울 관악구 남부순환로 1508",10:30~22:30,,99,,08772,NULL,피자헛난곡2호점,01,,446,,37.4822481666579,결식아동,"아이 본인만",
서울,02,01,"1층 커피플래닛",126.918275457904,"서울 관악구 남부순환로 1508","월-토 7:00-23:00  일9:00-23:00",,01,,08772,NULL,커피플래닛,02,,738,,37.4822481666579,결식아동,"동반 1인",
서울,01,"01,02","지하 1층 13호",126.960689887727,"서울 관악구 남부순환로 1904",11시~10,,01,없음,08792,0c28f05534e04c0a865da8a6d47b9423.jpg,하루하나,02,,855,,37.477865578487,"결식아동,독거노인","동반 1인",
서울,99,01,"5층 티나에스테틱 ",126.977698378432,"서울 관악구 남현길 7",11시~10시,,99,"일요일 공휴일",08806,c9af89d43c184c9f83c961162d90f479.jpg,"티나에스테틱 ",01,,862,두피케어,37.4760684441838,결식아동,"아이 본인만",두피케어
서울,01,"01,02",지하1층,126.938242258684,"서울 관악구 대학5길 8",오후2시-오후10시,,99,"목요일, 일요일 ",08814,9f4602055d4e4ef29075cf2e7409f6f0.jpg,위드짐,01,,143,,37.4691758274797,"결식아동,독거노인","아이 본인만",
서울,01,"01,02","1층 커피정류장",126.938505064613,"서울 관악구 복은길 46",9시~9시,,01,"매주 월요일 휴무",08834,5f7f81eb8d954e50a98bdbbb82b34dff.jpg,커피정류장,01,,263,,37.4744430905482,"결식아동,독거노인","아이 본인만",
서울,01,01,"2층 오후의과일",126.953487329443,"서울 관악구 봉천동 1599-4",11~22,,01,"매주화요일(주말토,일은제외)",08788,d2577cc8b8b44d20a783220e01b691ff.jpg,오후의과일,02,,793,,37.4792776374547,결식아동,"동반 1인",
서울,02,"01,02","1층 Dal.lem",126.948072106992,"서울 관악구 봉천동 464-25","화-토 오후2시~오후10시",,01,,08729,746bdc6e0af54d4484779117f641cf54.jpg,달렘,01,,173,,37.4872139881139,"결식아동,독거노인","아이 본인만",
서울,99,,"1층 피자나라치킨공주",126.94784235524,"서울 관악구 봉천동 892-2",12~24시,,01,"매주 화요일",08748,NULL,피자나라치킨공주,01,,514,피치세트,37.4831376352842,Nan,"아이 본인만",피치세트
서울,99,01,"제1싱가동 104호 백년카츠",126.943250339993,"서울 관악구 봉천로 391","11시 ~ 21시",,01,3시~4시,08750,fcff53e57c6842f8ab0bfe2ec2287b72.png,"백년카츠 관악점",01,,536,"개별메뉴 전부(세트,정식 제외)",37.4834714149035,결식아동,"아이 본인만","개별메뉴 전부(세트,정식 제외)"
서울,99,01,"1층 한우육회마을2호점 ",126.9557439095,"서울 관악구 봉천로 520-1",오후6시~9시,,01,일요일휴무,08789,NULL,"한우육회마을2호점 ",02,,1034,육회비빔밥,37.4793880669445,결식아동,"동반 1인",육회비빔밥
서울,01,"01,99","1층 cu편의점 옆",126.935228480342,"서울 관악구 신림동 1741",24시간,소개추천,01,없음,08780,cd3f884895954b2b84cb13430bb6fcac.png,바다가내손아귀,99,가족포함,753,,37.4827239574967,"결식아동,소개추천",가족포함,
서울,01,"01,02","101호  별꿈다락",126.940355235869,"서울 관악구 장군봉1길 3",12:00~22:00,,01,"정기휴일 없음",08784,464d8ac13d514f858f27918c9a483daf.jpg,"별꿈다락 ",01,,770,,37.4822954340398,"결식아동,독거노인","아이 본인만",
서울,01,01,"1층 백가집",126.933912302835,"서울 관악구 호암로24길 11","오전 11시 ~ 오후 8시",,01,"매주 토요일",08812,NULL,백가집,01,,584,,37.4700189935324,결식아동,"아이 본인만",
서울,01,01,"3층 초심스터디카페 구의점",127.093846129808,"서울 광진구 광나루로 588",24시간,,02,없음,05033,e85a29f3090f4e7db2a25c5de1d112bb.jpeg,"초심스터디카페 구의점",01,,327,,37.542690395626,결식아동,"아이 본인만",
서울,01,"01,02","1층 카페더네네",127.075242530512,"서울 광진구 광나루로20가길 21",07:00~17:00,,01,"토요일, 일요일",05021,695bda944d774484acfef954ba9339d6.png,카페더네네,02,,176,,37.5452236295101,"결식아동,독거노인","동반 1인",
서울,01,01,"지하1층 초심스터디카페",127.097633545774,"서울 광진구 광장동 470-10",24시간,,02,"365일 영업",04974,02c2348df85642b7833907a174c62dbf.jpg,"초심스터디카페 광장점",01,,325,,37.5414174564432,결식아동,"아이 본인만",
서울,01,01,1층,127.089376720305,"서울 광진구 구의로 8","오전 11:30~ 오후 11:30",,01,"평일 오후 3시~5시",05045,634b4b4f54624a79a189234127647d0e.jpeg,먹오삼,02,,392,,37.5386660343001,결식아동,"동반 1인",
서울,99,01,"102동 130호",127.08158295574,"서울 광진구 아차산로 345","09:00 ~ 04:30",,01,연중무휴,05026,NULL,프레드피자건대점,01,,984,피자L한판+음료,37.5375052411306,결식아동,"아이 본인만",피자L한판+음료
서울,01,"01,02","1층 와플소녀",127.087725602762,"서울 광진구 용마산로22길 12","12:00 ~ 19:30",,01,주말,04941,e3723bef3b134c4c9bca740336ed1c9e.jpg,와플소녀,99,누구든지!,552,,37.5635234656428,"결식아동,독거노인",누구든지!,
서울,99,01,"1층 사무실",127.086132169378,"서울 광진구 천호대로119길 6","평일 오전 9:00 ~ 오후 5:00",,99,"주말,공휴일",04931,14ce6bcfe1844970babcae72796d8146.jpg,"주식회사 중원디앤케이",01,,673,"핫팩 한달치 30개. 매달 지급^^",37.5551597847138,결식아동,"아이 본인만","핫팩 한달치 30개. 매달 지급^^"
서울,99,01,"1층 잉크마루",126.856309530936,"서울 구로구 개봉로 50","오전 10시부터 오후 7시까지",,99,"일요일,공휴일",08332,0838590cb15348b288d16ee6316d4210.jpg,잉크마루,01,,301,"잉크충전, 출력, 복사, 코팅",37.4901255807491,결식아동,"아이 본인만","잉크충전, 출력, 복사, 코팅"
서울,99,01,"007호 곱창의축복",126.856935214844,"서울 구로구 경인로 331","오후 12시 저녁 9시",,01,일요일,08226,d517c458dad94f92b84284605229f880.jpg,곱창의축복,99,"본인과 가족(어린이, 청소년)",522,"곱창, 국밥",37.4976918198582,결식아동,"본인과 가족(어린이, 청소년)","곱창, 국밥"
서울,01,01,"지하115호 식당가",126.895419058727,"서울 구로구 구로동 212-8",11-20시,,01,"공휴일 및 주말",08390,effa2164200d4f168a917f516ac319af.jpg,어부식당,03,,494,,37.4836784271634,결식아동,"동반 2인",
서울,99,"01,02","201호 육회지존",126.858879704708,"서울 구로구 남부순환로97길 20-7","16:30~익일 02:00",,01,별도공지,08328,a0eeb1005b7140d2a8afc793d89f5f18.jpg,육회지존(개봉역점),99,"가족 구성원 전부 가능",101,"육회비빔밥,연어장덮밥,외 모든 식사류",37.4939188532264,"결식아동,독거노인","가족 구성원 전부 가능","육회비빔밥,연어장덮밥,외 모든 식사류"
서울,99,"01,02","1층 113호",126.895318461208,"서울 구로구 디지털로26길 38","11:00 ~ 21:00",,01,15:00~17:00,08393,8bcd01079fdd4c5fa98484ce59fc1a28.jpeg,"오로지라멘 구로지타워몰점",02,,548,"차슈동, 교자, 가라아게",37.4798477003537,"결식아동,독거노인","동반 1인","차슈동, 교자, 가라아게"
서울,99,01,이레가구,126.908598792622,"서울 금천구 금하로23길 33",10시-20시,,03,"매주 주일(일요일)",08573,9177fbb09c2e4171bb2c9f06a885e17d.jpg,이레가구,01,,780,책상/의자,37.4527800064823,결식아동,"아이 본인만",책상/의자
서울,99,01,306호,126.887100662443,"서울 금천구 디지털로9길 46","오전 10시 ~ 밤 10시",,02,일요일,08512,3ec8e39606be4f42914f9bd245532af3.png,"티엔티 스피치",01,,856,"보이스 트레이닝 (예약 필수)",37.4800588086696,결식아동,"아이 본인만","보이스 트레이닝 (예약 필수)"
서울,99,"01,02","1층 더카페 이네스트점",126.890029536025,"서울 금천구 범안로 1155",07:30~21:00,,01,,08587,09ea7f4adc0f413fb7e430694fff1409.jpg,"더카페 이네스트점",02,,850,"음료1, 베이커리1",37.4668187098558,"결식아동,독거노인","동반 1인","음료1, 베이커리1"
서울,99,01,라라브레드1층,127.077743114464,"서울 노원구 공릉동 350-22",10:00~21:00,,01,x,01835,NULL,라라브레드,01,,656,"직원선택 2종",37.6249345631284,결식아동,"아이 본인만","직원선택 2종"
서울,99,"01,02","태릉해링턴플레이스 상가 2층 올가드림",127.08160104563,"서울 노원구 공릉로34길 86",오전10시~오후8시,,99,"월요일,토요일,일요일",01817,NULL,"올가드림뷰티 공릉점",01,,884,"모공케어,여드름케어",37.6257653709603,"결식아동,독거노인","아이 본인만","모공케어,여드름케어"
서울,99,01,"상가동 209호",127.071935248871,"서울 노원구 덕릉로73길 28","평일 :13시-20시30분 / 토요일 : 11시-18시",,01,"매주 일요일,월요일 정기휴무",01706,b9711536cfea4dd38badb90314d3cec7.jpg,헤스론,01,,924,구움과자류,37.6524755833309,결식아동,"아이 본인만",구움과자류
서울,99,01,지층,127.05639992835,"서울 노원구 동일로 1598",11:30~21:30,,01,15:00~17:00,01631,NULL,달인보쌈,01,,475,마늘보쌈도시락,37.6710561405102,결식아동,"아이 본인만",마늘보쌈도시락
서울,01,"01,02,99","효영빌딩 102호",127.073233058704,"서울 노원구 동일로173가길 25",09~20,"산악구조대, 산림청,",03,"일요밀 휴무",01860,b35109ecae0f41ff8640136b36bfd311.jpg,슈마스터태릉점,02,,405,,37.6194106124465,"결식아동,독거노인,산악구조대, 산림청,","동반 1인",
서울,01,"01,99","상가동 2층 201호 용인대금메달태권",127.056999292729,"서울 노원구 동일로250길 18","12:00 ~ 22:00",사회적배려대상자,02,"토. 일. 공휴일",01623,422e88b1d9f64b30907e25cb4c9f5f59.jpg,용인대금메달태권도,01,,892,,37.6818424631869,"결식아동,사회적배려대상자","아이 본인만",
서울,01,"01,02","현성빌딩 지하1층 B04호",127.062249590194,"서울 노원구 상계로 65",10:00-02:00,,99,연중무휴,01693,6b69647919aa4dbca00b07486664b36a.png,"카툰공감 노원역점",01,,559,,37.6563543249568,"결식아동,독거노인","아이 본인만",
서울,99,"01,02","1층 미소한가득",127.063467284016,"서울 노원구 석계로9길 10",12:00~19:00,,99,"일,월,화,공휴일",01901,29261b9d60d64b0cac2290daae94394d.jpg,미소한가득,01,,1061,"보틀케이크 2개 ",37.6175969943174,"결식아동,독거노인","아이 본인만","보틀케이크 2개 "
서울,99,01,"1층이리로레스토랑 ",127.0702954891,"서울 노원구 하계동 208-19","11시30분 ㅡ5시",,01,없음,01790,716fb033e9d24cc4a8079e9e203620fa.png,이리로,01,,985,"돈가스,파스타",37.6388750521797,결식아동,"아이 본인만","돈가스,파스타"
서울,99,"01,02","1층 카페거실",127.066631231518,"서울 노원구 화랑로47길 9",,,01,,01914,e1721cbcbaec405e91268455b4a7948b.jpeg,카페거실,01,,329,"음료메뉴 전부",37.6157458820118,"결식아동,독거노인","아이 본인만","음료메뉴 전부"
서울,02,01,"영진빌딩 106호",127.050075370396,"서울 도봉구 노해로69길 21-11","평일오후4시-12시 주말,휴일오전11시~밤 12시",,01,"둘째넷째 화요일 휴무",01414,1cc9ad8369884b49afad580b4ac29b99.jpg,족발야시장창동역점,03,,359,,37.6531099173117,결식아동,"동반 2인",
서울,99,99,405호,127.035966945313,"서울 도봉구 도당로 76",wannabegoods_lux,"마스크가 필요한 어린이",99,"토,일",01343,e2a4090e32ce4669b6570cb8d9354a4a.jpg,"워너비굿즈 ",02,,808,"어린이 구리사마스크",37.6645720367997,"마스크가 필요한 어린이","동반 1인","어린이 구리사마스크"
서울,02,01,1층,127.04355932961,"서울 도봉구 도봉동 597-21","평일 오전 11시30분 부터 오후 9시30분",,01,"오후2시30분 부터 오후 6시까지",01307,NULL,써이포차나,02,,271,,37.6778319910298,결식아동,"동반 1인",
서울,01,"01,02","1층 교촌치킨 쌍문역점",127.035603430274,"서울 도봉구 도봉로 505","12:00 ~ 01:00",,01,,01442,77166023ca9a479ebdaa2439a075e6c6.jpg,"교촌치킨 쌍문역점",03,,100,,37.6507287394976,"결식아동,독거노인","동반 2인",
서울,99,,"메가커피 창동역점",127.049203340119,"서울 도봉구 마들로11가길 13",09:00~21:00,,01,,01414,NULL,"메가커피 창동역점",99,"첫방문시 맴버쉽쿠폰발급(아이 본인만)",660,"모든 음료",37.652904680016,Nan,"첫방문시 맴버쉽쿠폰발급(아이 본인만)","모든 음료"
서울,01,"01,02","무중력 지대 달 1/6",127.048746708842,"서울 도봉구 마들로11길 75","11::00 - 21:00",,01,일요일,01414,1680fab24b974c73b5c0d8077327325c.jpg,소스공작단,02,,509,,37.6531586763949,"결식아동,독거노인","동반 1인",
서울,02,01,"105호 나주곰탕",127.044821359728,"서울 도봉구 방학동 717-2","오잔8시  부터 오후9시",,01,없음,01332,NULL,바우네나주곰탕,01,,1052,,37.6672859117735,결식아동,"아이 본인만",
서울,01,"01,02",1층,127.038573894401,"서울 도봉구 창동 554-1",16:00-02:00,,01,일요일,01477,NULL,청춘불닭발,02,,1084,,37.636830666863,"결식아동,독거노인","동반 1인",
서울,02,01,"2층 주크(모드베베)",127.037944960884,"서울 도봉구 창동 703",,,99,,01428,60ff90ee67534226bb10b8ec9db5f5ab.jpg,주크(모드베베),,,827,,37.6530446166484,결식아동,Nan,
서울,99,"01,02,99",2층,127.053121101415,"서울 동대문구 이문로1길 16-3","오후2시부터 7시","기초생활수급자 ",02,"토,일,공휴일",02461,1552e0747ff84c12ae5f7e19a9f67475.jpeg,예술의악당음악학원,01,,782,"피아노 교습비 90% 감면",37.5891013521078,"결식아동,독거노인,기초생활수급자 ","아이 본인만","피아노 교습비 90% 감면"
서울,01,"01,02","1층 사미커피",127.071642338987,"서울 동대문구 장한로14길 70",09:30~23:59,,01,"평일 17:30~20:00, 주말X, 공휴일휴무",02642,0facd33502194a9581fe9d3ba50d0bbe.png,사미커피,02,,141,,37.5651255698339,"결식아동,독거노인","동반 1인",
서울,01,01,"1층 유끼노하나",127.072825466117,"서울 동대문구 장한로36길 10","낮12시~익일 새벽 1시(금,토 익일 새벽 2시)",,01,"오후 4시20분~6시 브레이크타임",02522,91f5b229660740f6981fb9e3aca27339.jpg,유끼노하나,01,,419,,37.5774210856086,결식아동,"아이 본인만",
서울,99,01,1층,127.058451232298,"서울 동대문구 전농동 46-71","오전11시부터 오후11시까지",,01,없음,02507,be9f317bf82943e9896e9ee5c5b63183.jpg,"봉수아피자 답십리점",01,,196,"콤비네이션XL 불고기XL 하와이안XL",37.5788006613302,결식아동,"아이 본인만","콤비네이션XL 불고기XL 하와이안XL"
서울,01,"01,02","지하 1층 너나들이",127.050858694,"서울 동대문구 회기동 60-71",12:00~22:00,,01,연중무휴,02454,ab8a85111e9144219ee7b9ccd4909aff.jpeg,"너나들이 만화카페 ",01,,588,,37.5923219539782,"결식아동,독거노인","아이 본인만",
서울,01,01," 3층 정재광 복싱클럽",127.053100873006,"서울 동대문구 회기로 152","오전 12시 부터  오후 10시 까지",,02,"법정 공휴일 모두 쉽니다.",02460,aec747b5bb794391acb2d52205ee752a.jpg,"정재광 복싱 클럽",01,,468,,37.5910683173807,결식아동,"아이 본인만",
서울,99,01,"1층 우측",127.060577373146,"서울 동대문구 휘경로 6-8","오전 11시~오후 7시",,01,"매주 월요일 휴무",02440,f343267741984b2bae35970f7dc3eeed.jpg,"이문동辛냉면 ",01,,904,"냉면, 만두",37.5958064562151,결식아동,"아이 본인만","냉면, 만두"
서울,01,01,"1층 봉식이떡볶이 ",126.931324401659,"서울 동작구 국사봉1길 70","오전 11시30분~오후9시30분",,01,월요일,07043,dd708970061a481cb4ce2d6f690977e2.jpg,봉식이떡볶이,01,,650,,37.4982794476822,결식아동,"아이 본인만",
서울,99,,"스페이스살림 1층 스타트업매장 2호",126.927272487671,"서울 동작구 노량진로 10","13:00 - 20:00 (요일별 상이)",,03,"일,월 휴무",06938,5f33988923e040b78cb960811e1d4f88.jpg,월경상점,02,,181,"누르 생리대",37.5123933402032,Nan,"동반 1인","누르 생리대"
서울,99,"01,99","1층 육대장",126.981328420102,"서울 동작구 사당동 89-6",오전11시~오후9시,독거노인,01,연중무휴,06997,1e1f5f40c5484f6992432d9bcd378a74.jpg,육대장이수역점,02,,239,"육개장,설렁탕",37.4887692431258,"결식아동,독거노인","동반 1인","육개장,설렁탕"
서울,01,01,오태식해바라기치킨,126.971246021729,"서울 동작구 사당로16가길 42","오전 11시 ~ 새벽 1시",,01,주일,07010,51eb19e92a1342c7bbf8fde0085662e9.jpg,"오태식해바라기치킨 사당153점",01,,544,,37.4835794845257,결식아동,"아이 본인만",
서울,01,01,"지하2층 Bread.co 브레댄코",126.947700373641,"서울 동작구 상도로 지하 272",07:00-22:00,,01,,07032,30cf962d1bfa49b3982b3ebd06ec84f6.jpg,브레댄코,02,,910,,37.5032080456431,결식아동,"동반 1인",
서울,01,"01,02,99","지상 1,2층",126.9542749226,"서울 마포구 굴레방로7길 22",09:00~22:00,경찰,01,"구정, 추석 휴무",04115,3e5bb874fd654b32b4e31de088d00d1c.jpg,커피프릭,01,,929,,37.5563504902216,"결식아동,독거노인,경찰","아이 본인만",
서울,01,"01,02",피에스타7커피,126.923901713362,"서울 마포구 동교동 164-18","평일 : 오전 8시~23시,주말 : 오전 9시~23시",,01,연중무휴,04050,e145bd03f14d4927b1f4323c74ea9845.png,피에스타7커피,01,,941,,37.5559645111431,"결식아동,독거노인","아이 본인만",
서울,01,"01,02","2층 (망원동,삼운빌딩)",126.90966969503,"서울 마포구 동교로 67",1200~1900,,02,"토,일요일",04018,NULL,성산베스트플러스학원,02,,623,,37.5537428023198,"결식아동,독거노인","동반 1인",
서울,99,01,"1층 소빛골드스테이션",126.947054064308,"서울 마포구 마포대로 53",09:00~20:00,,01,없음,04158,1a6d0cc3ca76472a80ca63e40aedcc19.png,"sobit gold station",01,,1077,"라면세트와 케잌",37.5414321628548,결식아동,"아이 본인만","라면세트와 케잌"
서울,01,"01,02",102호,126.904193634318,"서울 마포구 망원동 424-9",10시~20시,,03,"없어요(예약하면 됩니다)",03964,16b3720736304ec78434e0e1303b8e07.jpg,달콤헤어,01,,763,,37.5581275138621,"결식아동,독거노인","아이 본인만",
서울,01,"01,02","1층 동경규동",126.896149350546,"서울 마포구 매봉산로2길 68","11:00 ~ 20:00",,01,"15:00~17:00 휴무시간 / 공휴일, 일요일 휴무",03930,db74628119934a94a13b57d621cdd15c.jpg,동경규동상암,03,,898,,37.5763732585256,"결식아동,독거노인","동반 2인",
서울,01,"01,02,99","1층 깊이커피",126.913489362835,"서울 마포구 서교동 384-14","매일 10:00 ~ 24:00","경찰 공무원 소방공무원 20% 할인 ",01,없음,04035,3c1252ec44644f9cba06385689c737e6.jpg,깊이,02,,537,,37.5522379330536,"결식아동,독거노인,경찰 공무원 소방공무원 20% 할인 ","동반 1인",
서울,01,"01,99",2층,126.920938707014,"서울 마포구 서교동 405-17","오전11~익일 오전6시",초등~고등학교1학년까지만(학생증확인),01,연중무휴,04048,4921a1e8403349fda0b6b99fa0d2c3d6.jpeg,슈츄안,99,"본인+동반1인, 복지카드+학생증지참",575,,37.5503889019778,"결식아동,초등~고등학교1학년까지만(학생증확인)","본인+동반1인, 복지카드+학생증지참",
서울,02,01,"지층 좌측호",126.916051533917,"서울 마포구 성미산로13길 89","평일 10~20시 토요일 11~20시 일요일 11~18",,01,"매주 수요일",03974,40247e40ad334a96b07024f542cb71c6.jpg,네임리스커피,02,,750,,37.5648151767356,결식아동,"동반 1인",
서울,99,"01,02","1층 꽃집",126.930335994681,"서울 마포구 와우산로 161",12:00~19:00,,99,"월,화 휴무",04052,634580c512944e23beb723d85e9ac726.jpeg,블루밍부케,02,,360,오늘의꽃다발,37.5553639134904,"결식아동,독거노인","동반 1인",오늘의꽃다발
서울,99,"01,02","전원빌딩 2층 진짜파스타",126.923271338076,"서울 마포구 와우산로 64","화~일 11:30 ~ 21:00",,01,"15:30~16:30 월요일 휴무",04067,NULL,진짜파스타,02,,30,"전메뉴 2만원 이내 제공",37.5502199719304,"결식아동,독거노인","동반 1인","전메뉴 2만원 이내 제공"
서울,01,01,"2층 카페",126.922276165229,"서울 마포구 와우산로11길 9-10",12:00~20:00,,01,,04049,ac59c6bae10c41f78da082586d39363b.png,코코아트리,,,415,,37.5484724654338,결식아동,Nan,
서울,99,"01,02","101호 로샤뷰티",126.929622059266,"서울 마포구 와우산로29길 4-24",10:30-8:00,,99,"매주 달라짐",04052,5f53446e345b47a49857023a4379eb96.jpeg,로샤뷰티,01,,1085,"헤어 커트",37.5549238033154,"결식아동,독거노인","아이 본인만","헤어 커트"
서울,99,01,"2층 201호 두두리두팡",126.907809230389,"서울 마포구 월드컵로23길 18","매주 금토일 오후12시~18시(조기품절시 조기마감)",,01,"매주 월화수목 휴무",04011,6936d260e4bb449aab4f39b743517e7f.jpeg,두두리두팡,01,,56,"1메뉴(케이크/제과 모두포함) 1음료",37.5570912724893,결식아동,"아이 본인만","1메뉴(케이크/제과 모두포함) 1음료"
서울,01,01,"kgit센터 1층 117,118호",126.888982346416,"서울 마포구 월드컵북로 402","평일 11시~9시",,01,,03925,52bf8fa2ef15446cb86a0afba33971c2.png,블리스버거상암점,02,,521,,37.580107752042,결식아동,"동반 1인",
서울,01,"01,02","kgit센터 지하1층 푸드코트 109",126.888982346416,"서울 마포구 월드컵북로 402",11:30~20:00,,01,토일휴무,03925,8c17b93226ee4dfdaecaf69e17a0675d.jpg,모데나,01,,642,,37.580107752042,"결식아동,독거노인","아이 본인만",
서울,02,,"전자회관 B1 피트니스플랜비",126.88838954354,"서울 마포구 월드컵북로54길 11",오전10~오후9시,,99,"공휴일 휴무",03924,a251e38b79344ed4b7bb4bfb2bf05aa4.jpg,피트니스플랜비,99,청소년,749,,37.5808876335017,Nan,청소년,
서울,01,"01,02",218,126.917897379411,"서울 서대문구 가재울미래로 2",9시-18시,,02,,03709,NULL,아하하일본어,01,,448,,37.5744203632344,"결식아동,독거노인","아이 본인만",
서울,01,"01,02",1층,126.913187196599,"서울 서대문구 거북골로 150",오전10시새벽1시,,01,3시~4시,03690,3715e31d6e7c4fc694a5e8149e7cb01d.jpg,줄리앙와플and커피,01,,671,,37.5755555800441,"결식아동,독거노인","아이 본인만",
서울,02,01,"1층 EYE OH",126.927395065288,"서울 서대문구 신촌로 1",10:00~21:00,,99,없음,03785,NULL,아이오안경원,01,,15,,37.5588739584805,결식아동,"아이 본인만",
서울,99,"01,99","1층 JUNH",126.928869411882,"서울 서대문구 연희동 130-13",11-6pm,"저소득층 복지누리카드소지자",02,월요일,03707,1ec0ddf5477e495599be286a3b26beea.jpeg,준에이치(JUNH),02,,915,원데이클래스,37.5673578260953,"결식아동,저소득층 복지누리카드소지자","동반 1인",원데이클래스
서울,99,01,1층,126.929990983596,"서울 서대문구 연희로 89-8",오전11시~밤9시,,01,"매주 일요일",03708,01787a4713cb404cbcc72e5f49180ffc.jpg,황카페,01,,875,"로제떡볶이, 음료",37.5664345254016,결식아동,"아이 본인만","로제떡볶이, 음료"
서울,99,01,"1층 고스트요거트",126.944874696342,"서울 서대문구 이화여대길 52-15","월-금 11-19/토 12-19",,01,"14-15휴게시간/첫째주 토요일,일요일 및 공휴일 휴무",03765,NULL,"고스트요거트 이대점",02,,529,"요거트+콤비네이션 토핑",37.5593342723552,결식아동,"동반 1인","요거트+콤비네이션 토핑"
서울,01,01,1층,126.945797770947,"서울 서대문구 홍은동 48-106",11:00-22:00,,01,없음,03616,d11c3e0d92324dafaef953528248361b.jpg,싸움의고수,02,,63,,37.5938708925936,결식아동,"동반 1인",
서울,01,01,"지하 116호",127.029970916611,"서울 서초구 강남대로 321",오전11시-밤12시,,01,"매주월요일 정기휴무",06627,d9c5db27967f4108bacc8a22625fdbbe.jpg,"구슬함박 서초점",99,"만19세 미만 청소년 및 아동",1013,,37.4915573375838,결식아동,"만19세 미만 청소년 및 아동",
서울,99,01,1층,127.04156190404,"서울 서초구 강남대로12길 50",11시30~14시,,01,14시~17시,06779,1a398b9021244e6eb11ee23f97b2c2c8.jpg,"해물과차돌박이 ",02,,819,점심단품메뉴,37.4708111610875,결식아동,"동반 1인",점심단품메뉴
서울,99,"01,02","장금수부대찌개양재점 ",127.040996709233,"서울 서초구 강남대로30길 73-3","오전11시 오후9시30",,01,"일요일  구정 신정  추석  전일 당일",06741,53491f2f56b5406c8307590061905b75.jpg,"장금수부대찌개양재점 ",02,,44,"부대찌개 ",37.4828757870513,"결식아동,독거노인","동반 1인","부대찌개 "
서울,01,01,"신사제2빌딩 101호 돈가스신사",127.018632257183,"서울 서초구 나루터로15길 6","평일 11:00-21:00 토요일 11:00-15:00",,01,"일요일, 국경일",06524,NULL,돈가스신사,01,,169,,37.5161826191158,결식아동,"아이 본인만",
서울,99,01,"하이브랜드 리빙관 지하1층  림돈",127.036947909974,"서울 서초구 매헌로 16",오전11시~오후8시,,01,"매주 일요일",06771,5aa27dada9dc47e7a3f55da8b4df7362.png,림돈(돈가스),01,,1053,돈가스,37.462467348157,결식아동,"아이 본인만",돈가스
서울,01,"01,02","하이브랜드 지하1층 푸드코트내 113",127.036947909974,"서울 서초구 매헌로 16",09~20,,01,"일요일휴무 14~16시 브레이크타임",06771,a162bf4bab1346a7bf8c7342b7f481ea.jpg,아이언그릴,01,,1069,,37.462467348157,"결식아동,독거노인","아이 본인만",
서울,01,01,"1층 101호 자판기가게",126.984170951853,"서울 서초구 방배천로2안길 96",24시간,,01,없음,06677,535563bd853344e1a1e681ee5f33bddb.jpg,자판기가게,02,,556,,37.4812784039675,결식아동,"동반 1인",
서울,,,"럭스빌딩 6층",126.998004848494,"서울 서초구 서래로 17",,,02,,06581,NULL,원더스잉글리시아카데미,,,413,,37.4966667687424,Nan,Nan,
서울,99,01,"1층 고스트요거트",127.016237149788,"서울 서초구 서초중앙로20길 37","월-금 10-19:30/토 11-19",,01,"14-15휴게시간/첫째주토요일, 일요일 및 공휴일휴무",06634,51fd163190084f8e9a62356733328acf.jpeg,"고스트요거트 교대본점",02,,530,"요거트+콤비네이션 토핑",37.4925406797603,결식아동,"동반 1인","요거트+콤비네이션 토핑"
서울,99,01,만석돼지갈비,127.034748910821,"서울 성동구 고산자로12길 2","11시반부터 10시",,01,없음,04744,4c4bc9de51bc4436852bf4a22bd4c8e4.jpg,만석돼지갈비,02,,612,"정심식사 2인분,저녁 삼겹또는갈비 2",37.5601858113006,결식아동,"동반 1인","정심식사 2인분,저녁 삼겹또는갈비 2"
서울,01,"01,02","카페 드 모나코",127.038836506223,"서울 성동구 고산자로2길 65","오전9시 ~ 오후 10시",,01,연중무휴,04745,NULL,"카페 드 모나코",01,,1011,,37.556198526017,"결식아동,독거노인","아이 본인만",
서울,99,01,"투썸플레이스  금호하이리버점",127.024553084225,"서울 성동구 금호로 105",8~23시,,99,없음,04728,fe855ad33ae64f6abe0e246a43acd983.jpg," 투썸플레이스  금호하이리버점",01,,83,"샌드위치류. 브레드류. 음료류. 케익",37.5523763631514,결식아동,"아이 본인만","샌드위치류. 브레드류. 음료류. 케익"
서울,01,01,"상가152동 비1층 비106호",127.02634785313,"서울 성동구 무학로 33",10:00~21:00,,01,"매주 월요일",04702,6aad57af5ffa49cfb0fbc85bd7708efd.jpg,돈카츠마켙왕십리점,02,,696,,37.5691641596929,결식아동,"동반 1인",
서울,,01,"1층 쑤쑤타이",127.049094180399,"서울 성동구 상원1길 12",,,01,,04779,NULL,쑤쑤타이,01,,658,,37.544970880487,결식아동,"아이 본인만",
서울,01,"01,02,99","성원상떼뷰오피스텔 107호 루트비커피",127.062606836404,"서울 성동구 아차산로15길 10","07:00 ~ 18:30","소방관 1인 무료, 추가인원50%할인",01,"일요일 (임시휴무있음)",04798,d6cd6ec5b9634719b09c62427c8b4cb2.png,"루트비커피 성수점",01,,848,,37.5436962428787,"결식아동,독거노인,소방관 1인 무료, 추가인원50%할인","아이 본인만",
서울,99,01,"vip빌딩 2층",127.030650698533,"서울 성동구 왕십리로 353","11:00 ~ 21:00",,99,없음,04710,aa6c3078c77746f2ab9a91f7304b53a6.jpg,"어반그라운드헤어 상왕십리점",01,,619,"쥬니어 커트",37.5636338891177,결식아동,"아이 본인만","쥬니어 커트"
서울,99,"01,02",1층,127.033071166282,"서울 성동구 왕십리로21가길 1",11:00~23:00,,01,없음,04715,NULL,더짜글왕십리점,02,,988,"짜글이1인분,짜글이2인분",37.5610524214026,"결식아동,독거노인","동반 1인","짜글이1인분,짜글이2인분"
서울,99,01,"Golden House 1층",127.030320618807,"서울 성북구 고려대로24가길 13-2","PM 5:00 ~ AM 1:00",,01,"정기휴무 없음.",02856,8629c0845dc94935b2d489d9ae1de841.png,"주식회사 늘",01,,429,"식사류 모든 품목",37.5853376752738,결식아동,"아이 본인만","식사류 모든 품목"
서울,99,01,"1층 대연생고깃간",127.06114839724,"서울 성북구 돌곶이로22나길 29","오전9시30분~ 저녁9시30분",,01,,02784,348744d6fc504e8e8825ebf5f2f1a965.jpg,대연생고깃간,01,,1079,"모든 고기 20.000원 상당",37.6092060500774,결식아동,"아이 본인만","모든 고기 20.000원 상당"
서울,99,"01,02","지층 사계절치킨",127.018935526044,"서울 성북구 동소문로24길 31","오전10시부터 새벽2시까지",,01,앖음,02845,3de914eca6f4496eb9c718a21e0a2097.jpg,대한푸드(사계절치킨),02,,346,"치킨 세가지 후라이드간장 양념",37.5922615653835,"결식아동,독거노인","동반 1인","치킨 세가지 후라이드간장 양념"
서울,99,"01,02",1층,127.019376898115,"서울 성북구 보문로34길 72-4","오전 10시 30분~ 밤 12시",,01,"매주 월요일",02849,b7c3a1230d4f45fab4e9801c4897f731.jpg,"나이스 샌드위치",99,"아이 본인과 친구들 사주고 싶을때  ",298,"모든 품목이고 간식도 챙겨 보낼께요",37.5909710928683,"결식아동,독거노인","아이 본인과 친구들 사주고 싶을때  ","모든 품목이고 간식도 챙겨 보낼께요"
서울,01,"01,02,99",1층,127.015445141281,"서울 성북구 서경로 37","11:00 ~ 21:30 (마지막 주문 20:30)","군인 경찰",01,"평일 15:00 ~ 17:00 신정,명절당일",02716,08949426e4244223b94f8a1921d30975.png,하오하오츠,02,,240,,37.6071243685627,"결식아동,독거노인,군인 경찰","동반 1인",
서울,99,,"근린상가2동 2103호(108동상가)",127.02878397742,"서울 성북구 숭인로 50",11:00~21:00,,01,15:00~16:30,02727,39af29003b2a4e18b73c8bb2c7ec3c15.jpg,72420미아사거리점,02,,147,"쌀국수 및 볶음밥",37.61198667089,Nan,"동반 1인","쌀국수 및 볶음밥"
서울,99,01,지하1층,127.029728957428,"서울 성북구 안암동5가 104-30","9시부터 새벽3시",,99,없습니다.,02856,NULL,"닥터브이 코인노래연습장",01,,344,"의류,신발사업도하고있습니다 신발,옷",37.5839619191362,결식아동,"아이 본인만","의류,신발사업도하고있습니다 신발,옷"
서울,02,"01,99",1층,127.042981214423,"서울 성북구 장월로1길 111","화수목금 12:30~7시(제품 소진시 조기마감)",기초수급가정아동,01,토일월,02752,387a290a2eb44ae881e327e20ecf934a.jpg,샤롱샤롱,01,,257,,37.6043070045892,"결식아동,기초수급가정아동","아이 본인만",
서울,99,01,1층,127.052173668684,"서울 성북구 장위동 66-323","오전11시30분 ~ 오후9시",,01,"오후2시~오후5시 재료준비시간, 마지막주문 8시30분",02771,af77a86280214cf6a3cbc0b16c6d34fe.gif,서민스시,02,,506,"점심메뉴 2인 지급 26,000원상당",37.6095747190865,결식아동,"동반 1인","점심메뉴 2인 지급 26,000원상당"
서울,01,"01,02","상가1층 쌀똑핫도그",127.0421197278,"서울 성북구 하월곡동 227",11:00-23:0,,01,연중무휴,02751,45dcdccc710242ceabee6556e7b3ec8b.jpg,"쌀똑핫도그 월곡직영점",02,,501,,37.6032775735046,"결식아동,독거노인","동반 1인",
서울,99,"01,99",기와집갈비,127.052289671009,"서울 성북구 화랑로25길 18",오전11~오후10,독거노인,01,"매주 일요일",02771,NULL,발효명가기와집갈비,02,,129,식사류,37.6094542054792,"결식아동,독거노인","동반 1인",식사류
서울,01,01,"102동119호 필라멘",127.120436228994,"서울 송파구 가락동 80","11-14.30  16:30-21:00",,01,15:00-16:30,05718,52e8bd07e7dd40cd9693f2f1d7dffa29.jpg,필라멘,01,,183,,37.4950644942941,결식아동,"아이 본인만",
서울,01,"01,02","1층 카페시아 아틀리에",127.123666302059,"서울 송파구 문정로1길 34","10:00 ~ 20:00",,01,없음,05805,73a0fe1b3bf04b3ca3c0664d50a79a1f.jpg,카페시아아틀리에,01,,118,,37.489163527231,"결식아동,독거노인","아이 본인만",
서울,99,01,106호,127.09859524555,"서울 송파구 삼학사로12길 14","10:00 ~ 22:00",,01,,05679,04fa263d79684337ab3d43ff74869011.jpg,"달떡볶이 잠실점",02,,620,"초승달세트(떡볶이,순대,튀김,음료)",37.5015438732762,결식아동,"동반 1인","초승달세트(떡볶이,순대,튀김,음료)"
서울,02,01,"2층 입분식가정집",127.110401710301,"서울 송파구 송파동 51-4",11:30~21시,,01,없음,05619,NULL,입분식가정집,03,,321,,37.509998549661,결식아동,"동반 2인",
서울,99,"01,02,99",101호,127.110326108481,"서울 송파구 송파동 51-8","10:00 -22:00","65세이상 어르신",01,연중무휴,05619,a68ce74d494045d2b973174b6cb84dab.jpg,천향마라탕잠실점,03,,507,마라탕,37.509889148291,"결식아동,독거노인,65세이상 어르신","동반 2인",마라탕
서울,99,01,"장미상가 A동 314호",127.099280476931,"서울 송파구 신천동 7",10-8,,03,"명절 외 연중무휴",05504,3540ca9f394847518e118822c2cb4e36.jpg,헤어매직,01,,418,"컷트 무료",37.5188849274204,결식아동,"아이 본인만","컷트 무료"
서울,02,01,"현대백조아파트상가 a동 102호",127.129259504158,"서울 송파구 오금동 11","오후 3시~새벽 1시",,01,없음,05652,1ff26b78ea274cc1be1bd18d8b206cb4.jpg,1974,02,,818,,37.5093910634084,결식아동,"동반 1인",
서울,99,01,"라라브레드 1층",127.109104693485,"서울 송파구 오금로16길 4","10:00 ~ 21:00",,01,x,05618,NULL,"라라브레드 잠실점",01,,655,"직원선택 2종",37.511132677323,결식아동,"아이 본인만","직원선택 2종"
서울,99,"01,02","상가동 103호",127.102235824155,"서울 송파구 올림픽로35가길 10","오전8:00 ~ 오후7:00",,01,"주말 및 공휴일 휴무",05510,7c431ea4c25f4855980c55920e5b56e1.jpg,"티테리아 (TEA TERIA)",01,,992,"음료 1잔 (4,000원 기준)",37.5169129939061,"결식아동,독거노인","아이 본인만","음료 1잔 (4,000원 기준)"
서울,99,"01,02,99","1층 북경짜장",127.141629765798,"서울 송파구 위례광장로 120",10:00~20:30,"정말 돈없고 배고픈 사람들",01,없음,05852,2a126e2cc2904fc69dbdbfd4d72fc803.jpg,"북경짜장 위례신도시점",01,,598,"짜장, 짬뽕, 볶음밥,1인탕수육등등",37.4750145597312,"결식아동,독거노인,정말 돈없고 배고픈 사람들","아이 본인만","짜장, 짬뽕, 볶음밥,1인탕수육등등"
서울,02,"01,02","1층 105호 서서울",126.831307264404,"서울 양천구 남부순환로58길 33",오전9시~저녁10시,,01,연중무휴,07915,e42543fe10864cb88fa05b06daccfaed.jpg,서서울,02,,262,,37.5291752709283,"결식아동,독거노인","동반 1인",
서울,,,B1,126.870615708032,"서울 양천구 목동서로 213",,,01,,07995,NULL,한옥안동국시,,,85,,37.5280169945095,Nan,Nan,
서울,99,"01,02","1층 성찬푸드/족발,냉면,짜글이",126.83559907142,"서울 양천구 신월동 122-15","오전11시30분~익일 02시 까지",,01,없음,07923,beadedd2f92e4098a226e9e643631c06.jpg,성찬푸드,99,"그날 상황에 따라 달라질수 있습니다",260,냉면류,37.5301152104281,"결식아동,독거노인","그날 상황에 따라 달라질수 있습니다",냉면류
서울,01,"01,02","104호 유캔두잇신월점",126.833361618991,"서울 양천구 신월동 22-19",오전10시~밤10시,,01,연중무휴,07903,NULL,"유캔두잇 신월점",01,,1065,,37.5407345909413,"결식아동,독거노인","아이 본인만",
서울,99,"01,02,99","1층 피자베이",126.860058197015,"서울 양천구 신월로 351","오전 11시부터 밤 12시까지","식사를 잘못하는 불우한이웃!!",01,,08021,a2d2c05bfa7548a19dc37c3e7b87247b.jpg,피자베이본점,99,"피자 한판으로 제공 ",184,"오늘의요일피자 와 음료수 증정",37.5221688088692,"결식아동,독거노인,식사를 잘못하는 불우한이웃!!","피자 한판으로 제공 ","오늘의요일피자 와 음료수 증정"
서울,99,01,1층,126.858453438138,"서울 양천구 신월로36길 3-1",12시~24시,,01,연중무휴,08086,NULL,푸라닭신정1동점,01,,546,푸라닭치킨,37.5212685974727,결식아동,"아이 본인만",푸라닭치킨
서울,01,01,"601호 엘리트태권도장",126.8325646968,"서울 양천구 신정이펜2로 22",13시30분~21시,,02,"토,일,공휴일",08049,40bc632c9f0d4ecc9300b24388d3cfaa.jpg,엘리트태권도,01,,264,,37.5128956855906,결식아동,"아이 본인만",
서울,99,01,1층,126.897180900565,"서울 영등포구 당산로35길 6","11:00 ~ 22:00",,01,"공휴일, 일요일 (코로나로 인해 토요일 당분간 휴무)",07219,NULL,당산돈,01,,189,김치찌개,37.5289874492952,결식아동,"아이 본인만",김치찌개
서울,02,01,1층식당,126.898142005476,"서울 영등포구 도림동 232-2",11시~~9시,,01,3시~5시주말휴무,07374,NULL,쿠이대,01,,412,,37.5071563489561,결식아동,"아이 본인만",
서울,99,01,"모두의주방 5호 홍대돈부리",126.904945678759,"서울 영등포구 도신로29사길 3",09:00-20:50,,01,연중무휴,07368,c8d89272273b4e8e9279f1d9ca0e8bf0.jpg,"홍대돈부리 영등포점",02,,58,"가츠동, 믹스가츠동, 가라아게동, 규",37.5101832679728,결식아동,"동반 1인","가츠동, 믹스가츠동, 가라아게동, 규"
서울,02,"01,02","모두의주방 1호 까사피에스타",126.904945678759,"서울 영등포구 도신로29사길 3",09:00-20:50,,01,"연중무휴, 16:00-17:00 쉬는시간",07368,d2bc1a7e929540f881a4418f3d72f270.jpg,"까사피에스타 영등포점",02,,59,,37.5101832679728,"결식아동,독거노인","동반 1인",
서울,01,"01,02","1층 직구삼",126.904551253945,"서울 영등포구 디지털로66길 8","11:00에서 새벽1시",,01,연중무휴,07439,b1a63f49cc974787a33a5774f3bfd301.jpg,"직화삼겹직구삼 대림신길점",01,,268,,37.4925255829277,"결식아동,독거노인","아이 본인만",
서울,01,01,"1층 브로스키친",126.8917809647,"서울 영등포구 선유동1로 6-4",11-25,,01,없음,07263,af0fe8516c2349a99ce6556a055a519c.jpg,브로스키친,99,"어려운아이들과 어려운 가정에게",461,,37.5224661293237,결식아동,"어려운아이들과 어려운 가정에게",
서울,01,01,"롯데마트 1층 샐러디",126.891572019703,"서울 영등포구 선유로 138",오전11시-오후8시,,01,오후3-5시(변동있음),07255,NULL,"샐러디 롯데마트서울양평점",01,,496,,37.5260658911576,결식아동,"아이 본인만",
서울,99,,"105호 갤러리딤",126.886815410375,"서울 영등포구 선유로3길 10",11:00~19:00,,03,"주말 및 공휴일",07285,bd5c4337e359450fbca0cef94c0295b5.jpg,디와이코퍼레이션(GalleryDIM),02,,194,"제로웨이스트 제품 or  체험",37.5161003058556,Nan,"동반 1인","제로웨이스트 제품 or  체험"
서울,01,"01,02",1층,126.91836346862,"서울 영등포구 신풍로 110",09~21,,01,없음(로테이션),07432,5acdcc30be7b4e8783e11f27c07196fd.jpg,"신길점추오정남원추어탕 ",02,,928,,37.4997629977614,"결식아동,독거노인","동반 1인",
서울,99,01,"지하1층 113호 더복희네",126.918106683928,"서울 영등포구 의사당대로 26",오전11:00~오후10:00,,01,없음,07236,c91cfffcd1d74a5f9e5e6fffb2c32785.jpg,더복희네,02,,122,"1인 1메뉴 제공가능합니다.",37.526537141271,결식아동,"동반 1인","1인 1메뉴 제공가능합니다."
서울,01,01,107호,127.007801799645,"서울 용산구 독서당로 22",09:00~20:00,,01,일요일,04410,5652a6fe6c32462c961681b83236348d.jpg,"본도시락 한남점 ",02,,445,,37.5301631563664,결식아동,"동반 1인",
서울,99,01,805호,126.967776259525,"서울 용산구 새창로 217",6:30-22:00,,99,"법정공휴일, 주말",04376,8595f5ee5594457aaae9a3c8228ca59d.jpg,"아힘사 요가&명상",02,,29,"요가 일반 수련",37.5302166820111,결식아동,"동반 1인","요가 일반 수련"
서울,99,"01,02,99","전자랜드 본관 5층 B501호",126.959558538475,"서울 용산구 청파로 74",11시~20시,군장병,01,없음,04372,0bd7425eaaf9488eb1e45bcc16de150d.png,더트레인,02,,295,"음료 및 기차모디오라마 10분 무료",37.5327888550584,"결식아동,독거노인,군장병","동반 1인","음료 및 기차모디오라마 10분 무료"
서울,02,01,용산역내인포메이션앞꽃집,126.964741503485,"서울 용산구 한강대로23길 55",08~23,,99,연중무휴,04377,abef114865004ac9af338c6da174d31c.jpg,인스타일,01,,889,,37.5297718014452,결식아동,"아이 본인만",
서울,02,01,"1층 얌샘김밥",126.971670413645,"서울 용산구 한강대로77길 18","07시 ~ 24시",,01,"명절 휴무",04321,NULL,"얌샘김밥 남영점",01,,113,,37.5420752082262,결식아동,"아이 본인만",
서울,01,01,"1층 ",126.911788989976,"서울 은평구 갈현동 509-1",09~19시,,03,,03325,08fbc2ac75834f45a21ed10180076746.jpg,선경하우징,01,,812,,37.6151956362061,결식아동,"아이 본인만",
서울,99,01,1층,126.92267333368,"서울 은평구 서오릉로 72","아침 10시~ 저녁 9시반",,01,매주일요일,03395,NULL,일월만두,01,,764,"아이가 먹고싶은거",37.6068527247103,결식아동,"아이 본인만","아이가 먹고싶은거"
서울,02,01,"1층 로드락후라이드",126.910481638687,"서울 은평구 신사동 7-24",14시-02시,,01,없음,03422,a35893e39cc24959ad269fadd24a2917.png,"로드락후라이드 은평신사점",02,,332,,37.6014495198005,결식아동,"동반 1인",
서울,99,"01,02,99","514동 상가 105B",126.93681895439,"서울 은평구 연서로48길 11","10시부터 2시",독거노인,99,없음,03308,da9578db093a418ea1d1cb73ce509ca1.jpg,달아요,02,,919,과일,37.6377914977696,"결식아동,독거노인,독거노인","동반 1인",과일
서울,01,"01,02,99","1층 카페단발소녀",126.919723450904,"서울 은평구 응암로 285",11~21,국가유공자,01,,03454,cfd1a1784ae04d8097b1242485df2a8f.jpg,단발소녀,01,,81,,37.5971843004972,"결식아동,독거노인,국가유공자","아이 본인만",
서울,99,01,"1층 108호 갓츠킹 가마솥돈까스 진",126.918572501207,"서울 은평구 진관1로 21-39","11:00~21 :00/ 라스트오더 20:00",,01,,03311,57e564f070f243e0a57f4d688699fcb5.png,"갓츠킹 가마솥돈까스 진관점",01,,730,"아이가 먹고싶은거",37.6338625622068,결식아동,"아이 본인만","아이가 먹고싶은거"
서울,01,01,"911동103호 갈현동할머니떡볶이 ",126.920932686788,"서울 은평구 진관3로 67",10:30~19:30,,01,"일,월요일",03301,297b1cb2c49849dfb930a8f01006dfc1.jpg,"갈현동할머니떡볶이 ",01,,441,,37.6427644551257,결식아동,"아이 본인만",
서울,01,01,1층,126.967241206598,"서울 종로구 옥인길 28",24시간,,99,없음,03034,1f8123a650ae43529c4594ee4080c07f.jpg,콤콤오락실,01,,805,,37.5809732426286,결식아동,"아이 본인만",
서울,01,01,104-1101,126.979775832051,"서울 종로구 율곡로 6",10:30~19:30,,01,"일요일 격주 휴무",03142,c1caf2782c6148cc890a984add62d63c.png,"부산아지매국밥 트윈트리타워점",02,,505,,37.5754538625026,결식아동,"동반 1인",
서울,99,01,2층연혜인참치,127.010348326711,"서울 종로구 종로 286",오전10:00~오후10:00까지,,99,15:00~16:30까지,03119,NULL,연혜인참치,02,,692,초밥.매운탕(대구.알탕.회덮밥.알밥,37.5708583552678,결식아동,"동반 1인",초밥.매운탕(대구.알탕.회덮밥.알밥
서울,01,01,"1층 102호 넘버나인",127.014784809929,"서울 종로구 창신동 436-64",밤12-낮12시,,99,일요일,03120,54483236fdfd45cb884ff43df8b00bf0.jpeg,"레기돌(넘버나인,해피필링)",01,,310,,37.5701137509736,결식아동,"아이 본인만",
서울,01,01,2층,126.961571168049,"서울 종로구 창의문로11길 23","11:30 - 21:00",,01,"15:00 - 16:30",03022,6abff8f6f10d46a8942d87829dddd1cf.jpeg,레이지버거클럽,03,,630,,37.5933897356575,결식아동,"동반 2인",
서울,01,"01,02","글로리아타운 A동 107호",126.96900620111,"서울 종로구 평창문화로 75",12:00~23:30,,01,"구정, 추석",03009,NULL,교촌치킨평창점,02,,783,,37.606862635259,"결식아동,독거노인","동반 1인",
서울,01,"01,02",1층,126.968138607192,"서울 중구 만리재로 209",11시~10시,,01,3시~5시,04508,ec19ca298eeb4d7683ad0daf62716e26.jpg,공일부엌,03,,736,,37.5560659151376,"결식아동,독거노인","동반 2인",
서울,99,"01,02,99",지하1층,127.093194085964,"서울 중랑구 겸재로50길 53",11:00~23:00,독거노인,01,없음,02199,9afcff159785451ebe1b213e3e4865ac.jpg,소소한얼,03,,721,식혜.수정과,37.5890780469682,"결식아동,독거노인,독거노인","동반 2인",식혜.수정과
서울,01,"01,02",1층,127.081018296555,"서울 중랑구 공릉로12가길 29","평일 1시 - 12시  주말 11시 - 12시",,01,없음,02019,NULL,"쌀똑핫도그 태릉점",01,,25,,37.6172761295706,"결식아동,독거노인","아이 본인만",
서울,01,"01,99",1층,127.074151076772,"서울 중랑구 동일로157길 65",11:00-20:00,"독거노인 어르신",01,"매주 수요일 휴무",02008,ccb98eb56ffe4cb588c2aef655a33adf.jpeg,카페더메뉴얼,99,"가족이나 친구들과 함께 와도 좋습니다",126,,37.6093356369813,"결식아동,독거노인 어르신","가족이나 친구들과 함께 와도 좋습니다",
서울,99,01,함평국밥,127.089216903184,"서울 중랑구 봉우재로33길 73","오전 11:30오픈 오후 10시 마감",,01,일요일,02149,6460347d4dbf46ec9560e483a2aefbd4.jpeg,함평국밥,02,,109,국밥/비빔밥,37.5954703227436,결식아동,"동반 1인",국밥/비빔밥
서울,01,01,네네치킨,127.095849500583,"서울 중랑구 신내로 135",18:00~24:00,,01,매주월요일,02026,788695d0e08a4668b5e967c2dd7637e1.jpg,네네치킨신내1점,01,,319,,37.6113848049141,결식아동,"아이 본인만",
서울,99,"01,02",1층,127.097213818061,"서울 중랑구 신내로10길 29","10:00 ~22:00",,01,"15:00 ~16:00",02069,b50f5e8fd0bf42659436f976ee75cc16.jpg,마석감자탕,01,,911,"뼈해장국 / 돈가스 / 뚝배기불고기",37.6045191417288,"결식아동,독거노인","아이 본인만","뼈해장국 / 돈가스 / 뚝배기불고기"
서울,01,"01,02","1층 Breeze",127.098694579678,"서울 중랑구 용마산로100길 7","평일 09시 ~ 18시",,01,"매주 일요일, 첫째/셋째 토요일",02184,cf408ef5ebe24e688ead4450811d6aa7.jpeg,브리즈,02,,376,,37.591610949513,"결식아동,독거노인","동반 1인",
경기,01,01,"원흥힐사이드파크 테그42 고양도래울점",126.869969444965,"경기 고양시 덕양구 도내동 951",10:00~21:00,,01,,10551,a09d998281984e709f0de35f7e89526e.png,"테그42 고양 도래울점",02,,439,,37.6359092038883,결식아동,"동반 1인",
경기,01,01,보광로188,126.910897630486,"경기 고양시 덕양구 벽제동 563-3",오전11시~저녁11시,,01,무,10267,4a929d71fad24f959bba8fa0b33a2f47.jpg,"캠핑하고싶닭 ",02,,886,,37.7311102845044,결식아동,"동반 1인",
경기,99,01,1층,126.888558601504,"경기 고양시 덕양구 신원로2길 62",11시~24시,,01,"월요일 휴무",10570,NULL,델리지오소,03,,35,"모든 파스타 제공",37.6610000597051,결식아동,"동반 2인","모든 파스타 제공"
경기,99,01,"1층 다비치안경",126.835196627681,"경기 고양시 덕양구 충장로 140","10:00 ~ 21:00",,99,"명절 당일 휴무",10495,c043a4f3287647a19c711dd3d97bf2de.jpg,"다비치안경 행신점",01,,849,안경테+안경렌즈,37.6247395805558,결식아동,"아이 본인만",안경테+안경렌즈
경기,99,01,"복합상가 2층, 작심스터디카페",126.832178837717,"경기 고양시 덕양구 화정동 1000-5","오전 08:30 ~ 익일 01:30",,02,,10503,02c517e57c244391b7ae6d6a4c636882.jpeg,"작심스터디카페 고양화정점",01,,905,"1개월 이용권",37.6301062826955,결식아동,"아이 본인만","1개월 이용권"
경기,01,01,1층,126.832595564763,"경기 고양시 덕양구 화중로130번길 5-11",오전11시~오후10시,,01,"매주 월요일 휴무",10477,bbd1bb991a0e4eca86012d0320c0d5cb.png,"마라영웅 화정점",01,,959,,37.6391192428483,결식아동,"아이 본인만",
경기,01,01,"1층 한남동 그집 백석역점",126.788586276394,"경기 고양시 일산동구 강송로73번길 53-11",17:00~02:00,,01,"매주 월요일",10446,NULL,"한남동그집 백석역점",03,,42,,37.6446166641407,결식아동,"동반 2인",
경기,02,01,"1층 아이노스",126.779764479327,"경기 고양시 일산동구 산두로213번길 22",10-10,,01,"매주 일요일",10358,ec5058e863434bb48fbb3b5f108957d4.jpeg,아이노스,02,,881,,37.6746016279157,결식아동,"동반 1인",
경기,99,01,"1층 ",126.799123270483,"경기 고양시 일산동구 숲속마을로 50-42",11:30~22:00,,01,연중무휴,10306,a8d836eacb2d4c4ab3a32e2e5639eec5.jpg,"9라파부대찌개 본점",01,,636,"9라파부대찌개, 제주생고기돈까스 ",37.6679205641492,결식아동,"아이 본인만","9라파부대찌개, 제주생고기돈까스 "
경기,99,01,101-1호,126.766457823425,"경기 고양시 일산동구 장항동 752","수 - 일 낮 12시 - 저녁 8시",,01,"월, 화",10401,c6a35a2fe71148bd8e34b83abda7f995.jpg,"몽실몽실 케이크",01,,478,케이크,37.6601474883259,결식아동,"아이 본인만",케이크
경기,01,01,1층,126.778132105027,"경기 고양시 일산동구 정발산동 1131",오전12시30분~오후11시30분,,01,"매주 월요일",10357,2f7c69a92700437581f969aa66cd7fe3.png,"피자1989정발산점 ",01,,402,,37.6744376538924,결식아동,"아이 본인만",
경기,99,01,"웨스턴돔A 3층",126.772038816453,"경기 고양시 일산동구 정발산로 24",11-6,,99,"월,수",10403,b59be36081bc4d7b95cbb6218655e6f1.jpeg,"세븐스 예나",01,,407,커트,37.6558964094856,결식아동,"아이 본인만",커트
경기,01,"01,02","B동 115 카페메르시",126.773786102845,"경기 고양시 일산동구 정발산로42번길 24","평일 11-19시 주말 12-19시",,01,,10403,72fe02d00dac45db973d84f3a1a4d2b7.jpg,카페메르시,01,,907,,37.6561836720528,"결식아동,독거노인","아이 본인만",
경기,02,01,"105호 조은약국",126.77085561273,"경기 고양시 일산동구 중앙로1261번길 55","10-21(평일) 10-17(토요일)",,03,"일요일 및 공휴일",10402,6bc2e8ebf7d04ae1ad0fa86175bd66b5.jpeg,조은약국,01,,340,,37.6575839055984,결식아동,"아이 본인만",
경기,01,01,상가1동120호,126.749893444303,"경기 고양시 일산동구 태극로 8",24시간,,01,없음,10394,ebe1470a07874cde82d541cd913fb787.jpg,"집어가 킨텍스원시티점",02,,476,,37.6639714328316,결식아동,"동반 1인",
경기,02,01,"1층 핸드메이드브런치카페 ",126.716194279,"경기 고양시 일산서구 가좌로 129",9:30~20:00,,01,월요일,10209,b388bffaa1e34642aa3724d75fc8195b.jpg,"핸드메이드브런치카페 ",02,,779,,37.6865406683287,결식아동,"동반 1인",
경기,01,01,"레이킨스몰2층 228호",126.751646859873,"경기 고양시 일산서구 대화동 2602",11:00-8:30,,01,"연중무휴(임시휴무 네이버에 공지)",10391,NULL,수라간,01,,659,,37.6679946733069,결식아동,"아이 본인만",
경기,99,"01,02","1층 드림라운지",126.754547500636,"경기 고양시 일산서구 성저로 68","10:00~22:00 (금,토 : ~23:00)",,03,"매주 수요일 휴무",10368,47de6044bad3427486503048b7779054.png,드림라운지,01,,712,"대관시-카페음료 & 일부 콘텐츠 무료",37.6849059569614,"결식아동,독거노인","아이 본인만","대관시-카페음료 & 일부 콘텐츠 무료"
경기,01,01,"105호 ",126.764483294722,"경기 고양시 일산서구 일산로 576",11:00-22:00,,01,,10374,a18612f411854f488f1b993978cddb4a.jpg,츄러스1500일산후곡점,02,,707,,37.6794990067308,결식아동,"동반 1인",
경기,01,01,"107호 샐러디",126.762798836447,"경기 고양시 일산서구 중앙로 1413",09:30-20:30,,01,연중무휴,10386,NULL,"샐러디 주엽역점 ",01,,709,,37.669037264497,결식아동,"아이 본인만",
경기,01,01,"303호 작심스터디카페",126.767698412603,"경기 고양시 일산서구 탄현동 1655",08:00-02:00,,02,없음,10248,050a612287314237a4ca7dc8ba6054b7.jpg,작심스터디카페일산탄현점,99,"고등학생만가능 (중학생은연락주세요)",1032,,37.702190132597,결식아동,"고등학생만가능 (중학생은연락주세요)",
경기,99,01,"현해프라자 107호",126.753968443817,"경기 고양시 일산서구 하이파크2로 42",09:00~21:00,,01,"매주 일요일 휴무",10234,6acfab4e821e41a7bb2b5a85037901bf.jpg,이샘반찬,01,,57,"반찬,국",37.6990682516669,결식아동,"아이 본인만","반찬,국"
경기,99,01,"든든한병원 1층101호 죽이야기",126.755916526555,"경기 고양시 일산서구 하이파크2로 60",08:00~20:00,,01,"매주 일요일",10234,38fba2ac99c24a65b09fe0ea96cb1921.jpg,"죽이야기 든든한병원점",01,,573,야채죽,37.6990954551976,결식아동,"아이 본인만",야채죽
경기,99,01,"1층 대디스오피스",126.754701004824,"경기 고양시 일산서구 하이파크3로 6",11:00-22-20,,01,3:00-4:30,10236,ba494d77a34d4d8db7995c42a0042b26.jpeg,대디스오피스,99,"대상자본인(결식아동, 소방관)",75,"레귤러피자 무료",37.6925469959944,결식아동,"대상자본인(결식아동, 소방관)","레귤러피자 무료"
경기,02,01,서편2맞이방화훼점,126.884877197434,"경기 광명시 광명역로 21",10:00~21:00,,99,연중무휴,14347,92adc1c2f6354f9f803603d6ec286938.jpg,밀알플라워,01,,966,,37.4163635638303,결식아동,"아이 본인만",
경기,99,01,"광명무역센터 b동 112호",126.88918699963,"경기 광명시 일직로 72",11시30분~16시,,01,"일요일,방문전 꼭 전화하고 오세요 조기마감을 자주해요",14348,5761f0b06a224bb0a30911e60380b13e.jpg,"도톰카츠 광명점",01,,269,등심카츠,37.4200359072339,결식아동,"아이 본인만",등심카츠
경기,,,"동양아파트 상가동",126.886917234241,"경기 광명시 하안로 196",,,01,,14313,0aa97aee9da64d799fc93a6de662666d.jpg,"뚜레쥬르 소하동양점",99,소방관,874,,37.4546483307326,Nan,소방관,
경기,99,01,"1층 김찌개",127.251885330184,"경기 광주시 경안안길 5",오전11시~오후11시,,01,"매주월요일 휴무",12755,79400b8e34f943a6822d2387e0065a3f.jpg,김찌개,01,,350,"찌개 또는 짜글이 1인분",37.4145078307726,결식아동,"아이 본인만","찌개 또는 짜글이 1인분"
경기,01,01,"1층 명랑부대찌개",127.255091151729,"경기 광주시 문화로 38","10시 22시",,01,없음,12760,859074ecde65408593693b693b118ec8.jpg,"명랑부대찌개 경안점",02,,550,,37.4070787362445,결식아동,"동반 1인",
경기,99,"01,02","1층 오케이컴퓨터",127.251311141338,"경기 광주시 통미로 88",09:00-18:00,,99,일요일,12739,f5eb6810d6bc432baf9c420799f56e41.png,K.com,01,,280,"무상수리 및  리뉴얼 pc 지원",37.4168715185548,"결식아동,독거노인","아이 본인만","무상수리 및  리뉴얼 pc 지원"
경기,99,"01,02","1층 브리드로스터스 카페",127.237687035704,"경기 광주시 회안대로 599","평일 am9 - pm9 / 일 am12 - pm7",,01,,12748,1e2fe488ba4d40f6aadf485380a09268.jpg,브리드로스터스,02,,230,음료,37.406415544285,"결식아동,독거노인","동반 1인",음료
경기,02,01,"1012호 올리브(창고)",127.141579707759,"경기 구리시 건원대로34번길 27","평일  am 11:00~ pm 19:00",,03,"토,일 휴무",11921,15b3d6f3e0574f089ac4bb374ac55d42.jpeg,"Olive 올리브",01,,267,,37.6048239320715,결식아동,"아이 본인만",
경기,01,01,파스타아미고,127.149014344669,"경기 구리시 벌말로70번길 67",11:00~21:00,,01,"평일 15:20~16:50 (브레이크타임)",11960,NULL,파스타아미고,02,,47,,37.5853554501967,결식아동,"동반 1인",
경기,99,"01,02","유월의정원 꽃집",126.935691175457,"경기 군포시 곡란로8번길 6",11:00~20:00(토요일~18:00),,03,"일요일 휴무",15801,NULL,"유월의 정원",01,,618,꽃다발,37.3727839156733,"결식아동,독거노인","아이 본인만",꽃다발
경기,01,01,"1층 프랑킨숯불양념구이치킨",126.942335108335,"경기 군포시 번영로 602",오전11시~새벽2시,,01,,15831,c9f6eff167ed48dba21a1520239773f6.jpg,프랑킨숯불양념구이치킨,01,,681,,37.36278225646,결식아동,"아이 본인만",
경기,02,"01,99",105-1호,126.929994984358,"경기 군포시 산본천로 56",8:30~19:30,,01,,15865,NULL,테그42,01,,108,,37.3604094996489,"결식아동,","아이 본인만",
경기,99,01,"3층 싸커코어",126.706635940801,"경기 김포시 금포로 1117-20",12:00~24:00,,02,법정공휴일,10092,fdef4ed80904467ba4cfd5bac457652e.jpg,싸커코어,01,,172,축구교육지도,37.6452919618659,결식아동,"아이 본인만",축구교육지도
경기,01,01,"1층 128호 직구삼",126.670655365857,"경기 김포시 김포한강1로78번길 7","오전11시 ~ 오후11시",,01,없음,10079,25ca1244180a4fe9aeb66dcd766c6724.jpeg,"직구삼 김포장기점",02,,353,,37.6448697674168,결식아동,"동반 1인",
경기,01,01,106호몽쁘띠,126.66292295797,"경기 김포시 김포한강2로 262",오전10.30~오후7시,,01,"매즌 토.일.공휴일",10082,dc45dc6814d74c4c8fcfc325bb3755c4.jpg,몽쁘띠,02,,72,,37.6481829943546,결식아동,"동반 1인",
경기,99,01,"라베니체마치에비뉴2차 1층 105호",126.679609963561,"경기 김포시 김포한강2로23번길 72","평일 17:00~24:00  주말 12:00~24:00",,01,"주말 15:00~17:00 휴무 매주 월요일휴무",10090,5678e5fdac954d6cbaca53e73295c28c.jpeg,두리상회,02,,816,파스타&피자,37.640186350987,결식아동,"동반 1인",파스타&피자
경기,99,01,,126.64385642797,"경기 김포시 김포한강8로 169",11:30~22:00,,01,15:00~17:30,10068,b319082051334b8a9832e20584518fd8.jpg,스시호세,01,,713,초밥,37.6376145231438,결식아동,"아이 본인만",초밥
경기,01,01,"1층 피자이탈리 구래점",126.623942396124,"경기 김포시 김포한강9로115번길 8-13","11:00~익일 1:30",,01,"둘째 넷째 월요일",10071,NULL,"피자이탈리 구래점",01,,473,,37.6478628162202,결식아동,"아이 본인만",
경기,99,02,"415호 카페 페브",126.625043944901,"경기 김포시 김포한강9로75번길 190",11:30~20:30,,01,"매주 화요일",10071,2ef07bd5201a47ff933e81a1d1e8d2be.jpg,페브,99,"아이 본인 + 형제 자매 1인",158,"디저트 1개 + 음료 1잔",37.6450383303262,독거노인,"아이 본인 + 형제 자매 1인","디저트 1개 + 음료 1잔"
경기,99,,"101호 ",126.628700136149,"경기 김포시 양촌읍 양곡2로60번길 26",10-4,,01,공휴일,10060,74637ce6e83449349bcc940a28ea95a6.jpeg,마음드린케이크,01,,55,생일케이크,37.6566101651142,Nan,"아이 본인만",생일케이크
경기,01,01,"홍익돈까스 김포점",126.678513303387,"경기 김포시 운양동 725-10",11시30분~9시30분,,99,15시~17시,10072,b026569a176349a19cfcad58c6c388d2.jpg,"홍익돈까스 김포점",01,,937,,37.6588543682438,결식아동,"아이 본인만",
경기,01,01,1층,126.671043391171,"경기 김포시 장기동 1394","11시30분 ~ 23시 50분",,01,없음,10079,33a528c2cf9443d381f07fe2102350ad.jpeg,"족발야시장 김포장기점",02,,427,,37.6444456774601,결식아동,"동반 1인",
경기,01,"01,02","1층 나란나란",126.670771218306,"경기 김포시 장기동 1419",10시~22시,,01,"월요일 휴무",10079,276025afdb8a4bea960eb93447b3bc45.jpg,나란나란,03,,294,,37.6438312605827,"결식아동,독거노인","동반 2인",
경기,01,01,"1층 이촌옥2nd",126.673758182157,"경기 김포시 장기동 2054-2",11시30분~21시,,01,"주중 오후3시~5시 (브레이크타임)",10088,5f500b4085834363b65c6058b3d129f2.jpg,"이촌옥 2nd",02,,148,,37.6395374655707,결식아동,"동반 1인",
경기,02,01,김포풍무홈플2층,126.724122002202,"경기 김포시 풍무로 167","오전10시~오후10 시",,99,2째4째수요일,10117,16a334a8471f448f8dc652ad7dcef7f3.jpg,인스타일,01,,943,,37.6099638622048,결식아동,"아이 본인만",
경기,01,01,"금강리체빌딩 122호",126.724400238345,"경기 김포시 풍무로146번길 18","10:30 ~  21:00",,01,,10113,NULL,"미스터빠삭 김포풍무점",02,,208,,37.6074866183958,결식아동,"동반 1인",
경기,,,나비야,126.632250940758,"경기 김포시 하성면 월하로705번길 35-33",,,01,,10011,NULL,"주식회사 나비야",,,490,,37.7112925244262,Nan,Nan,
경기,01,01,1층,127.166019766257,"경기 남양주시 다산중앙로82번안길 131-70",10~19,,02,,12249,a080c800348f4f079ff12a28f5dcca2e.jpeg,"아르떼칠드런 다산점",01,,876,,37.6129780132879,결식아동,"아이 본인만",
경기,01,,"동대문엽기떡볶이 별내갈매점",127.117334956505,"경기 남양주시 별내3로 25","오전11시~ 오후10시45분",,01,연중무휴,12110,0f1b85d6912442c5afad29e4f9647b2c.jpg,"동대문엽기떡볶이 별내갈매점",99,결식아동가족,517,,37.6445055581596,Nan,결식아동가족,
경기,01,01,"1층 홍콩반점",127.122643965231,"경기 남양주시 별내동 1024-3",11시~9시,,01,없음,12112,cdc6c85186ef4b0997a1ed61702f1a21.jpg,홍콩반점남양주별내점,02,,233,,37.6467490129238,결식아동,"동반 1인",
경기,99,01,"4층 403호",127.119183519167,"경기 남양주시 별내면 청학로68번길 3",12-21,,01,월요일,12084,44b452f9a2df431a9ad27ecda518b8b6.jpeg,키즈팡팡,01,,577,"식사나 과자 음료 놀이시설",37.7076795193233,결식아동,"아이 본인만","식사나 과자 음료 놀이시설"
경기,99,"01,99",꼬꼬스토리,127.117421738714,"경기 남양주시 별내면 청학로92번길 29",오전11시~오후10시,군인,01,"매주 수요일",12080,29196cd0b5eb46bb91c77934240b087e.jpg,꼬꼬스토리,01,,422,컵강정,37.7108146029298,"결식아동,군인","아이 본인만",컵강정
경기,01,01,"로뎀타워 109호",127.125385929595,"경기 남양주시 별내중앙로 34","오전 11시 ~ 오후 8시",,01,"브레이크타임 3시~5시 / 휴무일 (일요일)",12113,f2f8b853b42942058b33a7d490f8fc86.jpg,소름돈냉,02,,286,,37.6461711231057,결식아동,"동반 1인",
경기,02,01,"로뎀타워 115 송쿡",127.125385929595,"경기 남양주시 별내중앙로 34",오전11-오후8시50분,,01,"매주 화, 평일 오후 2시30분-5시",12113,301d415db4604f89b63e8d485e411e42.jpg,송쿡,02,,276,,37.6461711231057,결식아동,"동반 1인",
경기,99,"01,99",가온PC,127.210939305856,"경기 남양주시 와부읍 석실로 471-4",10:00~18:00,기초수급자,99,국가공휴일,12201,NULL,가온정보통신,01,,375,컴퓨터수리,37.6099047203913,"결식아동,기초수급자","아이 본인만",컴퓨터수리
경기,99,01,다산종합물류,127.184639161277,"경기 남양주시 진건읍 사릉로 335-16","오전 9시~오후6시(점심시간12시~1시)",,03,"주말 및 공휴일, 점심시간",12140,cce5333f2f534403b55ed0005e73fedc.jpg,"주식회사 다산글로벌",02,,585,"핫팩, 손소독제",37.652385996723,결식아동,"동반 1인","핫팩, 손소독제"
경기,,"01,02",303동201호,127.202178070809,"경기 남양주시 진접읍 부평로48번길 13",3시-10시,,02,,12022,9306cb9a0cab435187987d4959b1b555.jpg,"정은희 개인과외",01,,799,,37.739952702503,"결식아동,독거노인","아이 본인만",
경기,99,01,"장현프라자 220호",127.180891133907,"경기 남양주시 진접읍 장현로 77","오전9시-오후6시, 주말 오전9시-오후1시",,03,"공휴일, 토요일 오후",12014,e35102a52e4a4ec49d6c75d0bc1fc899.jpg,한빛안경원,01,,689,"기본 안경테와 기본 안경렌즈",37.7176159370173,결식아동,"아이 본인만","기본 안경테와 기본 안경렌즈"
경기,99,01,"108호 호치킨 진접역점(삼성프라자)",127.20231797925,"경기 남양주시 진접읍 해밀예당1로 219",14:00~23:30,,01,,12054,a256304ddf754c829750eabb3a25eb2e.jpg,"호치킨 진접역점",01,,112,"치킨 단품메뉴",37.7205719788004,결식아동,"아이 본인만","치킨 단품메뉴"
경기,99,"01,02","보성빌딩 1층 짜글이 잘하는집 ",127.145767491489,"경기 남양주시 퇴계원읍 퇴계원리 44-28","월,화,수,목,금,토,일 아침10시~밤12시",,01,없음,12115,cfd6c76c663d430e9794fa213054616f.jpeg,"짜글이 잘하는집 ",02,,195,"돼지짜글이 ",37.659452321565,"결식아동,독거노인","동반 1인","돼지짜글이 "
경기,99,01,"1층 식빵의품격",127.237778753829,"경기 남양주시 평내동 604-5","10:00~8:30  당일빵소진시 조기마감",,01,일요일.국가공휴일,12226,f0f9962ac0d249f2b906771e6dc9f2d8.jpg,식빵의품격,01,,607,"모든 식빵종류",37.6426277384569,결식아동,"아이 본인만","모든 식빵종류"
경기,,,"1층 일파스토",127.248055984654,"경기 남양주시 호평로68번길 5",,,01,,12151,NULL,일파스토,,,104,,37.6558108164445,Nan,Nan,
경기,01,"01,99","1층 석관동떡볶이",127.054637332234,"경기 동두천시 동두천로 115",11:00~23:00,"g-dream 카드 소지자",01,14:30~15:30,11350,f7b801c1b86a4feba8e0fa4456837417.jpg,석관동떡볶이동두천점,02,,663,,37.8917054967786,"결식아동,g-dream 카드 소지자","동반 1인",
경기,01,01,"1층 정씨함박",127.052545770373,"경기 동두천시 중앙로33번길 99",11시~9시,,01,매주월요일,11354,43f04ba68e974e56a24e637e697ae3a2.jpg,"정씨함박 동두천점",02,,647,,37.8818373877742,결식아동,"동반 1인",
경기,99,01,청년다방,127.055884686401,"경기 동두천시 지행동 738-9",AM11:00~PM9:20,,01,연중무휴,11356,NULL,"청년다방 동두천지행점",01,,395,"주류제외 1만원미만",37.8894361485252,결식아동,"아이 본인만","주류제외 1만원미만"
경기,01,01,"1층 거기",126.769882168998,"경기 부천시 경인로134번길 52",낮12시~밤12시,,01,없음,14726,2ab654c673ba4a24bee166b2661423e1.jpg,거기,02,,608,,37.4817759981478,결식아동,"동반 1인",
경기,99,"01,02","우성테크노파크1 323호",126.825246287656,"경기 부천시 부광로 220",09:00-18:00,,99,11:30-13:30,14786,NULL,썸듀,02,,302,"생필품, 생활용품, 밀키트(계획중)",37.4676254551364,"결식아동,독거노인","동반 1인","생필품, 생활용품, 밀키트(계획중)"
경기,02,99,1층,126.812198718986,"경기 부천시 부일로 743",,,01,,14670,NULL,"모두밀 부천직영점",99,,326,,37.4862683863117,,,
경기,,,2층,126.79991468579,"경기 부천시 삼작로346번길 4",,,02,,14462,NULL,아이탑컴퓨터학원,,,39,,37.5197126000705,Nan,Nan,
경기,99,01,"103호 다비치안경원 부천상동역점 ",126.753163465931,"경기 부천시 상동로 78",10:00~21:00,,03,"설,추석 당일 휴무",14545,4cee5ee2cda94f489608c0fe294e6033.jpg,"다비치안경 부천상동역점",99,"어려운가정,가족모두혜택을드리고싶습니다",858,"안경 10만원지원금액",37.5040461821138,결식아동,"어려운가정,가족모두혜택을드리고싶습니다","안경 10만원지원금액"
경기,99,,"1층  치킨선생/을찌로국물떡볶이  ",126.802329435599,"경기 부천시 소안로 34",12시~02시,,01,연중무휴,14699,0f15af08a7114a2e99e16966e08b6728.jpg,"치킨선생/을찌로국물떡볶이 부천소사점",01,,465,"크리스피 1마리  또는 을찌로떡볶이 ",37.4776712713495,Nan,"아이 본인만","크리스피 1마리  또는 을찌로떡볶이 "
경기,01,"01,02","1층 소율미용실",126.769861252946,"경기 부천시 송내동 588-3",오전10시반~오후8시,,03,일요일,14726,87668ac9322849b48ecbb168ce1a3393.jpg,소율,99,"미리예약하시면 동반2인까지가능해요",980,,37.4817758673083,"결식아동,독거노인","미리예약하시면 동반2인까지가능해요",
경기,01,01,"1층 떡순튀",126.774387817809,"경기 부천시 심곡동 344-7",11시~23시,,01,수요일(월4회),14617,745054b7fa454d2b82767a5d3bb5fa32.jpg,떡순튀,01,,456,,37.4888010057869,결식아동,"아이 본인만",
경기,99,01,"후문상가 2층 카페지향",126.766821007138,"경기 부천시 약대로 20","평일 11:00-18:00",,01,"일,월,화 휴무 ",14514,4a84324b7a8e48aba8ce259fea74307b.jpeg,카페지향,01,,111,"음료1잔,케이크 제외한 디저트 1개",37.5123300010186,결식아동,"아이 본인만","음료1잔,케이크 제외한 디저트 1개"
경기,01,01,"상가 202호 국수나무",126.798786996387,"경기 부천시 은성로67번길 12",10:00-20:00,,01,"매주 일요일",14700,27c61361b33f45a280855e100115c427.jpeg,"국수나무 부천소사점",02,,526,,37.4754596237148,결식아동,"동반 1인",
경기,99,01,"2층 허지스헤어 미금점 ",127.107750226269,"경기 성남시 분당구 돌마로 52",10:00~20:00,,03,"공휴일,주말제외.카카오톡플러스친구or네이버 예약문의",13630,d3512e8722044679b3be76f513454671.jpg,"아트테라피 허지스헤어 ",01,,583,"아동 및 학생커트",37.3496809825845,결식아동,"아이 본인만","아동 및 학생커트"
경기,01,01,"1층 처갓집양념치킨동판교점",127.114873987751,"경기 성남시 분당구 동판교로52번길 9-3",오후1시‐새벽1시,,01,"첫째,셋째 월요일",13535,NULL,처갓집양념치킨동판교점,99,"치킨한마리 무료 증정",1066,,37.3873153506466,결식아동,"치킨한마리 무료 증정",
경기,01,01,"서현동, 1층 중화",127.141605441038,"경기 성남시 분당구 불정로420번길 17-1","11:30 ~ 21:00",,99,"15:00 ~ 17:00 , 매주 화요일",13578,3e7ebd76b8e0410fad5768ee7ca9a97d.jpg,중화,02,,438,,37.3755440438769,결식아동,"동반 1인",
경기,99,01,"1층 105호 팔팔뼈찜",127.109400225772,"경기 성남시 분당구 성남대로 52",오전11시~오후10시,,01,"매주일요일휴무, 평일 2시~4시45분까지 브레이크타임",13637,2e855f2076a943b4a59033c1d6a538f9.jpg,팔팔뼈찜,01,,640,뼈해장국,37.3404548197093,결식아동,"아이 본인만",뼈해장국
경기,99,01,현대아리온1층,127.110467404917,"경기 성남시 분당구 성남대로172번길 12",오후3시30분~저녁6시,,01,일요일,13618,NULL,제일치킨,01,,206,치킨.음료수,37.3509801924295,결식아동,"아이 본인만",치킨.음료수
경기,99,01,"1층 111호(정자동, 백궁프라자)",127.106307826836,"경기 성남시 분당구 성남대로331번길 13","오후13시부터 21시까지",,01,오후15시~16시30분,13558,aa83f2533058459cacc2d648162ba2a6.jpg,"비스트로 분당김치찜 본점",02,,144,"1인 식사류 전품목",37.3652861915453,결식아동,"동반 1인","1인 식사류 전품목"
경기,01,01,"1층 ",127.107093767636,"경기 성남시 분당구 성남대로331번길 9-13",11:30~24:00,,99,"매주 일요일",13558,025551e3de414f32ba03a16f2459df4d.jpg,미담,99,,830,,37.3645066353735,결식아동,,
경기,01,01,"601동 청구상가 1층 104호",127.116702632478,"경기 성남시 분당구 수내동 32","16시 ~ 23시",,01,"설날, 추석 휴무",13597,c9cb4f872c364b2ab65f6e64799f9341.jpg,수내통닭,02,,1040,,37.3763240445257,결식아동,"동반 1인",
경기,99,01,"1층 피자나라치킨공주",127.135191979174,"경기 성남시 분당구 야탑동 286-6","11시30분~23시 30분",,01,"매주 화요일",13504,792ad8c800354cdcb7bbeb81a90e36cf.jpg,피자나라치킨공주,01,,1035,피자,37.4124946982745,결식아동,"아이 본인만",피자
경기,01,01,"H스퀘어 S동  1층 116호",127.108698530906,"경기 성남시 분당구 판교역로 231",,,01,,13494,NULL,이디야커피판교테크노밸리점,02,,809,,37.4013348710874,결식아동,"동반 1인",
경기,02,"01,99",1층,127.12755385748,"경기 성남시 수정구 복정로 32",오전11~오후8시,"미혼모 ",99,매주화요일,13119,df87220ab0ea41a49724dbf48189a0de.jpg,"헤어잇다 ",01,,791,,37.4557595031734,"결식아동,미혼모 ","아이 본인만",
경기,99,99,"푸르지오4B-110호 ",127.141500232126,"경기 성남시 수정구 위례광장로 36","오전 4시 오전 11시까지",,99,없음,13646,cba1c616eb774d93a787bb22b05e4c58.png,맘마찬송파위례점,01,,207,"생후6갤~15갤까지 먹는 수제이유식입",37.4684305863356,,"아이 본인만","생후6갤~15갤까지 먹는 수제이유식입"
경기,02,01,"1층 피자나라 치킨공주 태평점",127.139528076374,"경기 성남시 수정구 태평동 2454",낮12시~밤11시30분까지,,01,매장으로전화,13277,23d26a0442c94e1984abbb2f07e27e01.jpg,"피자나라치킨공주 태평점",01,,637,,37.4490104522107,결식아동,"아이 본인만",
경기,99,01,"102호 더맛구이구이쪽갈비일월본점",126.974215465686,"경기 수원시 권선구 구운동 911-1","16시 ~ 24시",,01,없음,16413,bd2ff638796942f5bb32acd9f72a1c66.png,더맛구이구이쪽갈비일월본점,02,,540,"쪽갈비 1kg",37.283348780246,결식아동,"동반 1인","쪽갈비 1kg"
경기,01,01,"건우프라자 201,202호",126.942217777327,"경기 수원시 권선구 금곡동 1089","16시 ~ 24시",,01,없음,16388,a2b4958015b6495ea113eae7316dc980.jpg,숯닭무,01,,538,,37.2727942375857,결식아동,"아이 본인만",
경기,99,"01,02","세종타운201호 보그헤어호매실점",126.953342371304,"경기 수원시 권선구 금곡로 204",오전10시30분~오후8시,,99,1시~2시,16397,c76743776940494ab0a69a4c7cdbd0c0.png,보그헤어서수원호매실점,01,,293,미용서비스,37.2737062223236,"결식아동,독거노인","아이 본인만",미용서비스
경기,01,01,"애비뉴8번가 105호",126.952983899504,"경기 수원시 권선구 금곡로197번길 18-24","오전 11시 ~ 오후 11시",,01,없음,16391,108676c6d98a4d7382e3d0dd7883d942.png,"돌배기집 수원호매실점",01,,73,,37.2746751495956,결식아동,"아이 본인만",
경기,01,01,"엘지종합상가1층127호 현이네 ",126.936691828467,"경기 수원시 권선구 금곡로73번길 33",11시30분~8시,,01,"토요일,일요일.공유일",16383,310de657643b43e68aa56192eea3b939.jpg,현이네,01,,605,,37.2742921846415,결식아동,"아이 본인만",
경기,01,01,"2층 갤러리베이커리",127.034690950669,"경기 수원시 권선구 동수원로 232","10시 ~ 17시",,01,"주말 휴무",16553,7613f3ce97c540a0b0343fc645801f74.jpg,갤러리베이커리,01,,688,,37.2502595331007,결식아동,"아이 본인만",
경기,02,01,"1층 코히고항",127.021111735709,"경기 수원시 권선구 세류동 1077-4","11:00~9:00 (포장 밤12시까지)",,01,"정기휴무일 없음 (설날2일,추석2일,신정 휴무) ",16580,ea1e253d87cc4198b776de8090e59bfb.jpg,코히고항,01,,22,,37.2560855481967,결식아동,"아이 본인만",
경기,99,01,"2층 스트릿츄러스 롯데몰수원점",126.997293771381,"경기 수원시 권선구 세화로 134",10:30~22:00,,01,없음,16621,NULL,"스트릿츄러스 롯데몰수원점",02,,94,"츄러스1+음료 또는 아이스크림",37.2641779524716,결식아동,"동반 1인","츄러스1+음료 또는 아이스크림"
경기,02,01,1층,126.978042122999,"경기 수원시 권선구 오목천동 775","오전 11시-오후6시",,01,"일요일, 공휴일 휴무",16640,ad54b7ed7d6f4dc9b9b667318b1b136a.jpeg,카페플러스셀,01,,784,,37.2325092773828,결식아동,"아이 본인만",
경기,01,01,메밀정원,126.943382436327,"경기 수원시 권선구 호매실동 840-3",11시부터21시까지,,01,"구정,추석당일만",16386,a3892e1df7af4410a9f9c5d49851908e.jpeg,메밀정원,02,,361,,37.2638086243528,결식아동,"동반 1인",
경기,01,01,"103호 프랑킨숯불양념구이치킨",127.053211983716,"경기 수원시 영통구 망포동 11-12",11시~2시,,01,x,16681,010892741b8b4cdeb2c5ede8b71ffa35.jpg,프랑킨숯불양념구이치킨,01,,697,,37.2475270893663,결식아동,"아이 본인만",
경기,01,01,"104호 리틀꼬마김밥 원천점",127.058506368808,"경기 수원시 영통구 매영로 143",07:00-22:00,,01,연중무휴,16519,NULL,"리틀꼬마김밥 원천점",02,,1014,,37.2666227410234,결식아동,"동반 1인",
경기,99,01,"상가동 1층 117호(파파후라이돈)",127.050043481678,"경기 수원시 영통구 매영로 84",오후1시~밤11시,,01,"매월 넷째주 월요일",16542,b712dd0fa6f04c51ae2ddd65288aa290.jpg,파파후라이돈,01,,852,"오리지널후라이돈 1박스",37.2681997491564,결식아동,"아이 본인만","오리지널후라이돈 1박스"
경기,01,"01,02",뉴욕야시장,127.045285366058,"경기 수원시 영통구 매탄로108번길 52",16:00-02:00,,01,일요일,16545,dd6eca14863f41909a974db6bffb3b30.jpg,뉴욕야시장영통구청점,03,,798,,37.2594320020083,"결식아동,독거노인","동반 2인",
경기,99,"01,02","1층, 보배반점 수원영통점",127.077343762163,"경기 수원시 영통구 반달로 104",11:00~22:00,,01,,16705,88861252795e49179130ce72be6a2f58.jpeg,"보배반점 수원영통점",02,,586,식사류,37.2527912914214,"결식아동,독거노인","동반 1인",식사류
경기,01,01,"SK뷰레이크타워 B120호",127.060178440172,"경기 수원시 영통구 법조로 25","오전 9시-오후 9시",,01,,16514,5395ac5286f94316a62e1b2eb17a5f8e.jpg,19T광교SK레이크점,03,,560,,37.2874808899042,결식아동,"동반 2인",
경기,02,01,"117호 츄카롱",127.074491002062,"경기 수원시 영통구 봉영로 1606","오전11시 ~ 오후 10시",,01,"매주 월요일",16704,NULL,"츄카롱 수원점",01,,292,,37.2538686061108,결식아동,"아이 본인만",
경기,99,"01,02","1층 102호",127.060225301978,"경기 수원시 영통구 신원로 257","평일 10시-19시 토요일 10시-17시",,01,"일요일 ,공휴일",16676,73aadb73ec934b69ac3492a8286fb9fa.png,가나쿠키,01,,963,음료+쿠키,37.2585420529886,"결식아동,독거노인","아이 본인만",음료+쿠키
경기,01,01,108호,127.076022520119,"경기 수원시 영통구 영통동 1023-1",11:00-21:00,,01,명절당일.다음날,16702,13eefa405ef1424c8385fc67004751b0.jpeg,"키와마루아지 경희대점",02,,248,,37.2484662348507,결식아동,"동반 1인",
경기,02,01,"2층 부함식당",127.058585899301,"경기 수원시 영통구 영통로214번길 25","오전11:00 - 오전 01시",,01,없음,16698,NULL,"부함식당 수원망포역점",02,,291,,37.2465987291718,결식아동,"동반 1인",
경기,99,01,"1층 꿀가네 낙곱새",126.997840994799,"경기 수원시 장안구 파장동 595","오전11:30 새벽2시까지",,01,1~5시,16351,b782d631e57a4ede8df4e6bdae44e3ce.jpg,꿀가네낙곱새북수원점,01,,1083,"참치마요 주먹밥 계란찜",37.307503154848,결식아동,"아이 본인만","참치마요 주먹밥 계란찜"
경기,01,01,"1층 도새기막창",126.99880149748,"경기 수원시 팔달구 동말로 43",17-24,,01,일요일,16443,NULL,도새기막창,02,,661,,37.2787626780028,결식아동,"동반 1인",
경기,99,01,"대학빌딩 다비치안경 아주대삼거리점",127.043825034923,"경기 수원시 팔달구 아주로 3","오전 10시 ~ 밤 9시까지",,99,"명절 당일만 휴무",16498,64791668c4b040b19afd7c0c058e0302.png,"다비치안경 아주대삼거리점",01,,758,"안경테,안경렌즈,10만원이내 제공",37.2751202264477,결식아동,"아이 본인만","안경테,안경렌즈,10만원이내 제공"
경기,99,"01,02","1층 상가",127.028363703417,"경기 수원시 팔달구 인계동 1024-3",9:30-21:30,,01,"매주 월요일 브레이크타임 15:00-16:00",16489,702db00b6557409f86df2efd4b74997b.jpeg,"인생감자탕 수원인계점",02,,752,"묵은지. 우거지. 해장국",37.2659620729497,"결식아동,독거노인","동반 1인","묵은지. 우거지. 해장국"
경기,99,01,1층,127.034352036667,"경기 수원시 팔달구 인계동 1119-8",오전11시부터새벽3시,,01,없음,16488,faf1c7277b5342ff9fce983f590890e8.jpg,김천재의육회반한연어,02,,1019,육회비빔밥.연어회덥밥.연어장덮밥.참치,37.2642071493056,결식아동,"동반 1인",육회비빔밥.연어회덥밥.연어장덮밥.참치
경기,01,01,"1층 ",127.027634287852,"경기 수원시 팔달구 인계동 211-6",오전11시~새벽4시,,01,연중무휴,16471,55f53d5fac3747e3ba81a866fb9350df.jpg,"프랑킨숯불양념구이치킨 본점",02,,678,,37.2761526595032,결식아동,"동반 1인",
경기,01,01,"1층 지코바치킨 (대로변)",127.024791068534,"경기 수원시 팔달구 인계동 982-11",09:00-(익일)04:00,,01,,16476,NULL,"지코바치킨 인계1호점",01,,685,,37.2675035662103,결식아동,"아이 본인만",
경기,01,99,"달보드레유기농제빵소 ",127.014693125277,"경기 수원시 팔달구 행궁로 24",10:00-20:00,"소방관,경찰관.군인 전품목  10% ",01,"매주월요일(공휴일이면 정상근무후 변경될수 있음)",16260,3148533fdcc245399f5242f90e4a8397.jpg,달보드레유기농제빵소,99,"결식아동 무료",1051,,37.2804841097543,"소방관,경찰관.군인 전품목  10% ","결식아동 무료",
경기,01,01,"1층 102호 그렇게 함박이 된다",127.015052136803,"경기 수원시 팔달구 향교로 138","11:00~21:00(주문마감 20:00)",,01,"15:00~16:30 (주문마감 14:00)",16463,8db9a5c15e7f4d1c9c8075374e91fe6d.jpg,그렇게함박이된다,02,,46,,37.2730348047593,결식아동,"동반 1인",
경기,01,"01,02","월드프라자1층 107.108호 핵밥",126.810707325793,"경기 시흥시 능곡동 744",11:00~21:00,,01,연중무휴,14995,0efca08580114dc29b38eb3ecccfe9fa.jpg,핵밥시흥능곡점,02,,1009,,37.3686613544902,"결식아동,독거노인","동반 1인",
경기,01,"01,02,99",바나나래빗,126.793152634843,"경기 시흥시 대은로 10","11시 - 24시 (거리두기 단계따라 다름)","경찰, 군인",01,"월 1회",14919,a8beebd29e834469b5f5a2359caa66b0.jpg,바나나래빗,02,,97,,37.4398182409987,"결식아동,독거노인,경찰, 군인","동반 1인",
경기,99,99,"202호 스페로수학학원",126.734576357199,"경기 시흥시 배곧4로 103",,"한부모/기초생활수급/차상위계층 가정",02,,15010,4833e722b692462992ecec3dc59ea193.jpg,스페로수학학원,01,,863,"초,중등 수학교습비",37.3738595210945,"한부모/기초생활수급/차상위계층 가정","아이 본인만","초,중등 수학교습비"
경기,99,,"1층 107호",126.73340139468,"경기 시흥시 배곧4로 87",09:00~20:30,,01,"둘째 넷째 화요일",15010,045d68010b684af391ac4d95e07480ca.jpeg,테그42배곧신도시점,01,,121,"토스트1, 음료1 제공",37.374597699316,Nan,"아이 본인만","토스트1, 음료1 제공"
경기,99,01,"(정왕동주차빌딩) 1층 108호",126.734142830934,"경기 시흥시 서촌상가3길 7-13",09:00~22:00,,01,"설날, 추석연휴",15036,f548d6680c934a3784d33e767bc2857d.jpg,24시수육국밥시화점,01,,305,"수육국밥, 순대국밥",37.3463373718655,결식아동,"아이 본인만","수육국밥, 순대국밥"
경기,99,01,고구려짬뽕,126.774803803273,"경기 시흥시 수인로 3472-22",10:30-20:00,,01,매주월요일,14903,NULL,고구려짬뽕집,02,,345,식사류,37.443995771538,결식아동,"동반 1인",식사류
경기,01,01,세븐일레븐건물,126.796657611181,"경기 시흥시 장현서3길 12",24시간,,01,연중무휴,14996,999d5b1f152546a28933b65a524e9a8b.jpg,"담꾹 시흥장현점",01,,621,,37.3731239645626,결식아동,"아이 본인만",
경기,01,01,"1층 프랑킨치킨집",126.74362792498,"경기 시흥시 정왕동 1809-1",12~01시,,01,월요일,15054,NULL,프랑킨숯불양념구이치킨,01,,682,,37.3498502371727,결식아동,"아이 본인만",
경기,99,"01,02","3층 베스트탁구교실",126.722374010577,"경기 시흥시 중심상가로 38",09~24,,99,없음,15040,NULL,베스트탁구교실,02,,825,단식/복식,37.3526669890805,"결식아동,독거노인","동반 1인",단식/복식
경기,02,99,406호,126.785268524363,"경기 시흥시 진말로9번길 2",14시~22시,,02,토.일,15002,NULL,해법장곡이지학원,01,,231,,37.3784640235878,,"아이 본인만",
경기,01,01,육장갈비,126.832882482976,"경기 안산시 단원구 고잔2길 16",오전11시~오후11시,,01,없음,15359,c53ec319379c441da8b0e7ee7499e152.jpg,육장갈비,02,,471,,37.3176332677802,결식아동,"동반 1인",
경기,01,01,1층프랑킨숯불양념구이치킨,126.831205448673,"경기 안산시 단원구 고잔동 724",11:00~03:00,,01,연중무휴,15462,64e49043cf904ec99a5d9f6208289a9d.jpg,프랑킨숯불양념구이치킨,01,,677,,37.3147200097692,결식아동,"아이 본인만",
경기,01,01,"1층 116호 국수타래",126.824771730105,"경기 안산시 단원구 광덕4로 112","월~금 10시~20시 토 일 공휴일 휴무",,01,"휴무시간 없음 ",15458,2ef4dfd6873d4234b01778e512bea077.jpg,국수타래,02,,190,,37.3151467580377,결식아동,"동반 1인",
경기,01,01,"천혜중앙 126호 히또시",126.839878710767,"경기 안산시 단원구 광덕4로 246","평일 11시30부터 21시까지 토요일 12시부터 21시",,01,"일요일  국가 공휴일",15464,a8dd33a30d0f4fedbfcf5d2657a76722.jpg,히또시,99,"아이들과 부모까지",627,,37.3143537193383,결식아동,"아이들과 부모까지",
경기,01,01,"B동 112호 뱃살도둑 안산고잔점",126.828951250039,"경기 안산시 단원구 광덕대로 141","08:00 - 02:00",,01,연중무휴,15476,NULL,"뱃살도둑 안산고잔점",99,가족,333,,37.3090945924351,결식아동,가족,
경기,01,01,"1층 105호 프레드피자 ",126.831212824901,"경기 안산시 단원구 광덕대로 206",오전11시~새벽3시20분,,01,연중무휴,15462,49a4afd2d40a464b8d7d4d2d10a2c190.png,"프레드피자 안산1호점 ",01,,572,,37.3147005579691,결식아동,"아이 본인만",
경기,99,01,"108호 시작이반찬",126.827687734987,"경기 안산시 단원구 광덕서로 100",11:00~20:00,,01,매주일요일,15461,2999fc93428f43348eee3a57190617b7.jpg,시작이반찬,01,,482,"반찬류 중 4종 선택",37.3135472005545,결식아동,"아이 본인만","반찬류 중 4종 선택"
경기,99,"01,02",2층,126.815521749447,"경기 안산시 단원구 달미로 100","10:00 ~ 21:00",,01,,15216,8253ba3a622c404f85bce5b29a296790.jpg,(주)포만푸드,02,,410,스테이크도시락,37.3446667794007,"결식아동,독거노인","동반 1인",스테이크도시락
경기,99,01,,126.80593210575,"경기 안산시 단원구 석수로 117","11:00 ~ 24:00",,99,없음,15219,11d9afad74e54a849e80dc8d9cf76a18.jpg,BBQ안산선부스마트점,01,,1036,"치킨 반마리",37.3468732827616,결식아동,"아이 본인만","치킨 반마리"
경기,01,01,"102호 ",126.807923473756,"경기 안산시 단원구 석수로 42","12시30분 ~  00시",,01,없음,15232,0d61b60a403e4fee9f821f9c2573dbd5.jpg,현일병의피자&치킨군단,01,,493,,37.3402410872478,결식아동,"아이 본인만",
경기,99,01,"114호 피자와치킨 안산1호점",126.812568129775,"경기 안산시 단원구 선부광장1로 108","오전 11시~ 오후 10시",,01,,15368,21e27a2a4610481b9ef7fa92aaba9880.jpeg,"피자와치킨 안산1호점",99,"결식아동 및  결성가정구성원",281,"더블치즈피자  및 원하는 품목",37.3332483462792,결식아동,"결식아동 및  결성가정구성원","더블치즈피자  및 원하는 품목"
경기,99,01,"109호 신참떡볶이",126.802156606391,"경기 안산시 단원구 원초로 33",오전11시~오후22시,,01,없음,15383,NULL,신참떡볶이안산원곡점,01,,226,나홀로세트,37.3287231786492,결식아동,"아이 본인만",나홀로세트
경기,99,01,"다비치안경 안산중앙역사거리점",126.836398558279,"경기 안산시 단원구 중앙대로 899","10시 ~ 9시",,03,"연중무휴 / 명절당일만 휴업",15360,4dbc6615faa5417d9585dc85ec60fd06.jpg,"다비치안경 안산중앙역사거리점",01,,994,"눈에 편안한 안경 맞춰줄게요 : ) ",37.3172927250554,결식아동,"아이 본인만","눈에 편안한 안경 맞춰줄게요 : ) "
경기,99,"01,02","월드코아 2층 옥스포드 학생복",126.838270058955,"경기 안산시 단원구 중앙대로 915","오전 11시 - 오후 6시",,99,"매주 일요일",15361,955bae19af2b47d99858901b59f93543.jpg,"옥스포드 학생복",01,,1027,"교복 셔츠, 교복 바지",37.3171830289428,"결식아동,독거노인","아이 본인만","교복 셔츠, 교복 바지"
경기,02,,301,126.815113845871,"경기 안산시 단원구 초지로 90",2-7,,02,,15448,NULL,"맨투맨영수학원 ",01,,486,,37.3067379424123,Nan,"아이 본인만",
경기,99,01,506호,126.865090686241,"경기 안산시 상록구 본삼로 45","11/13/15/17/19시 100% 예약제",,99,"매주 일요일",15537,22958e6680b144e0bfccdade88db924d.png,홍차부부사진가게,01,,1078,"새학기용 학생증사진(8매+보정본)",37.3010966859109,결식아동,"아이 본인만","새학기용 학생증사진(8매+보정본)"
경기,99,01,101호,126.866240676249,"경기 안산시 상록구 본오로 89-1","오전11:00 ~ 익일 01:00",,01,"매주 월요일 휴무",15551,c0441ed041844d65aebe8408bfba334c.jpg,"동대문떡볶이 동떡&닭강정",02,,246,"떡볶이+치킨세트 or 떡볶이+컵밥",37.2931503089978,결식아동,"동반 1인","떡볶이+치킨세트 or 떡볶이+컵밥"
경기,02,01,앤의식탁,126.838602442834,"경기 안산시 상록구 사동 1570","평일10~10   토 11~9 일 1~9",,01,"평일 3~4  브레이크타임",15577,97bec1194c49492b8c0f3b43b73a7766.jpg,앤의식탁,02,,846,,37.3010728988685,결식아동,"동반 1인",
경기,01,"01,02","국제프라자 101호 뚜레쥬르안상록수점",126.863574915021,"경기 안산시 상록구 샘골로 190","07:30 ~ 22:00",,01,,15538,753eb7020d074a27a257a148beebd190.png,뚜레쥬르안산상록수,02,,547,,37.3007067821457,"결식아동,독거노인","동반 1인",
경기,99,"01,02","지하 1층 청년몰 숩",126.865988229129,"경기 안산시 상록구 석호로 315",12:00~19:30,,01,"매월2,4째 일요일 ,매주월",15541,1996eb34a70c4a6a8676f53a2a9163ea.jpg,숩:,02,,887,"여름방학 겨울방학동안 스테이크제공",37.2937492130573,"결식아동,독거노인","동반 1인","여름방학 겨울방학동안 스테이크제공"
경기,01,01,"다농마트 3층 톡톡청년몰 373호 ",126.844239273087,"경기 안산시 상록구 예술광장로 1",오전11시~오후8시,,01,"일,월 휴무",15288,0d0d165162e34983836353a1cc37c9aa.png,더둘베이크,02,,724,,37.3283614945831,결식아동,"동반 1인",
경기,99,"01,99","롯데마트 3층 안산무지개연합의원 ",126.846653522411,"경기 안산시 상록구 항가울로 422","10시 -21시",,99,"12시-12시30분 18시-18시30분",15299,729b4bef8f1e467bbd1e9accd448e93d.jpeg,"안산무지개연합의원 ",02,,622,"병원 방문시 병원옆 푸드코트식사제공",37.3180950426977,"결식아동,","동반 1인","병원 방문시 병원옆 푸드코트식사제공"
경기,02,01,,127.223882693,"경기 안성시 대덕면 내리 689-13",12:00~20:00,,99,매주일요일,17546,1aee9692f5b3454da9089e239b1d537c.jpg,오늘구움,01,,599,,37.0018656221074,결식아동,"아이 본인만",
경기,99,99,2층,127.244385879421,"경기 안성시 미양면 협동단지길 3","오전10시 ~ 오후5시","지역사회 비영리 단체 등",01,"오전11시:30분 ~ 13시30분",17604,9c7c41ec982d46acabde920a0ecc8992.jpg,같이행복공동체협동조합,99,"취약계층(어르신,결식아동,장애인 등)",484,"냉동도시락, 즉석도시락",36.9588536968775,"지역사회 비영리 단체 등","취약계층(어르신,결식아동,장애인 등)","냉동도시락, 즉석도시락"
경기,02,01,1층,127.254353915956,"경기 안성시 신건지동 2-9",11:00~23:00,,01,매주화요일,17573,6ff07739588e4f5882a2b9e447792052.jpg,푸드코트,01,,635,,37.0140214224996,결식아동,"아이 본인만",
경기,01,01,"폴리프라자1층 cafeOTDN",127.259358045047,"경기 안성시 아양1로 61",11시~21시,,01,매주일요일/매달첫번째토요일,17577,cc6d69edd723456399eb63ca299e88dc.jpg,카페오티디엔(cafeOTDN),02,,105,,37.007623840312,결식아동,"동반 1인",
경기,99,"01,02","107호 올곧은소반",126.962526814593,"경기 안양시 동안구 경수대로 428","평일 Am10:30~Pm8:00/토요일 ~Pm4:00",,01,"일요일 휴무",14126,0a1a138fc6f0479f8e643ba267d63ba3.jpg,올곧은소반,02,,593,"컵소반도시락 or 밑반찬3종",37.3622634561028,"결식아동,독거노인","동반 1인","컵소반도시락 or 밑반찬3종"
경기,01,"01,02","2층 레드브라운카페",126.959105683032,"경기 안양시 동안구 경수대로584번길 37","10시 부터 20시",,01,일요일,14109,df17e0686a3d41bbb978317f5a45d0cd.jpg,레드브라운호계점,01,,389,,37.3755726406981,"결식아동,독거노인","아이 본인만",
경기,02,"01,99",1층,126.969604869454,"경기 안양시 동안구 관악대로 419-1",14:00~23:00,"안양시 소방관  포장주문시 40%할인",01,휴무일없음,13939,621e0d7fa8d54af193799199d89acd7f.jpg,비비큐인덕원사랑점,01,,1071,,37.405120254148,"결식아동,안양시 소방관  포장주문시 40%할인","아이 본인만",
경기,99,01,"카페마녀 ",126.965050687306,"경기 안양시 동안구 관평로138번길 53",오후4시~11시,,01,일요일,14068,NULL,"카페마녀 ",01,,756,치킨,37.3906391266458,결식아동,"아이 본인만",치킨
경기,01,01,"1층 102호",126.963745601251,"경기 안양시 동안구 관평로69번길 29-7","오전11시 ~ 오전1시30분",,01,,14103,NULL,"프랑킨숯불양념구이치킨 안양점",01,,679,,37.3829215585742,결식아동,"아이 본인만",
경기,99,01,4층,126.975555960183,"경기 안양시 동안구 시민대로 408","11:00 ~ 22:00",,01,"15:00 ~ 17:00",14058,NULL,벨라로사,99,"매주 월요일 아이 본인만",1004,파스타,37.3963242426786,결식아동,"매주 월요일 아이 본인만",파스타
경기,99,01,"흥일빌딩 6층 다수인학원",126.960422251572,"경기 안양시 동안구 평촌대로 107",12:00~23:00,,02,없음,14099,766a83fe75914537b29092412bfde9dd.png,한원석,99,"수강을 할 학생",287,"학원 수강료 일정금액 면제",37.3815658934908,결식아동,"수강을 할 학생","학원 수강료 일정금액 면제"
경기,99,01,"백두프라자 101호 악마국수",126.954133500425,"경기 안양시 동안구 평촌대로217번길 27",11시~22시,,01,16시~17시,14072,e274dc2484ec42eeb2e8a6c7b3f2c762.jpeg,악마국수,01,,810,"Noodle, rice, side",37.3903294088302,결식아동,"아이 본인만","Noodle, rice, side"
경기,99,"01,02,99","1층 왼쪽",126.917893385045,"경기 안양시 만안구 삼덕로 78","오전11시 부터 오후 00시 까지",경찰관,01,없음,14002,NULL,힘찬뼈다귀,01,,625,"1인분 감자탕",37.3954001246572,"결식아동,독거노인,경찰관","아이 본인만","1인분 감자탕"
경기,01,"01,02","104동 127호",126.929107726972,"경기 안양시 만안구 안양로 180","오전 9시 ~ 오후 9시",,01,없음,14033,efb4708a8d7d44bcb7c27659e135fa88.jpg,"로스터리카페 쉼",01,,609,,37.390183882946,"결식아동,독거노인","아이 본인만",
경기,99,"01,02","1층 미용실",126.883583900764,"경기 안양시 만안구 오리로 58",11~6,,03,매주일요일,13976,849e475dd6fb435689a4f98c34443127.jpeg,"모결헤어팀안양점 감쌀롱",01,,518,"남자컷트 학생컷트 여학생컷트",37.4094137293598,"결식아동,독거노인","아이 본인만","남자컷트 학생컷트 여학생컷트"
경기,,,"105호 안심축산물판매점 (링크오상가",126.931147060605,"경기 안양시 만안구 태평로52번길 37",10:00~22:00,,99,연중무휴,14037,NULL,"안심축산물판매점 메가트리아점",,,755,,37.3960759716372,Nan,Nan,
경기,99,"01,02,99",아이엠피자,126.980680801458,"경기 양주시 광적면 광적로 75","오전 11시 ~ 오후 11시","굶주린 누구나",01,"매주 월요일",11420,fcb7494dbca7439ab4c35681af47c10e.jpg,아이엠피자,99,,110,피자,37.8253110817424,"결식아동,독거노인,굶주린 누구나",,피자
경기,99,01,"스카이프라자104호 또띠아를 말아줘",127.077677992073,"경기 양주시 부흥로 1932",11시~20시,,01,일요일휴무,11492,d55bae288b934af89cf0ddb5fb46b07b.jpg,"또띠아를 말아줘",02,,214,브리또세트,37.7944394057017,결식아동,"동반 1인",브리또세트
경기,01,"01,99","스카이타워 114호 부산어묵 ",127.092141347164,"경기 양주시 옥정동 963-4",09.09,"지역에 어려운이웃",01,매주화요일,11473,d47539e7c56e4897970966142012340e.jpg,"부산어묵 ",02,,447,,37.8214014328258,"결식아동,지역에 어려운이웃","동반 1인",
경기,99,"01,02","1층 더모아나",127.097178631135,"경기 양주시 옥정동로5길 32",10:00-17:00,,01,"매주 일, 월, 공휴일 휴무",11476,1f90f661d0fc4af691264a91f91b5f99.jpeg,"더 모아나",01,,1029,"샌드위치 증정 ",37.8164465360934,"결식아동,독거노인","아이 본인만","샌드위치 증정 "
경기,99,"02,99","1층 멜로우프루타",127.096957482444,"경기 양주시 옥정동로7길 40","12:00 - 22:00","공무원증 제시 시,  30% 할인",01,"매주 월요일 정기 휴무",11473,NULL,멜로우프루타,99,"아이 본인 샌드위치 + 음료  제공",503,"샌드위치 + 음료  / 30% 할인",37.8212016989849,"독거노인,공무원증 제시 시,  30% 할인","아이 본인 샌드위치 + 음료  제공","샌드위치 + 음료  / 30% 할인"
경기,99,,"M타워 3층 305호 생고기제작소",127.092795392921,"경기 양주시 회천남로 88",오후4~새벽2시,,01,없음,11473,113d689235a440ad927b21f0ca15b6ba.jpg,"생고기제작소 양주옥정점",99,"18살미만 카드소지자본인외형제자매해당",87,"소고기+삽겹살 한판+공기밥+음료",37.8185483098639,Nan,"18살미만 카드소지자본인외형제자매해당","소고기+삽겹살 한판+공기밥+음료"
경기,02,01,"104호 티니샵미니",127.506103444909,"경기 양평군 양평읍 공흥리 293-1",11-19,,99,"일요일, 공휴일",12550,569e13035a67420aa01f51ab419dd93b.jpg,"티니샵 ",01,,832,,37.4934383137145,결식아동,"아이 본인만",
경기,01,01,담꾹,127.492071327719,"경기 양평군 양평읍 양평시장길 14-3",10시~6시,,01,,12556,NULL,"담꾹 양평점",01,,1076,,37.4903580646853,결식아동,"아이 본인만",
경기,01,01,"1층 집어가 양평용문점",127.592089777599,"경기 양평군 용문면 다문북길 81","24시간 영업",,01,,12515,NULL,"집어가 양평용문점",01,,781,,37.4869298140264,결식아동,"아이 본인만",
경기,01,"01,02","단밤 1271 CAFE",127.444813957028,"경기 여주시 산북면 광여로 1271","11시~ 20시",,01,"매주 화요일 휴무",12600,f1d9b01badcb49288ec1bc1e266a8f04.jpg,단밤1271CAFE,01,,769,,37.4066680169826,"결식아동,독거노인","아이 본인만",
경기,01,01,"1층 건짱",127.635993117723,"경기 여주시 세종로 254-20",오후1:00~오후11:00,,01,"금,토,일,월 휴무",12652,71c5b7996f744d3e992260393f96882d.png,건짱,02,,455,,37.2747794825093,결식아동,"동반 1인",
경기,99,01,2층,127.636167412894,"경기 여주시 세종로79번길 7-1",낮3시~밤12시,,01,"격주 월요일",12631,64d51abb521f4613bae0195b367bfa08.jpg,자담치킨,02,,394,치킨,37.2906518925843,결식아동,"동반 1인",치킨
경기,01,01,달리는커피여주점,127.640571227491,"경기 여주시 청심로 185",오전9시~오후8시,,01,일요일정기휴무,12620,b6a8e6a762214a13bf5644d38c7d528d.jpg,달리는커피여주점,01,,811,,37.2967040961314,결식아동,"아이 본인만",
경기,02,01,"1층 114호",127.073867546513,"경기 오산시 경기대로 154",오후3시~12시,,01,매주월요일,18144,fb3df800af5647d5bb9fa32480b2dbbe.png,노랑통닭오산원동점,02,,948,,37.138493843608,결식아동,"동반 1인",
경기,,,"115호 승도리네 곱도리탕 ",127.065276594229,"경기 오산시 내삼미로79번길 46",,,01,,18114,NULL,"승도리네오산세교점 ",,,131,,37.1702357961523,Nan,Nan,
경기,99,01,"1층 장수순대국",127.075397495404,"경기 오산시 밀머리로 46",10시-22시,,01,"매주 토요일",18144,NULL,장수순대국,01,,641,"순대국밥,머리국밥",37.1376539924014,결식아동,"아이 본인만","순대국밥,머리국밥"
경기,01,01,"세마엠시티 101호 포레스티",127.04138918977,"경기 오산시 수목원로 618","오전 7시 - 오후 7시",,01,,18106,bc85d8e36f694773b4ad64d2a1ab0202.jpg,포레스티,02,,1063,,37.1867804583051,결식아동,"동반 1인",
경기,01,"01,02",1층,127.069186183211,"경기 오산시 시장길 8",11시~15시,,01,없음,18136,0be9ea6b56e1497bb743cb3ef8fd0ed6.jpg,가마솥시골전통보리밥,99,"등본상거주지동일인모두,소방관은동반2인",168,,37.1496272858114,"결식아동,독거노인","등본상거주지동일인모두,소방관은동반2인",
경기,99,01,103호,127.112484807367,"경기 용인시 기흥구 구갈로72번길 10","오전 11시반~오후9시반",,01,없음,16972,NULL,"을찌로국물떡볶이 기흥구청점",01,,611,"을찌로국물떡볶이. 김가루밥.어묵탕",37.2805988112535,결식아동,"아이 본인만","을찌로국물떡볶이. 김가루밥.어묵탕"
경기,,01,시그니처1,127.15302490645,"경기 용인시 기흥구 동백죽전대로 299",오잔10~오후10시,,01,없음,16995,088620c17ae74c1e82f6e87fdb9ae665.jpg,시그니처1,01,,488,,37.2676259491141,결식아동,"아이 본인만",
경기,01,"01,02",1층다블,127.0771609252,"경기 용인시 기흥구 서그내로15번길 33-2","10:00~ 20:00",,01,빨간날,17104,6a10ffb64ee34f9faa466c2b86ff2630.jpg,다블,03,,508,,37.2467052180578,"결식아동,독거노인","동반 2인",
경기,01,"01,02,99","1층 오른쪽 맨 끝, 푸오코",127.077163485464,"경기 용인시 기흥구 서천동 7-2",오전10시-저녁7시,"코로나 의료 종사자",01,"일요일,설,추석",17104,3beebc8a9b794c589228a6f18c7d20a1.jpg,"푸오코 (FUOCO)",01,,180,,37.2466737699332,"결식아동,독거노인,코로나 의료 종사자","아이 본인만",
경기,01,01,"102호, 타니예르",127.073680365623,"경기 용인시 기흥구 서천서로12번길 4-2",0800-2000,,01,,17105,NULL,타니예르,01,,40,,37.2406074498508,결식아동,"아이 본인만",
경기,99,01,"1층 르꼬끄스포르티브 ",127.120912749112,"경기 용인시 기흥구 신고매로 124",오전11시오후8시30분,,99,"명절 당일",17087,70c68488a5674d5dbc6808983c33a449.jpg,"르꼬끄스포르티브 ",99,"지역 조손가정 아이 본인만",1007,신발,37.2253700633778,결식아동,"지역 조손가정 아이 본인만",신발
경기,01,01,"208(일부),209,210호",127.071466746311,"경기 용인시 기흥구 영덕동 986-1","16시 ~ 24시",,01,없음,16954,b6ed583e1f894eb6a8d251fc91aa3be2.jpg,숯닭무흥덕점,01,,539,,37.2750269342452,결식아동,"아이 본인만",
경기,99,,"풍산프라자 8층 메디웰(주)",127.110784921318,"경기 용인시 기흥구 죽전로 17",9A-6P,,99,"주 4 일(토,일, 공휴일 휴무)",16897,b771b0851c3542468a144713cc167fa4.gif,메디웰(주),03,,759,,37.3207243639462,Nan,"동반 2인",
경기,99,01,"이씨티 D동206호",127.071589469754,"경기 용인시 기흥구 흥덕2로87번길 18","오전10시부터 오후 8시까지",,99,"매주 화요일",16954,963d606169624b9ebea24b641b47e399.jpg,N5헤어,01,,1038,학생커트,37.275912222227,결식아동,"아이 본인만",학생커트
경기,01,"01,02","골드프라자 B207호",127.081196270803,"경기 용인시 수지구 성복2로 17",11-20,,01,"일요일 휴무",16860,af8f56e1581b42de823ea631e52e4d68.jpg,"달콤트럭 수지센트럴점",02,,277,,37.3108346494019,"결식아동,독거노인","동반 1인",
경기,99,01,1층,127.094239373165,"경기 용인시 수지구 수지로296번길 56",11시30분-20시30분,,01,명절전날.당일,16841,4e54816b5e5347c6b5a68a233a292e95.jpg,"홍콩반점0410수지구청점 ",02,,364,짜장+탕수육,37.3210070253108,결식아동,"동반 1인",짜장+탕수육
경기,99,"01,02",1층,127.095480336164,"경기 용인시 수지구 풍덕천동 1082-7",09:00~22:00,,01,,16841,38be6ec9ddfe451fbc66b0235b87c667.png,순대보감,01,,275,"국밥류 4,000원",37.3217574019782,"결식아동,독거노인","아이 본인만","국밥류 4,000원"
경기,02,"01,02",603호,127.126425968911,"경기 용인시 수지구 현암로 153","평일 13:00~22:00, 토10:00~ 18:00",,02,공휴일,16876,NULL,119수학학원,01,,164,,37.3319519450358,"결식아동,독거노인","아이 본인만",
경기,99,01,"삼환나우빌아파트 상가 2층",127.194526387378,"경기 용인시 처인구 김량장동 516","오전11시~오전 1시",,01,,17061,11d4836dce3d498781b2925a17c9e994.jpg,"빨간토마토피자 용인1호점",01,,255,"일부 품목 제외",37.2336615847493,결식아동,"아이 본인만","일부 품목 제외"
경기,01,01,"상가 돌빙커피",127.185291322676,"경기 용인시 처인구 명지로16번길 26",10:00-22:00,,01,"매월 첫째 월,화 휴무",17054,9a9b9f64ceaf4103965a59ed87fb43d6.jpeg,돌빙커피본사직영점,02,,817,,37.2356068835221,결식아동,"동반 1인",
경기,02,99,"상가동7호 과일숲",127.182243414418,"경기 용인시 처인구 명지로40번길 35-16",10:00~20:00,"소방관, 임산부고객님들께 1000원할",01,일요일,17056,0e506f04b6704e849686d71cc7a0d698.jpg,과일숲,99,"부담없이 오셔서 말씀해주세요",576,,37.2306890205109,"소방관, 임산부고객님들께 1000원할","부담없이 오셔서 말씀해주세요",
경기,99,01,미니스톱용인외대점,127.25339347584,"경기 용인시 처인구 모현읍 외대로 36",07시~22시,,01,명절,17035,e39df9cc1b19490a90d7bb452b7d6aa7.jpg,미니스톱용인외대점,02,,838,"김밥,샌드위치,도시랑등",37.3358070186045,결식아동,"동반 1인","김밥,샌드위치,도시랑등"
경기,99,01,하나컴퓨터,127.251345881476,"경기 용인시 처인구 모현읍 초하로 78-54",10:00~17:00,,99,"주말 및 공휴일 휴무",17037,NULL,하나컴퓨터,99,"급식카드 소지한 학생의 가족 모두",1016,"컴퓨터 프린터 무료수리",37.3107536294254,결식아동,"급식카드 소지한 학생의 가족 모두","컴퓨터 프린터 무료수리"
경기,01,01,"소노펠리체 b동 101호",127.286062502534,"경기 용인시 처인구 양지면 교동로 10",8~18시,,99,"연중무휴 예약제",17158,e93a4c8f6dd44532b914f014940fe069.jpeg,"케미 케이크",01,,835,,37.2356968384748,결식아동,"아이 본인만",
경기,02,01,"150-1 1층 치킨플러스",127.219843335358,"경기 용인시 처인구 포곡읍 전대로49번길 1",12:00-24:00,,01,"매월 둘째주 넷째주 일요일",17023,4de37ddb60d94cb1bf8d074bd0a93b02.jpg,치킨플러스에버랜드점,02,,771,,37.283091306378,결식아동,"동반 1인",
경기,01,01,"104호 션하게마시자",127.227057229786,"경기 용인시 처인구 한터로152번길 2",15:00~23:00,,01,"매주 일요일",17149,d048dd3abe474b3aa8b7c66750d0368e.jpeg,션하게마시자,01,,306,,37.2484846009701,결식아동,"아이 본인만",
경기,01,01,"102호(대로변 하얀가게)",126.994963711002,"경기 의왕시 안양판교로 213",11:00~21:00,,01,15:00~17:00,16009,f28169ec337d40c78d13965d9106b6ea.jpg,엄마의두번째부엌,01,,1081,,37.3897550545718,결식아동,"아이 본인만",
경기,01,01,"A동 105호",126.963144045554,"경기 의왕시 어내들로 5",09:00~19:00,,01,,16046,71e0ad31a2af49bb9a2d12fdcf4c4a08.jpg,정다방,01,,894,,37.361593646227,결식아동,"아이 본인만",
경기,01,01,"1층 매일찬방",126.96745224943,"경기 의왕시 원골로 8",10시까지,,01,주말.공휴일,16053,NULL,매일찬방,01,,317,,37.3582767863065,결식아동,"아이 본인만",
경기,99,01,"1층 아이엔맘 ",127.034926312068,"경기 의정부시 가능동 671-19",10시~5시,,01,주말.공휴일,11681,d45cd32e89b141d18548f8c7084ce834.jpg,아이엔맘,02,,68,마카롱10구1팩,37.7492454745275,결식아동,"동반 1인",마카롱10구1팩
경기,99,,"원광빌딩 메가커피",127.047546616297,"경기 의정부시 경의로 107",09:00~21:00,,01,,11696,NULL,"메가커피 의정부경의교차로점",99,"첫방문시 맴버쉽쿠폰발급(아이 본인만)",662,"모든 음료",37.733391390855,Nan,"첫방문시 맴버쉽쿠폰발급(아이 본인만)","모든 음료"
경기,99,01,"1층 꿈꾸는아뜰리에미술교습소",127.05699560146,"경기 의정부시 경의로193번길 12",1시30분~7시,,02,"주말, 공휴일",11728,761dbec5fbc54482a01e59e495d7e979.jpg,꿈꾸는아뜰리에미술교습소,01,,41,"아동미술 주1회 90분",37.7338840861059,결식아동,"아이 본인만","아동미술 주1회 90분"
경기,99,"01,02","1층 스시화",127.092839310143,"경기 의정부시 오목로 111",10시30분~22시,,01,없음,11808,3a693598c5654111b1c172fa56c1fcfa.jpg,스시화,01,,1075,초밥,37.738011713436,"결식아동,독거노인","아이 본인만",초밥
경기,01,"01,02","삶천식당 1층",127.083843425986,"경기 의정부시 용민로26번길 40","11:30-8:30(브레이크 3-5시)",,01,"일요일, 월요일, 모든 공휴일",11785,37a6f9cc49174c99a2343e8a33c17ab8.jpeg,삶천식당,02,,727,,37.7356623295799,"결식아동,독거노인","동반 1인",
경기,02,01,한끼한죽,127.092987459469,"경기 의정부시 용현로160번길 14-7",오전10시~오후10시,,01,2시30분~4시30분,11808,be6ed607c80e414e920a6549766de7c5.jpg,한끼한죽,01,,951,,37.7399026410137,결식아동,"아이 본인만",
경기,01,01,1층,127.051215790713,"경기 의정부시 의정부동 147-18",12:00~24:00,,01,,11695,5f60b4f7094246ddbc7f9823f75e85ab.jpg,Mr.푸룻,01,,436,,37.7384287984166,결식아동,"아이 본인만",
경기,,,원이쌀밥,127.495454372032,"경기 이천시 대월면 사동로 76-19",,,01,,17342,NULL,원이쌀밥,,,497,,37.2364418191812,Nan,Nan,
경기,99,01,103호,127.472009988413,"경기 이천시 부발읍 대산로 379",오전11시~오후21시30분,,99,15시~16:30분,17329,26b4bdb062d544e0a75757a5ec974a88.jpg,"닭사부일체 이천본점 ",03,,339,"묵은지닭볶음탕+치즈폭탄계란찜 ",37.253348498392,결식아동,"동반 2인","묵은지닭볶음탕+치즈폭탄계란찜 "
경기,02,"01,02","1층 그린마트",127.491620124254,"경기 이천시 부발읍 아미리 666",오전8:30~오후23:00,,03,없음,17332,520453ea9ff94ab19ef0a908cccd9d59.jpeg,그린마트,01,,744,,37.2529134220554,"결식아동,독거노인","아이 본인만",
경기,01,01,쎄미치킨,127.442870441249,"경기 이천시 서희로 52","오후2시 - 오후 11시30분",,01,매주일요일,17374,NULL,쎄미치킨1989,03,,33,,37.2801047554224,결식아동,"동반 2인",
경기,99,"01,02",첼바,127.439482235165,"경기 이천시 설봉로30번길 32",10:00~21:00,,01,,17375,8f7d87f666ff4bd492b3809becf1adbd.jpeg,이천첼바,01,,241,"음료,샌드위치",37.2786650085148,"결식아동,독거노인","아이 본인만","음료,샌드위치"
경기,01,01,고피자,127.443681100374,"경기 이천시 창전동 158-11",10:30-23:00,,01,연중무휴,17369,5a23052714d74ac7a06b0a70640a61ab.jpeg,"고피자 이천중앙로점",02,,581,,37.2808215545351,결식아동,"동반 1인",
경기,02,01,1층상가,126.746741437849,"경기 파주시 가재울로 89",11~2,,01,없음,10871,108c628a97b643c88f35c23e003da09c.jpeg,피자스토어,03,,587,,37.7309966070184,결식아동,"동반 2인",
경기,01,"01,02","1층 129호",126.718898234988,"경기 파주시 동패동 1701",,,01,,10874,61197e8cc5a74a6aab184e9c1c4b3300.jpg,"60계치킨 파주교하점 ",03,,114,,37.7249041302205,"결식아동,독거노인","동반 2인",
경기,99,"01,99","1층 미소가와",126.78222960867,"경기 파주시 문산읍 당동리 134-3",오전9시~오후9시,,01,"매주화 휴무",10821,654584e9c9f742dc9bc4cf495f6e4362.jpg,미소가와,99,,289,"최대한 원하는 품목 ",37.8620323605614,"결식아동,",,"최대한 원하는 품목 "
경기,99,01,"1층 야당핫헤어",126.76443380175,"경기 파주시 송학1길 152",10시~7시,,03,예약필수^^카드필수^^,10909,3a677733c1bd4afcb0a54db7ed927e84.jpg,야당핫헤어,01,,524,커트,37.7150705323462,결식아동,"아이 본인만",커트
경기,99,01,1층,126.779817396487,"경기 파주시 쇠재개울길 62-13",12:00~24:00,,01,"명절 당일",10934,NULL,주가리곱창,01,,702,국밥,37.7515303949086,결식아동,"아이 본인만",국밥
경기,02,01,110호,126.761475310868,"경기 파주시 심학산로 628","오전 11시30분 ~ 밤 12시",,01,오후3시~오후5시,10908,b2e083ac2b8c44949f277eec21136f0b.jpg,생선구이와꼬치닭,01,,976,,37.7165007321262,결식아동,"아이 본인만",
경기,99,01,광성빌딩1층,126.737254882416,"경기 파주시 심학산로423번길 7-21","평일 ,일요일 9시~ 8시30분, 토요일 9시~6시",,01,,10900,0e18ea796d074d00930df28f2ffc1bec.jpg,"에그박스파주운정점 ",01,,1062,"오리지널에그,햄치즈에그,베이컨치즈에그",37.7188080741533,결식아동,"아이 본인만","오리지널에그,햄치즈에그,베이컨치즈에그"
경기,01,01,우동아저씨,126.756606465914,"경기 파주시 와동동 1576",12~21,,01,3-4,10870,NULL,우동아저씨,01,,957,,37.736169845495,결식아동,"아이 본인만",
경기,01,01,"상가104호 파더스김밥앤카페",126.758001703909,"경기 파주시 와석순환로 16",am10:00~pm8:00,,01,없음,10908,aed85a673e044c3f9cbdd2cbfc3c50f5.jpg,파더스김밥앤카페,01,,834,,37.7109105140349,결식아동,"아이 본인만",
경기,01,01,1층,126.808780286632,"경기 파주시 조리읍 내산길 71",11시~9시,,01,매주화요일,10938,NULL,명수네국물떡볶이,01,,705,,37.7466130121115,결식아동,"아이 본인만",
경기,01,01,1층,126.809174789804,"경기 파주시 조리읍 봉천로 21",오전11시10분~오후11시30분,,01,연중무휴,10937,934f058248e743988882c6835364d9fc.jpg,피자1989봉일천점,99,"꿈나무,컬러풀드림카드.소지자 및",377,,37.7429932041164,결식아동,"꿈나무,컬러풀드림카드.소지자 및",
경기,01,01,"거묵프라자 303호",126.718286766787,"경기 파주시 청석로 264",12:00-23:00,,01,"매주 월요일",10874,5b998ad889244574af4062f698272075.jpeg,백년손님서서갈비무한리필,02,,821,,37.7255837130105,결식아동,"동반 1인",
경기,99,"01,02,99","상가동101호 ",126.774159092716,"경기 파주시 후곡로 77","오전11시30분 -오후9시","국가유공자 본인",01,"매주 월요일",10918,45c5496910c74a3e9c64793a1f973251.jpg,더착한한우갈비탕,01,,103,"갈비탕 6천원",37.7495734219103,"결식아동,독거노인,국가유공자 본인","아이 본인만","갈비탕 6천원"
경기,99,01,"1층 처갓집양념치킨 고덕국제점 ",127.04875955725,"경기 평택시 고덕국제4길 54","오후 2시 - 오후 11시 50분",,01,"상황에 따라 달라요.",18008,a96127f8e2d64a23b659c0fdc18937b4.png,"처갓집양념치킨 고덕국제점 ",01,,698,"후라이드 ",37.0532740250992,결식아동,"아이 본인만","후라이드 "
경기,01,01,106호,127.105299917198,"경기 평택시 비전3로 26",오전9시~오후10,,01,"매주월요일 휴무",17852,8f083f3f45874adea7b60c7438f46fdd.jpg,"웰돈카츠&떡볶이 비전점",02,,589,,37.0023065974839,결식아동,"동반 1인",
경기,02,01,"파리바게트 소사벌상업지구",127.113664370529,"경기 평택시 비전5로 20-10",07-23,,01,,17854,NULL,"파리바게트 소사벌 상업지구",02,,1012,,36.9997545879311,결식아동,"동반 1인",
경기,01,01,"스마일빌딩 109호 고기고기",127.114716421256,"경기 평택시 비전5로 37",17:00~24:00,,01,"둘째 넷째 월요일",17854,bd46c1fe7a1048459a0523e2a52161a9.jpeg,고기고기,02,,767,,37.0015878179431,결식아동,"동반 1인",
경기,99,"01,02","아주1차아파트 상가동2층  그림네일",127.065595050577,"경기 평택시 송탄공원로 146",10:00~19,,99,"일요일, 법정공휴일",17729,680742324ca0423383218d3205ae7c4e.jpg,그림네일,01,,201,"기본젤네일, 케어(패디큐어포함)",37.0772948061652,"결식아동,독거노인","아이 본인만","기본젤네일, 케어(패디큐어포함)"
경기,99,"01,02,99","참다한홍삼 평택안중점 ",126.93134418275,"경기 평택시 안중읍 안중로 133",09:30~20:00,"전 제품 2만원 할인(홍삼,비타민)",99,,17933,155b5966fad1484183818e6b50a449ff.jpg,"참다한홍삼 평택안중점 ",02,,1017,"어린이홍삼,비타민 1회2만원할인",36.9889961612772,"결식아동,독거노인,전 제품 2만원 할인(홍삼,비타민)","동반 1인","어린이홍삼,비타민 1회2만원할인"
경기,99,01,1층,126.925177089496,"경기 평택시 안중읍 안중로 8",09시30분~19시,,03,"매주 수요일",17940,5495813256fd42709c15e08a58c35398.jpg,미스터케이헤어살롱,01,,384,"커트 무료시술",36.982372618151,결식아동,"아이 본인만","커트 무료시술"
경기,01,01,"2층 요나요나",126.923013559009,"경기 평택시 안중읍 안현로서8길 21",17~22,,01,없음,17943,NULL,요나요나,02,,561,,36.9789608079426,결식아동,"동반 1인",
경기,01,01,149호,126.919089763769,"경기 평택시 안중읍 현화리 831","11시~15시 17시~21시",,01,"매주 일요일 15:00~17:00",17944,NULL,리얼파스타,01,,335,,36.9789594602409,결식아동,"아이 본인만",
경기,01,"01,02","1층 달토끼짬뽕",127.133311493154,"경기 평택시 용이동 598-1",11시~20시30분,,01,"매주 월요일",17869,ac9ee3eddf5146009b669e69879c3fb7.jpg,달토끼짬뽕용이점,99,모두가능,613,,36.9980169564544,"결식아동,독거노인",모두가능,
경기,99,"01,02","1층 무모한초밥",127.125518279198,"경기 평택시 용이동 687-4","11:00 ~ 21:00",,01,없음,17870,cfb9343e0bfa42af854a34019b850dbe.jpg,무모한초밥(용죽점),01,,1030,"초밥,우동,돈가스",36.9924426160737,"결식아동,독거노인","아이 본인만","초밥,우동,돈가스"
경기,01,01,1층.해두리치킨,126.918233225669,"경기 평택시 청북읍 안청로2길 14-21",오후4시~11시까지,,01,"매월 첫째주 화요일",17808,9120bceb4e2041949b77bfd5a816301c.jpg,해두리치킨,01,,952,,37.0170767332995,결식아동,"아이 본인만",
경기,02,01,"104호 위더스컴퓨터 청북점",126.912010524844,"경기 평택시 청북읍 안청로3길 14",10시~19시,,03,"토요일 격주휴무 일요일 및 공휴일 휴무",17801,NULL,"위더스컴퓨터 청북점",01,,1072,,37.023014268485,결식아동,"아이 본인만",
경기,99,01,"1층 갓츠킹",126.916224527084,"경기 평택시 청북읍 청북남로 253",오전11시~오후9시,,01,연중무휴,17808,286c16d1baaf43909272ad1d5bf1da93.jpg,"갓츠킹평택청북점 ",01,,866,도시락,37.0188954226277,결식아동,"아이 본인만",도시락
경기,99,01,"1층 옹쓰온",127.084893096061,"경기 평택시 통복시장로13번길 5",12:00~20:00,,99,"월요일 휴무",17893,NULL,옹쓰온,01,,102,"캔들 원데이 클래스",36.9966364874439,결식아동,"아이 본인만","캔들 원데이 클래스"
경기,01,01,"1층 옛날돼지고기",127.061001619096,"경기 평택시 특구로23번길 39",오후4시부터자정까지,,01,없음,17774,NULL,옛날돼지고기,03,,133,,37.0676800342898,결식아동,"동반 2인",
경기,02,01,"1층 코브라독스 평택세교점",127.08044287645,"경기 평택시 평택로 146",오전11시~오후9시,,01,없음,17839,e4c351cb9c0e4690ae15867f869c4a74.jpg,"코브라독스 평택세교점",02,,687,,36.9986729694795,결식아동,"동반 1인",
경기,02,01,"리시오빌딩 1층 코브라독스 평택용이점",127.135812105166,"경기 평택시 현신3길 8",오전11시~오후9시,,01,없음,17868,742686a7712c4f6e8962401d4a6d5b11.jpg,"코브라독스 평택용이점",02,,686,,36.9958034968491,결식아동,"동반 1인",
경기,01,"01,02",1층102호,127.13302933759,"경기 평택시 현촌3길 22-13",오전10시,,03,무,17869,c27f2ea130a2405cbee0c7606c79b1fd.jpeg,"사진공간 #3",99,가족,77,,37.0014618382533,"결식아동,독거노인",가족,
경기,01,01,점심,127.165774592038,"경기 포천시 건너말길 7",11:30~21:00,,01,"14:30~17:00/재료소진시 휴무",11161,090b0a467e2943d881cef03e1c4a9799.jpg,점심,02,,1047,,37.8541768792269,결식아동,"동반 1인",
경기,99,01,106동1206호,127.145836729324,"경기 포천시 소흘읍 송선로 60","오전6시~ 오후7시",,99,연중무휴,11170,5d2f052ffb2746d1aa36da706024e83b.jpg,짱포천사다리차,99,미혼모/결식아동/홀로된노인,939,"사다리차 지원 및 후원",37.8377629501486,결식아동,미혼모/결식아동/홀로된노인,"사다리차 지원 및 후원"
경기,99,01,"2층 배양리두루치기",127.317776649036,"경기 포천시 일동면 화동로1050번길 3",12시~22시,,01,무,11117,3b774e4ff8f64fe18b72ede1bbec3c1a.jpg,배양리두루치기일동점,02,,388,김치찌개.왕계란말이.삼겹살.된장찌개,37.9571053719773,결식아동,"동반 1인",김치찌개.왕계란말이.삼겹살.된장찌개
경기,99,01,4층,127.203898858122,"경기 포천시 중앙로 132",10:00~19:00,,99,,11145,f9d683b5df03457e81e938d9ecae9708.jpg,필름1982,01,,261,증명사진,37.8977718894656,결식아동,"아이 본인만",증명사진
경기,01,"01,02",1층,127.174293492164,"경기 포천시 호국로 1149",07:00-21:00,,01,일요일후무,11158,6f6d9361de15407aa976d52445424fe9.png,"올레찹쌀꽈배기 ",99,상황에따라,861,,37.865739172543,"결식아동,독거노인",상황에따라,
경기,02,01,"1-193호 정성쿡",127.196178577013,"경기 하남시 망월동 1127",9시~10시,,99,"일요일 휴무",12912,c640a7bb14074d138e704e785c5a17f5.jpeg,정성쿡,01,,542,,37.5649066501452,결식아동,"아이 본인만",
경기,99,"01,02",1층,127.200040175996,"경기 하남시 망월동 1184-3","오전 10시 ~ 오후 9시",,01,"매주 화요일",12923,9f44fd16457d4a7dbf79816f0e7c427c.jpg,애플앤베리,02,,700,"컵과일, 과일도시락, 과일샐러드도시락",37.5608782183798,"결식아동,독거노인","동반 1인","컵과일, 과일도시락, 과일샐러드도시락"
경기,02,"01,02","1층 105호",127.188463082475,"경기 하남시 미사강변대로54번길 125","오전 10시~오후 9시",,01,"매주 일요일",12919,5be1fed600654b3c8fe823cd59e04e75.png,미사상회,01,,829,,37.5579148797949,"결식아동,독거노인","아이 본인만",
경기,99,99,그랑파사쥬2층2043호12BL미사역,127.191741670397,"경기 하남시 미사강변동로 95",10시~22시,선한영향력관련자모두,99,일요일휴무,12913,63ba0f710d80487a9d894ef96d67a4f4.jpg,알리앙스,03,,489,은귀걸이+귀뚫어줘요,37.5637312032917,선한영향력관련자모두,"동반 2인",은귀걸이+귀뚫어줘요
경기,02,01,"205호 장미맨숀",127.190169608575,"경기 하남시 미사강변중앙로204번길 11",17:00~01:00,,99,매주월요일,12913,NULL,장미맨숀하남미사점,02,,397,,37.5652351639767,결식아동,"동반 1인",
경기,01,01,1층,127.199564921149,"경기 하남시 미사강변한강로334번길 43-1","오전 10:00~오후9:00",,01,"매주 일요일",12923,5649790e10c346c1a8d04e1df7b3b62b.jpeg,샐리앤린(맥시칸라이브그릴),99,,225,,37.5600272215408,결식아동,,
경기,01,"01,02","A9-046 ",127.206467727213,"경기 하남시 미사대로 550",09:00~23:00,,02,,12925,NULL,"라바유아체육 ",02,,903,,37.556769335043,"결식아동,독거노인","동반 1인",
경기,01,"01,02,99","101동 2215호",127.19041098513,"경기 하남시 아리수로 570","오전 9시 ~ 오후 11시 50분","그외의 어려운 모든 이웃",02,"명절, 방학 중 특정 2 ~ 3일",12913,NULL,"박샘의 수학교실",02,,91,,37.566815029598,"결식아동,독거노인,그외의 어려운 모든 이웃","동반 1인",
경기,99,"01,02",503,127.207590988395,"경기 하남시 하남대로 809",10~21,,99,"빨간날은 쉽니다.",12957,79fc5cc3709b4a579599fb64c8f56f7f.png,"아라뷰티케어 ",01,,826,"기본케어 & 여드름케어",37.5410588412892,"결식아동,독거노인","아이 본인만","기본케어 & 여드름케어"
경기,99,01,1층,127.211911863719,"경기 하남시 하남대로802번길 68",11:00~20:30,,01,"매주 일요일 고정휴무",12950,e5f0c7bb19c64a669ae98a6572f1b6e7.jpg,용갈집,02,,98,"일반 갈비탕",37.5421649803204,결식아동,"동반 1인","일반 갈비탕"
경기,02,01,교동짬뽕,127.035116111721,"경기 화성시 경기대로 1027","오전 11시 ~ 오후 9시",,01,없음,18412,NULL,교동짬뽕,02,,34,,37.2074891165267,결식아동,"동반 1인",
경기,01,01,101호,127.052279783479,"경기 화성시 능동 1162-1",12시-12시,,01,"격주일요일휴무 미리전화확인유",18428,4fcca732efeb4e29b913533b7450a713.jpg,인생역전족발,03,,789,,37.1977865706486,결식아동,"동반 2인",
경기,99,01,"지하1 144호",127.090184140106,"경기 화성시 동탄기흥로 393-20",11:00-20:00,,99,연중무휴,18479,e4045f16e2584fb59632496d2ec22d78.jpg,"리틀아이보리 동탄역파라곤점",02,,534,어린이2시간이용권,37.196382557361,결식아동,"동반 1인",어린이2시간이용권
경기,01,01,"푸르지오시티 A동 208,209호 ",127.096891334834,"경기 화성시 동탄대로 551-16",09:00~19:00,,01,"매주 일요일",18478,4a8258f1e9ab4fd398ec3eb2c9cf5c0a.jpg,"오히려 김밥",03,,1056,,37.2031678570961,결식아동,"동반 2인",
경기,99,"01,02,99","동탄아이티밸리2차 317호",127.103486603475,"경기 화성시 동탄대로 706","가게는 아니고 사무실입니다",,03,,18463,f986fa5d6b2c4cfca5e8ca156b586ea6.jpg,엘리사,99,"기관이나 가정",836,방향제,37.2147213112706,"결식아동,독거노인,","기관이나 가정",방향제
경기,99,"01,02","109호(산척동,파케이드 스텔라)",127.10963511155,"경기 화성시 동탄대로6길 27","24시간 무인",,01,연중무휴,18501,b3464ca8dca7445693b23b86b91077a1.jpg,"홈즈앤쿡 동탄호수공원점",01,,205,"밀키트 1팩(2~3인분)",37.168732625447,"결식아동,독거노인","아이 본인만","밀키트 1팩(2~3인분)"
경기,01,"01,99","파케이드스텔라 지하201호 ",127.10963511155,"경기 화성시 동탄대로6길 27",16시~24시,,99,00,18501,a422771c6e52480691f54560c9a8b391.jpg,"경성주막1929 동탄호수공원점",99,가족모두,464,,37.168732625447,"결식아동,",가족모두,
경기,01,"01,02","판매시설동 1113호",127.11316148308,"경기 화성시 동탄대로시범길 134",09:00~21:00,,01,없음,18476,acd9e78154c746728d4b8763fac37b59.jpg,도담도담식빵동탄점,02,,127,,37.1990285097974,"결식아동,독거노인","동반 1인",
경기,99,"01,99","연세프라자 203호 한우궁 동탄남광장",127.072737860836,"경기 화성시 동탄문화센터로 71-17",1030~2000,"소방복착용 소방관본인 특정품목 무료 ",01,"매주 일요일",18455,e0ce1584dcd24a8f9bec113b52bb1cd1.jpg,"한우궁 동탄남광장점",01,,203,"육개장/육칼국수 떡갈비 곰탕 만두국",37.2002565523376,"결식아동,소방복착용 소방관본인 특정품목 무료 ","아이 본인만","육개장/육칼국수 떡갈비 곰탕 만두국"
경기,99,"01,02",108호,127.073002906151,"경기 화성시 동탄솔빛로 44",16시~22시,,01,아직은없음,18442,NULL,"꼬꼬불장작 동탄나루점",02,,1028,"꼬꼬한방통닭,꼬꼬누룽지통닭",37.1928883948933,"결식아동,독거노인","동반 1인","꼬꼬한방통닭,꼬꼬누룽지통닭"
경기,99,"01,02","114호 크라상점 동탄호수공원점",127.107262963697,"경기 화성시 동탄순환대로 127-23","11시 부터 21시 까지",,01,,18505,a4da7c9da6174dff924d55377f19a9c2.jpeg,"크라상점 동탄호수공원점",01,,120,"12개 랜덤박스 1개",37.1677649893905,"결식아동,독거노인","아이 본인만","12개 랜덤박스 1개"
경기,99,,"LH35단지 상가 1층 선한커피",127.121750286795,"경기 화성시 동탄순환대로10길 42","평일 7시~20시, 주말 10시~19시",,01,"매주 수요일",18504,7dead449f0ab47f9b82eb880ecfe9594.jpg,선한커피,01,,213,"카페인이 들어가지 않는 모든 음료",37.1665218597844,Nan,"아이 본인만","카페인이 들어가지 않는 모든 음료"
경기,01,01,"이지더원아파트 상가",127.110280849658,"경기 화성시 동탄순환대로28길 17",11:00~18:00,,01,"일,월,화,수,목 (금,토만 매장 운영)",18466,2125d932ec1841ad891d6e0870814f4a.jpg,샹떼콩콩,01,,466,,37.2085493874626,결식아동,"아이 본인만",
경기,02,01,"골든프라자106호 로켇트분식",127.109303432166,"경기 화성시 동탄순환대로29길 64","오전 11시 ~ 오후 9시",,01,"매주 월요일",18472,928b5dd1f3bc4ec39b2efb48d6140562.jpg,"로켇트분식 화성1호점",01,,977,,37.2044609658053,결식아동,"아이 본인만",
경기,01,01,"로얄클래스 1층 104호",127.097107696897,"경기 화성시 동탄오산로 86-8",10:00~09:00,,01,,18478,3f9b27efac084e489f18d37cefd2a429.jpg,정직한김밥,99,무관,96,,37.1978690465744,결식아동,무관,
경기,02,"01,02","이타운107호 ",127.043153435981,"경기 화성시 병점동 844-3",09~01.30,,01,매주월요인ㆍ,18405,NULL,"더맛있는과일 1리터커피 ",02,,989,,37.2143550768354,"결식아동,독거노인","동반 1인",
경기,,,곳간스토리,126.980897759189,"경기 화성시 봉담읍 고시길 28",,,01,,18327,NULL,곳간스토리,,,1054,,37.2057496081831,Nan,Nan,
경기,01,"01,02","상가 105호",126.974061771011,"경기 화성시 봉담읍 참샘길 33","평일  11:00~20:00",,01,일요일,18321,5635f3d894174895b5eae52ff3d0d4e2.jpg,트위스트꽈배기,02,,74,,37.2146129321242,"결식아동,독거노인","동반 1인",
경기,01,01,"코스코상가 105호",126.724188280493,"경기 화성시 송산면 백곡로 128","오후 3시부터  10시 30분까지",,01,연중무휴,18552,6a504d916a8f455babb48d541692331b.jpg,피자와치킨의러브레터,03,,284,,37.1976684280544,결식아동,"동반 2인",
경기,01,01,"신세계프라자b1층 다올",127.107781469234,"경기 화성시 영천동 675-1",11-19,,99,"월요일 또는 유동적",18472,fa41c65ed5be4bc0b2fa92bb830cdbfb.jpeg,다올,01,,975,,37.204707085717,결식아동,"아이 본인만",
경기,02,"01,02",102호,127.125758846318,"경기 화성시 왕배산2길 3-3",,,01,,18490,NULL,탐나는식탁,01,,694,,37.180783993073,"결식아동,독거노인","아이 본인만",
경기,99,01,제주커피,126.816104941181,"경기 화성시 우정읍 3.1만세로 16","am 8:30 ~ pm 9:00",,01,없어요.,18567,647d08df96264cd3abe15bf6cb5aa6ad.png,"제주커피 화성조암점",99,가족,865,"음료 메뉴 전체에서 선택",37.0813012468991,결식아동,가족,"음료 메뉴 전체에서 선택"
경기,02,"01,02",102호,126.822897130399,"경기 화성시 우정읍 조암동로36번길 1","월-금 10시30부터 8시까지",,01,토.일,18565,011a0c05eddb46ab8f61acc3f6cf99c1.jpg,씬즈,99,가족,604,,37.0879212803114,"결식아동,독거노인",가족,
경기,02,"01,02","압구정 베이커리 카페",126.82820995928,"경기 화성시 장안면 사랑길 170-4","매일 오전 9시 ~ 오후 9시",,01,연중무휴,18584,c5565268fb7c49bd907c254a1bb47d51.png,"압구정 베이커리 카페",03,,416,,37.0847849079415,"결식아동,독거노인","동반 2인",
경기,01,,"판매시설 1143호 하삼동 커피",127.114278180857,"경기 화성시 청계동 536",08:30~21:30,,01,없음,18476,a2abb53c07814d98af540fd1f231ccc9.jpg,"하삼동 커피",01,,972,,37.1991743092707,Nan,"아이 본인만",
경기,01,"01,02",(행정리)103호,126.914877711916,"경기 화성시 향남읍 행정서로1길 52",오전10시-오후7시,,01,연중무휴,18598,c0203ae49f304738bfae7e7bb73ed121.jpg,"곡간 수제도시락 ",02,,878,,37.1291879693971,"결식아동,독거노인","동반 1인",
경기,01,01,"1층 108호 ",126.92256415644,"경기 화성시 향남읍 행정중앙2로 63-34",오전11시~오후16시,,01,없음,18600,c4d04f444bd24b9e9f0e5ab6ff827c62.jpg,농부항아리수제비,01,,571,,37.1305772711898,결식아동,"아이 본인만",
경기,99,"01,02","메인프라자 610호",127.041973342112,"경기 화성시 효행로 1051",9:00~22:00,,03,"토,일",18398,3c1acb0e1a84482198e31e973add6c6c.png,"LINEUP Dance&Fitness",01,,202,"키즈댄스반, 청소년 댄스반",37.2146289694525,"결식아동,독거노인","아이 본인만","키즈댄스반, 청소년 댄스반"
강원,99,"01,99","상가동 103호",128.938466994141,"강원 강릉시 경강로2539번길 22",10시~20시,"독거노인, ",01,"없음, 매주호ㆍ요일",25560,30b610d50a584b0d9f29362b452c0588.jpg,"카페 빅 트리",02,,931,"샌드위치와 음료",37.7756337893027,"결식아동,독거노인, ","동반 1인","샌드위치와 음료"
강원,02,01,아빠곰,128.900262805782,"강원 강릉시 동부시장3길 5",10:00~06:00,,99,"매주 일요일,월요일",25552,7d30df0885eb4c29a111656170946c21.jpg,아빠곰,02,,652,,37.7584232678766,결식아동,"동반 1인",
강원,99,"02,99",센트로빌딩4층.차일드유,128.870051026045,"강원 강릉시 선수촌로 67","월~금 1:30-7:30","기초생활자 원비 50% 감면",02,"토요일, 일요일 휴무",25522,1b6c8fb12c0b49fdaff9220272ea4142.jpg,"차일드유 유천캠퍼스",01,,851,"원비 50% 할인",37.7568461904282,"독거노인,기초생활자 원비 50% 감면","아이 본인만","원비 50% 할인"
강원,01,01,"1층 혜자식당 (포남동)",128.910584543041,"강원 강릉시 성덕포남로153번길 7",11:00-21:00,,01,"월요일 정기휴무",25547,7bded06bc4b44ce2a20e03226835d98c.jpg,포남혜자국밥(혜자식당),02,,690,,37.7654994415522,결식아동,"동반 1인",
강원,99,01,유로코피자,128.881050458601,"강원 강릉시 원대로17번길 5",12:00~23:30,,01,15:00~17:00,25518,NULL,"유로코피자 강릉점",03,,653,"전 메뉴 L까지",37.7562994879502,결식아동,"동반 2인","전 메뉴 L까지"
강원,02,"01,02",실비생선구이,128.828211334964,"강원 강릉시 주문진읍 해안로 1721",08:00~21:00,,01,연중무휴,25418,5f87acc4ecdd45548e7127b5221210b3.jpg,실비생선구이,03,,107,,37.8886626457868,"결식아동,독거노인","동반 2인",
강원,99,"01,99",강릉유환식당,128.920244796564,"강원 강릉시 초당동 70","11시~21시 (브레이크타임15시~17시)","불우이웃증명만된다면 다됨",01,설당일휴무,25468,6fad934d5fea4d4983775a0014ac8709.jpg,강릉유환식당,01,,273,"대게장을 제외한 모든품목",37.7843555197844,"결식아동,불우이웃증명만된다면 다됨","아이 본인만","대게장을 제외한 모든품목"
강원,99,"01,99","위니아딤채 교동점",128.880399277821,"강원 강릉시 하슬라로 14",10~19시,독거노인,99,매주일요일,25518,a04369a8b08f450b8c7fadbf1359395b.jpg,위니아딤채(교동점),99,"밥굶는 아이라면 누구나",398,"에어컨,음식등 지원",37.7553622847006,"결식아동,독거노인","밥굶는 아이라면 누구나","에어컨,음식등 지원"
강원,02,01,1층,128.87772115619,"강원 강릉시 하슬라로232번길 17-7","12:00~19:00 소진시 마감",,01,"일,월,화,수,목",25508,38c1ed9af5db4683b02b3dccb7f20e72.jpg,설레이나봄,02,,472,,37.7710767063006,결식아동,"동반 1인",
강원,02,"01,99","6층 리스펙스포츠클럽",128.911608944875,"강원 강릉시 하평1길 14",13:00~21:00,"한부모가정, 차상위계층, 기초생활수급",02,"매주 일요일 휴무",25566,4fe7e87c786a44ae895d78c408477709.png,리스펙스포츠클럽,01,,901,,37.7712433255992,"결식아동,한부모가정, 차상위계층, 기초생활수급","아이 본인만",
강원,02,01,"아파트상가 105호",128.91259684892,"강원 강릉시 하평2길 6",14시~23시,,01,"매주 일요일",25567,4f137bb5cc654a1093507ad96bd273db.jpg,"인생닭강정 강릉포남점",02,,130,,37.7707769610135,결식아동,"동반 1인",
강원,01,01,1층,128.552999490414,"강원 고성군 토성면 아야진해변길 145",09:00~17:00,,01,"매주 수요일휴무 , 라스트오더  16:30",24756,06651e3de4224745a2af0179fbc33f1f.jpg,해녀의집바이아야진,02,,421,,38.2753406512419,결식아동,"동반 1인",
강원,99,01,스테이지풀빌라카페,128.560738946019,"강원 고성군 토성면 토성로 124-1",09:00~19:00,,01,연중무휴,24764,NULL,스테이지풀빌라카페,03,,814,카페음료,38.2565147795529,결식아동,"동반 2인",카페음료
강원,01,01,"또봉이통닭 ",129.335506493496,"강원 삼척시 원덕읍 호산중앙로 13",2~~12시,,01,없음,25961,NULL,"또봉이통닭 ",01,,36,,37.1745724972009,결식아동,"아이 본인만",
강원,01,01,아빠의부엌,128.57868181258,"강원 속초시 교동로 33",,,01,,24846,NULL,아빠의부엌,02,,554,,38.2019942255345,결식아동,"동반 1인",
강원,99,"01,02","가동 105호",128.581391005933,"강원 속초시 번영로43번길 22","오후5시 새벽12시30분",,01,"매주 월요일 휴무",24842,19629fe04d4a454190bd05d54a42cecd.jpg,해풍,03,,137,"3만5천원 음식제공",38.2055830932377,"결식아동,독거노인","동반 2인","3만5천원 음식제공"
강원,01,01,"2층 일미리금계찜닭속초점 ",128.582797530622,"강원 속초시 중앙로 61",11:00~24:00,,01,,24835,NULL,일미리금계찜닭속초점,02,,742,,38.2011467999792,결식아동,"동반 1인",
강원,01,01,"상가동 110호",128.578012963712,"강원 속초시 중앙로17번길 11",오전10시~오후9시,,01,"휴무시간 휴무일없음",24853,e696635f9dbb47398aa49032109c6818.jpg,"김수미의엄마손맛 속초교동점",01,,1018,,38.1988743198577,결식아동,"아이 본인만",
강원,99,01,1층,128.601681768166,"강원 속초시 해오름로188번길 12",9:00~19:30,,01,,24886,af24bdfb2ed34b95b81195f884c7c845.jpg,탑골막국수,01,,224,"막국수,만두,전병",38.1917065464169,결식아동,"아이 본인만","막국수,만두,전병"
강원,99,,1층(유)늘푸른환경,128.46572753634,"강원 영월군 영월읍 은행나무6길 13-18",08:30~18:00,,99,,26237,ff09d0b7d7d545968e1138e5b4e3a1e8.png,(유)늘푸른환경,99,"환경개선(청소)부족 아이거주 세대",860,"거주지대청소및 소독",37.178821783981,Nan,"환경개선(청소)부족 아이거주 세대","거주지대청소및 소독"
강원,02,,안경나라,128.469081657549,"강원 영월군 영월읍 중앙로 47",09:00~20:00,,99,매월넷째주일요일휴무,26232,6aa7b90d054545c9b3a4f3fb6fee2ece.jpeg,영월안경나라,01,,187,,37.1836943308128,Nan,"아이 본인만",
강원,01,01,110호(단계동),127.932217850403,"강원 원주시 북원로 2235-4",24시간,,01,"매주 화요일",26436,5cbd79ad58d945fd9e5aced3af26bbff.jpg,미아리우동집,03,,949,,37.3456912956337,결식아동,"동반 2인",
강원,99,"01,99","1층 으뜸플러스안경 원주점",127.948387887177,"강원 원주시 원일로 122-1","09:30 - 20:00",추천,99,"매주 일요일",26428,NULL,"으뜸플러스안경 원주점",01,,909,안경,37.350465442714,"결식아동,추천","아이 본인만",안경
강원,99,99,"스타에듀빌딩 4층 405호",127.871419717001,"강원 원주시 지정면 도원로 20",14:00~22:00,"결식아동. 한부모가정. 기초생활수급",02,토.일,26354,NULL,우리학원,02,,906,"초.중등 종합",37.3731283885065,"결식아동. 한부모가정. 기초생활수급","동반 1인","초.중등 종합"
강원,99,01,1,127.762550499488,"강원 춘천시 동내면 거두길 30",11시부터8시,,01,,24400,6abf99696e204b2c8ea1c6b4144e2146.jpg,면사무소,01,,643,"짜장 짬뽕 볶음밥 미니탕수육",37.8610350034652,결식아동,"아이 본인만","짜장 짬뽕 볶음밥 미니탕수육"
강원,,,"2층 채선당행복가마솥밥롯데마트춘천점",127.718080062539,"강원 춘천시 방송길 84",,,01,,24364,NULL,"채선당 행복가마솥밥 롯데마트춘천점",,,1073,,37.8685786539721,Nan,Nan,
강원,01,01,실비막국수,127.725862168643,"강원 춘천시 소양고개길 25","11:30 ~ 19:00",,01,"둘째 넷째주 월요일, 설/추석 당일만 휴무",24271,f25a2cc4d4a64b50bdee7fa7b3f6fa42.jpg,실비막국수,03,,450,,37.8836856656459,결식아동,"동반 2인",
강원,,,"1층 로우라이트",127.72864823219,"강원 춘천시 중앙로77번길 33",12-19,,99,"매수 수요일 휴무",24354,NULL,로우라이트,,,877,,37.8775338430959,Nan,Nan,
강원,01,"01,02","상가102호 하나병원 건너 큰사거리",127.748031974222,"강원 춘천시 춘천로 316",08:00~20:00,,01,연중무휴,24278,fe77f30bfa784db1a8741ebd73c98fa5.jpg,"크라상점 춘천후평점",01,,1026,,37.8818429524624,"결식아동,독거노인","아이 본인만",
강원,01,"01,02",종로타워1층,127.744332096292,"강원 춘천시 퇴계농공로 20",08:00~20:00,,01,연중무휴,24414,037364743d3c4723a0e335876e05569c.jpg,"크라상점 춘천점",01,,597,,37.8515920587413,"결식아동,독거노인","아이 본인만",
강원,99,01,,127.725493435358,"강원 춘천시 행촌로 48",17:00~03:00,,01,없음,24442,NULL,이모네고깃집,01,,356,"1인 돼지갈비",37.8605898657604,결식아동,"아이 본인만","1인 돼지갈비"
강원,01,01,봉부대,128.378489812696,"강원 평창군 봉평면 기풍로 140",08~17,,01,정해지지않았음,25303,269297a5e61f403eb8c906dc99389dc2.jpg,봉부대,02,,916,,37.6150265638094,결식아동,"동반 1인",
강원,99,"01,02","거진코다리 ",127.906624491422,"강원 홍천군 홍천읍 공작산로 137-10",11~9시30분,,01,"매주 월요일",25150,4ea6420d09244c009e966514019de45b.jpg,"거진코다리 ",99,"아이의 가족분들",986,"코다리조림 ",37.6938370581624,"결식아동,독거노인","아이의 가족분들","코다리조림 "
경남,99,"01,02",.,127.904616974332,"경남 거창군 거창읍 개화1길 111-27",08:00~17:00,,01,"공휴일 휴무",50124,NULL,사과한모금,01,,828,"사과즙(거창한사과 그 두번째 이야기)",35.7019796771163,"결식아동,독거노인","아이 본인만","사과즙(거창한사과 그 두번째 이야기)"
경남,99,01,1층,128.813281781528,"경남 김해시 관동로71번길 24",평일오전10시~오후4시,,03,"주말 공휴일",51005,NULL,수아헤어,01,,477,헤어커트(예약필수),35.1774029178949,결식아동,"아이 본인만",헤어커트(예약필수)
경남,02,"01,02","1층 호록",128.852556422052,"경남 김해시 금관대로1180번길 3",11:00~21:00,,01,15:00~17:00,50956,111c507cb2b54e18a8e435ac577dc574.jpg,호록,02,,442,,35.2325015496811,"결식아동,독거노인","동반 1인",
경남,99,01,"1층 OJY  Beauty House",128.897337265659,"경남 김해시 김해대로2471번길 8","월~토 오전10~오후8시",,99,"매주 일요일 ",50934,6ad39d97f4a246598a601b0a6092c94b.jpg,"O · J Y Beauty House",01,,19,"커트 무료 , 커트제외전시술50%",35.2287008432853,결식아동,"아이 본인만","커트 무료 , 커트제외전시술50%"
경남,99,01,120호,128.866259937246,"경남 김해시 내외로77번길 20",10:30~20:00,,99,일요일,50948,d446777024574092b64c19eb9c32706f.jpg,아담,01,,322,헤어컷,35.2364477006246,결식아동,"아이 본인만",헤어컷
경남,01,01,"1층 통큰두마리찜닭",128.855461778018,"경남 김해시 외동 690-14",12시부터21시,,01,매주일요일,50894,99e1a6326a0841168cffaf2839304a65.jpeg,통큰두마리찜닭,02,,417,,35.2354424037775,결식아동,"동반 1인",
경남,01,01,1층,128.822129566146,"경남 김해시 율하2로236번길 38",11:00~21:00,,01,"20:00라스트오더, 월요일 휴무",51016,5a99d36fef3445f1a8d96ae88b2d02c5.jpeg,데이지,02,,150,,35.176384307372,결식아동,"동반 1인",
경남,,"01,02","1층 다가치통닭",128.824648964839,"경남 김해시 율하6로 52","오후 3시부터 자정까지",,01,"매주 월요일",51020,43ea39a54d074577b1184c2e7c1f6fc5.jpg,다가치통닭,02,,639,,35.1717466317333,"결식아동,독거노인","동반 1인",
경남,99,01,"남서쪽 끝지점에서 두번째",128.830509424838,"경남 김해시 주촌면 골든루트로 74",07:00~20:00,,01,"주말,공휴일",50969,205b3d75ea524aa9b82672e6a5799117.png,두꺼비토스트,01,,1046,"모든 토스트",35.213008715025,결식아동,"아이 본인만","모든 토스트"
경남,99,01,"세원빌딩 1층 가마치통닭 ",128.729333856442,"경남 김해시 진영읍 김해대로361번길 13","평일:4시ㅡ새벽1시, 주말ㆍ공휴일:1시ㅡ새벽1시",,01,없음,50862,NULL,가마치통닭진영점,02,,845,"통닭  1ㅡ2마리 +음료",35.3080507432785,결식아동,"동반 1인","통닭  1ㅡ2마리 +음료"
경남,99,01,"1층 헤어담다",128.868106780234,"경남 김해시 해반천로144번길 9",Am10~pm8시까지,,03,화요일,50901,a673f41be80d490db8b6fb0c337cce82.jpeg,헤어담다,99,시술시50%할인,1044,"컷트 ",35.2612270246921,결식아동,시술시50%할인,"컷트 "
경남,99,01,"밀성돼지국밥 ",128.745154804465,"경남 밀양시 내이2길 19",08:00~21:00,,01,14:30~16:30,50423,7e772f525fa14b3295348e0ce16d0cc8.jpg,밀성돼지국밥,02,,569,모든국밥,35.4976847401429,결식아동,"동반 1인",모든국밥
경남,01,01,2층,129.037627795772,"경남 양산시 남부동 314","평일12시~9시 주말11시30분~9시",,01,매주월요일,50622,NULL,비치스테이크,01,,192,,35.3414301440654,결식아동,"아이 본인만",
경남,99,"01,02","후문 상가동 2층  햇살문화스쿨",129.152674934855,"경남 양산시 덕계11길 12","am 11~ pm7",,02,"매주 일요일",50553,24801a280e3f46d6b11203e9a7aff84a.jpg,"햇살문화스쿨 ",02,,777,"원데이클래스 패키지",35.3772108163469,"결식아동,독거노인","동반 1인","원데이클래스 패키지"
경남,01,01,1층,129.024452226173,"경남 양산시 동면 금오11길 8","17:00 - 02:00",,01,,50639,ef8367f70e8c4b4a9661d0f3628d2b85.gif,"바보스 석산점",01,,485,,35.3151294185484,결식아동,"아이 본인만",
경남,02,02,102호,129.022921870413,"경남 양산시 동면 금오12길 30-17",10:30~6:30,,99,"매주수요일,2.4째 일요일 정기휴무",50639,6e00c8ebb21b423ca9efad649ed92890.jpg,"돼지작업실 ",99,"급식카드소지자 1카드1제품 50%",913,,35.3148890209873,독거노인,"급식카드소지자 1카드1제품 50%",
경남,02,"01,02,99",인정에코타운207호크리틴트,129.002526003177,"경남 양산시 물금읍 백호로 76",오전10~6,결식아동.소방관님,03,매주목요일,50613,5f854fdebe284d609e18740c5b3062bd.jpg,크리틴트미용실,01,,435,,35.3174377254638,"결식아동,독거노인,결식아동.소방관님","아이 본인만",
경남,01,"01,02","1층 도쿄쉐프",129.000519798747,"경남 양산시 물금읍 서남1길 3","09시~23시 까지",,01,"매주 화요일",50599,dad14162bde84c4282f2a629d678c421.jpg,도쿄쉐프,01,,316,,35.3262550145858,"결식아동,독거노인","아이 본인만",
경남,01,01,"메트로프라자 305호",129.008389400798,"경남 양산시 물금읍 야리2길 31",10:00-21:30,,01,연중무휴,50653,28c69897915a40e88f1b3ca010b1f0f0.jpeg,고카츠,02,,457,,35.3099526213227,결식아동,"동반 1인",
경남,02,01,태경수산,129.042359148753,"경남 양산시 북정동 886-6",16~23시,,99,"명절제외 연중무휴",50572,NULL,태경수산,02,,708,,35.3592304244253,결식아동,"동반 1인",
경남,99,01,"웅상센텀프라자 2층",129.168382516133,"경남 양산시 삼호1길 52","오전 11시 ~ 오후 10시30분",,01,없음,50529,NULL,미스터피자웅상점,01,,235,피자샌드,35.4144986493051,결식아동,"아이 본인만",피자샌드
경남,01,01,2층,128.09550556458,"경남 진주시 동진로 40",오전11시~오후10시30분,,01,없음,52727,7278615e5a1b4f9da36b74dd7303526a.jpg,피자마루과기대점,99,동반4인,574,,35.1788090814357,결식아동,동반4인,
경남,01,01,"C3 상가동 1층 1019호",128.144883369787,"경남 진주시 에나로175번길 12","10:30 ~ 19:00",,01,"일/월 휴무",52855,0a5a593cf64b4548bc318f09c3bf58de.jpg,"에나로 밀",01,,558,,35.1737857732993,결식아동,"아이 본인만",
경남,99,01,1층,128.115061224466,"경남 진주시 초전북로61번길 6-13",16:00~22:00,,01,매주월요일,52731,116da798e4164b7c837ae6f8bc5f41b1.jpg,"해금강회센터 ",99,"결식아동가족 (포장가능 )",367,"모듬회,물회,회덮밥,매운탕",35.2090912001893,결식아동,"결식아동가족 (포장가능 )","모듬회,물회,회덮밥,매운탕"
경남,99,01,진주펄아쿠아,128.061426687364,"경남 진주시 평거로5번길 30",오전11시오픈오후8시마감,,99,연중무휴,52701,3b7f1c55a6c84161b5145e0281ebfcf8.jpeg,진주펄아쿠아,01,,334,"열대어. 열대어용품. 사료",35.1737492404003,결식아동,"아이 본인만","열대어. 열대어용품. 사료"
경남,01,01,"1층103호 싸움의고수",128.559122884874,"경남 창원시 마산합포구 월영동1길 17",오전10시~오후10시,,01,없음,51751,0e0d73d4a9054b7cabb30190afa7f83f.jpg,싸움의고수경남대점,01,,220,,35.1796043149698,결식아동,"아이 본인만",
경남,01,"01,99","상하이빌딩 2층 아인즈헤어",128.682362721877,"경남 창원시 성산구 단정로 18",10:00-9:00,기초수급가족,03,"매주월요일 4주차는일월휴무",51503,7d064d17ab714e2f8230bb82c27c5e4d.jpeg,아인즈헤어,01,,691,,35.2202270440158,"결식아동,기초수급가족","아이 본인만",
경남,99,01,101호,128.711362327837,"경남 창원시 성산구 삼정자로51번길 7","오전 11시~ 새벽1시",,01,일요일,51473,0d37be30e70143928ffbc4dd4621e382.jpeg,호야,01,,170,돈카츠정식,35.1987984174097,결식아동,"아이 본인만",돈카츠정식
경남,01,01,"메종드테라스 139호 투고샐러드",128.681780666678,"경남 창원시 성산구 상남로 107","매일 10:00~21:00",,01,"브레이크타임 15:30~16:30",51494,25cace0acdd9473bb2e1a7a6535f91c5.jpeg,"투고샐러드 창원상남점",01,,853,,35.2231117355416,결식아동,"아이 본인만",
경남,99,,버거인뉴욕,128.680148902035,"경남 창원시 성산구 외동반림로248번길 5","10:30 - 21:00",,01,없음,51428,NULL,버거인뉴욕,01,,20,뉴욕버거세트,35.2390113434948,Nan,"아이 본인만",뉴욕버거세트
경남,99,"01,99","101호 ",128.679083580433,"경남 창원시 성산구 중앙대로 78","오전11:00-2:30/ 오후 17:00-20:30","죄송하지만 학생들에게만 제공리고싶습다",99,"휴무없음 갑작스런휴무시 인스타공지",51504,2b8012fbeb21478eb31d0a741fcd94db.jpeg,온센텐동창원점,99,"힘든 학생들 에게 제공하고싶습니다",997,온센텐동,35.2214872452578,"결식아동,죄송하지만 학생들에게만 제공리고싶습다","힘든 학생들 에게 제공하고싶습니다",온센텐동
경남,02,"01,02","148호 카페두다",128.684884477157,"경남 창원시 성산구 창원대로 888",07:00~21:00,,01,일요일,51532,NULL,"카페 두번째다락방 두다",02,,18,,35.2087938761328,"결식아동,독거노인","동반 1인",
경남,01,01,"상가2동 101호 꾸운닭보쌈",128.58517619947,"경남 창원시 의창구 북면 감계로 221","오전 10시~ 밤10시",,01,,51112,bea09c1cc12145d88e0153c7b3013f81.jpg,"꾸운닭보쌈 감계점",02,,249,,35.3012178229264,결식아동,"동반 1인",
경남,01,01,"(감계리)101-1 메가커피",128.594315587891,"경남 창원시 의창구 북면 감계로 306",9시~9시반,,01,없어요,51112,e973da33e9764f539247c5d15f2e828a.jpg,메가커피,01,,440,,35.3019609402835,결식아동,"아이 본인만",
경남,99,"01,02","1층 총각축산 (kb빌딩)",128.613831480897,"경남 창원시 의창구 팔용동 101-1","09:00 ~ 22:00",,01,연중무휴,51373,a5941dce96424ee4be07bee7fe47b343.jpg,"총각축산 팔용점",01,,868,"양념육 전품목, 삼겹살",35.2557170955131,"결식아동,독거노인","아이 본인만","양념육 전품목, 삼겹살"
경남,99,01,우마이,128.702402656856,"경남 창원시 진해구 석동로20번길 21-1",am11:30-pm10:00,,01,"준비시간 pm3:00-5:00 / 매주 수요일 휴무",51660,d14fed6a19b44946ad0c43ddbee2bbce.jpeg,우마이,01,,341,야끼유부초밥+우동,35.1522469207458,결식아동,"아이 본인만",야끼유부초밥+우동
경남,01,01,"M타워 104호",128.713728061986,"경남 창원시 진해구 자은동 138-5",11:00~21:00,,01,15:00~16:00,51592,97407cbf189649dbad142262602e8a40.jpg,"버거스캔들 진해자은점 ",01,,481,,35.1545450373321,결식아동,"아이 본인만",
경남,99,01,"다이노 브루잉 (1층 안채)",128.662347024495,"경남 창원시 진해구 중원로86번길 22-2","17:30 ~ 23:00",,01,"14:30 ~ 17:30",51679,55b16fb96bea4bc7bc551d35d00d1c3d.png,"다이노 브루잉",01,,1015,"피자 또는 치킨",35.1514462658472,결식아동,"아이 본인만","피자 또는 치킨"
경남,99,,"101동 17호",128.426594779622,"경남 통영시 원문로 11","오후 4시~새벽2시",,01,없음,53042,NULL,"마왕족발 통영점",01,,513,우아한싱글세트,34.8567593945961,Nan,"아이 본인만",우아한싱글세트
경남,01,01,"김대리 피자",128.431806257535,"경남 통영시 통영해안로 456-1",11:00~00:00,,01,,53048,f8a29fea318241378300e2361a46edf8.jpg,"김대리 피자",01,,594,,34.8491405903404,결식아동,"아이 본인만",
경북,99,01,"1층듀얼몬스터 ",128.738739688314,"경북 경산시 경안로42길 16-1",,,01,,38618,21f2d86e63f9432791d56b0e677e1ee2.jpg,듀얼몬스터,02,,408,파스타,35.825792134115,결식아동,"동반 1인",파스타
경북,02,01,"1층 이백장돈가스",128.737969208118,"경북 경산시 경청로219길 4",9~21,,01,매주수요일,38651,0c7d00a4f5ca4cbf903d4f79826e766e.jpg,"이백장돈가스 경산",01,,543,,35.8032926060114,결식아동,"아이 본인만",
경북,01,01,"세경빌딩 1층 뒷편",128.760883566546,"경북 경산시 박물관로 17",오전11시~저녁10시,,01,오후3시~5시,38583,6b809e27432541d4a9fbeaad5247f22d.jpg,"카츠윤 사동점",01,,525,,35.8161670767472,결식아동,"아이 본인만",
경북,01,01,"칼국수한그릇 사동점 ",128.753861695922,"경북 경산시 백양로 109",11시~20시,,01,"평일15시-17시 브레이크타임, 매주수요일휴무",38599,NULL,"칼국수한그릇 사동점 ",01,,870,,35.8138291497728,결식아동,"아이 본인만",
경북,01,01,"1층 장충족발 ",128.738032408518,"경북 경산시 백천동 580-6","오후 2시 오후 10시까지",,01,"매주 수요일",38651,f8c70c7fa10a4c40ab8bd834df19a572.jpg,"장충왕족발 ",01,,726,,35.8023399170647,결식아동,"아이 본인만",
경북,01,"01,02,99","1층 피자꾼",128.756213279469,"경북 경산시 삼풍로4길 33","11시부터 새벽1시",불우이웃,01,매주월요일,38544,8bb0214d6bff42f1b8aaf0a925458b3d.jpg,피자꾼경산점,03,,728,,35.820105037617,"결식아동,독거노인,불우이웃","동반 2인",
경북,01,01,"1층 처갓집양념치킨 ",128.72115750715,"경북 경산시 성암로7길 8","17:00 - 03:00",,01,"매월 1,3,5주 수요일",38671,3774f62d86ae49f3a5ec982278512ff6.jpg,"처갓집양념통닭 ",03,,950,,35.8232387832491,결식아동,"동반 2인",
경북,02,01,"B동1-1호 상가",128.748892789192,"경북 경산시 원효로22길 20",9:30-00:00,,01,,38590,763ba53e6f4d422089305727ca1386af.jpg,꿀꿀한닭,02,,734,,35.8209590168659,결식아동,"동반 1인",
경북,99,01,대가온족발,128.825373999307,"경북 경산시 하양읍 대학로298길 22","오전 10시~ 익일 새벽1시",,01,매주월요일휴무,38438,e35a6cc546ee4e3784070b24bfe5aa89.jpg,대가온족발,99,"아이와 부모또는 조부모",580,"순살족발,갈비족발 ,보쌈 ,냉면 ",35.9120619995587,결식아동,"아이와 부모또는 조부모","순살족발,갈비족발 ,보쌈 ,냉면 "
경북,01,01,2층,129.224895434962,"경북 경주시 광중길 24","11시 ~ 21시 30분",,01,"매주 화요일",38070,a30062741432498abd90dc04a7b2abcb.jpg,"일공공샤브 경주용강점",02,,69,,35.8802068747033,결식아동,"동반 1인",
경북,99,01,"1층 화이트 PC방",129.204642658581,"경북 경주시 원효로 36",24시간,,99,무휴,38157,NULL,"화이트 PC방",02,,420,"라면, 밥",35.8421302403562,결식아동,"동반 1인","라면, 밥"
경북,99,"01,02","썬하우스 2층 참사람태권도장 ",129.178123451325,"경북 경주시 충효5길 9-19",2시~21시,,02,"토,일 공휴일",38060,5d9fbb64167b43428af4795a8b06121f.jpg,"경주 참사람 태권도장",02,,908,수강료,35.8446906200068,"결식아동,독거노인","동반 1인",수강료
경북,02,01,을찌로국물떡볶이,129.216613563073,"경북 경주시 황성로16번길 34",오전11~오후23:40,,01,,38087,35edd96bfbef4772b2ac03c80b88673f.jpg,을찌로국물떡볶이황성점,02,,897,,35.862806901644,결식아동,"동반 1인",
경북,99,01,"1층 초원구이",129.21913229081,"경북 경주시 황성로64번길 18","16시 ~ 24시",,01,,38078,5e362102fb934f00a54a6777dc274bd4.jpg,초원구이,01,,971,"고기류 1인, 된장찌게, 밥",35.8670909634726,결식아동,"아이 본인만","고기류 1인, 된장찌게, 밥"
경북,01,01,"1층 ",128.335675195391,"경북 구미시 구미중앙로19길 18","12:00 ~ 20:30",,01,"매주 월",39225,NULL,카츠텐,01,,185,,36.1287786994371,결식아동,"아이 본인만",
경북,99,"01,99","508호 폴포아카데미",128.428652217352,"경북 구미시 산동읍 신당2로 57","오전 11시 ~ 오후 10시",미혼모,02,"시간표에 따름",39464,dca28fc9653c4baf8cdc00572b1aff96.jpeg,폴포아카데미,01,,778,"주 1회 무료 수업 + 입회비",36.155837948845,"결식아동,미혼모","아이 본인만","주 1회 무료 수업 + 입회비"
경북,01,01,"103호 104호",128.429694773063,"경북 구미시 산동읍 신당리 1407","11:00 ~ 21:00",,01,"15:00 ~ 17:00",39464,1b9daf10ad294df4b3697a79583ea82c.jpeg,풍국면산동점,01,,802,,36.1553142960659,결식아동,"아이 본인만",
경북,02,"01,02",,128.356266746721,"경북 구미시 상모로9길 1",,,99,,39335,NULL,고고아쿠아,02,,365,,36.0900370863765,"결식아동,독거노인","동반 1인",
경북,99,01,"아름다운집 1층 상가",128.359421063116,"경북 구미시 상사동로28길 4","오전9시- 7시",,99,일요일,39328,e461e1757eb742d4ae8558e4166b63f9.jpg,강스헤어,01,,314,"컷트  ",36.1008630637359,결식아동,"아이 본인만","컷트  "
경북,99,01,1층,128.303922538,"경북 구미시 선산읍 교리북길 22",10:00~20:00,,03,"매주 월요일 휴무",39112,10738cffe7ac416e8f5463e316ac0034.jpg,라보떼,01,,308,커트,36.2534537857095,결식아동,"아이 본인만",커트
경북,01,01,"1층 한돈참숯꼬기",128.302347755804,"경북 구미시 선산읍 선산중앙로 101",16:00-23:00,,01,"매월 첫째,셋째주 월요일",39119,1c49dcb928244963818d9b1b5ed1fb82.png,한돈참숯꼬기선산점,01,,900,,36.2431546766996,결식아동,"아이 본인만",
경북,01,01,"나동 1층",128.347898770658,"경북 구미시 송원서로6길 42-7",11-02,,01,연중무휴,39232,NULL,"심여사천북양념통닭 2호점",02,,52,,36.123062717059,결식아동,"동반 1인",
경북,99,"01,02","4층 도담언어심리발달센터",128.421528918413,"경북 구미시 옥계북로 36",09:00~19:30,,02,"토요일 13시~, 일요일",39185,d7ad31f9101941abb7498788b4141188.jpg,도담언어심리발달센터,03,,990,"간식세트, 핫팩",36.1380786292183,"결식아동,독거노인","동반 2인","간식세트, 핫팩"
경북,99,"01,99","1층 달비아뜰리에",128.42343315194,"경북 구미시 옥계신당로7길 16",10시~19시,"미혼모 ",03,"매주 일요일 휴무",39181,18edc323facd4bec9b13742cb4c58d78.jpg,"달비 아뜰리에",01,,459,"커트 ",36.144165471011,"결식아동,미혼모 ","아이 본인만","커트 "
경북,01,01,2층쉐프아이가,128.420507879789,"경북 구미시 황상동 302","11:30 ~ 22:00",,01,"15:30 ~ 16:30",39430,NULL,쉐프아이가,01,,139,,36.1090094794693,결식아동,"아이 본인만",
경북,02,01,소마루식당,128.125483397902,"경북 김천시 모암동 128-11",9:00-21:00,,01,15:00-17:00,39589,NULL,소마루,01,,1006,,36.1224897099707,결식아동,"아이 본인만",
경북,01,01,"율곡스퀘어lll, 112호 생활맥주",128.183430055049,"경북 김천시 혁신3로 5",17시~24시,,01,"매주 일요일7",39660,NULL,생활맥주김천혁신도시점,02,,160,,36.1179524248243,결식아동,"동반 1인",
경북,01,01,"정식품 문경대리점",128.22177382643,"경북 문경시 산양면 반암2길 3",9시~5시,,01,"토요일,일요일",36937,NULL,"정식품 문경대리점",01,,370,,36.6128100788783,결식아동,"아이 본인만",
경북,01,01,찬디미방,128.155775921422,"경북 상주시 동수로 144","오후3시~7시 30분",,01,"공휴일. 토요일. 일요일",37169,05d2378ff8184f48b59dad7719482193.jpg,찬디미방,01,,84,,36.4221803637733,결식아동,"아이 본인만",
경북,02,01,짱만두,128.732561078918,"경북 안동시 서동문로 188-1","오전10시-밤 9시",,01,"매주 화요일",36701,NULL,"짱만두 웅부점",02,,631,,36.5657897258692,결식아동,"동반 1인",
경북,99,01,"1층.카페 보헤미안",128.747892893908,"경북 안동시 전거리1길 61",오픈11시.마걈11시,,01,연중무휴,36712,f98ee8ee5afe4e5184b0366d79a9809e.jpg,"보헤미안카페 ",01,,155,"아동들이 마실 수 있는 건강한 음료",36.5598996798244,결식아동,"아이 본인만","아동들이 마실 수 있는 건강한 음료"
경북,99,02,"1층 Monet.",128.727877639792,"경북 안동시 퇴계로 87-1",10-20,,03,없음,36696,c7b170026011461f9ffe46bca282af18.png,모네플라워(Monet.),99,미혼모/한부모가정/기초초수급자,932,"꽃다발,꽃바구니,원데이클래스",36.5664689712282,독거노인,미혼모/한부모가정/기초초수급자,"꽃다발,꽃바구니,원데이클래스"
경북,02,01,"타이짬뽕 영덕점",129.383540801561,"경북 영덕군 강구면 강구대게1길 11","오전10시 OPEN / 9시 Close",,01,"평일 4시~5시 주말&공휴일 4시~4:30분 매주 월요",36455,c1cdb64533ed4e93a52efe1b276fcf67.jpg,타이짬뽕(영덕점),01,,217,,36.3592752886233,결식아동,"아이 본인만",
경북,99,99,"송송카페 안 네일샵",128.60814239587,"경북 영주시 영주로72번길 21",10시~8시,"소방관,경찰관,다문화가정",02,"매주 일요일",36136,0673dbdc146b4908953efed8c3592b7d.jpg,네일플라워&향.담.이,99,"한부모가정,학교밖아이들",1002,"모든시술,제품,클래스",36.820777830158,"소방관,경찰관,다문화가정","한부모가정,학교밖아이들","모든시술,제품,클래스"
경북,01,01,"경식당 ",129.375114418879,"경북 울진군 북면 부구2길 10-2",11시~7시,,01,"토요일 일요일 공휴일",36305,NULL,"경식당 ",99,"아이 부모님 또는 조부모",629,,37.1049364532644,결식아동,"아이 부모님 또는 조부모",
경북,02,99,1층,129.373774527211,"경북 울진군 북면 울진북로 2206",10:30~19:20,"한부모 조손, 부모가 없는 장애아동",99,"12:30~13:30휴게시간/토*일*공유일 쉽니다.",36304,7beaae1d3fda4838b1534311f7488731.png,MindINN상담심리&발달재활센터,99,"한부모 조손, 부모가 없는 아동청소년",701,,37.1119422131462,"한부모 조손, 부모가 없는 장애아동","한부모 조손, 부모가 없는 아동청소년",
경북,99,01,랑랑포차,128.337937246088,"경북 칠곡군 북삼읍 북삼로 102-1","오전10시~다음날 세벽1시",,01,"매주월요일 휴무, (화,수,목,금-오후3시~5시 준비중",39801,NULL,랑랑포차,99,아이본인+가족,238,"형 ,밥주세요",36.0712370121685,결식아동,아이본인+가족,"형 ,밥주세요"
경북,99,,"빅마트 내 정육코너(바른정육)",128.3351519923,"경북 칠곡군 북삼읍 안산2길 19-2","10:00 ~ 21:30",,01,,39807,NULL,바른정육,,,772,,36.0653962861884,Nan,Nan,
경북,99,01,2층,128.402833439602,"경북 칠곡군 석적읍 남율로 20",13:00~20:30,,02,"주말,공휴일",39844,NULL,남율챔피언태권도장,01,,355,"매월 수련비 ",36.0651185438642,결식아동,"아이 본인만","매월 수련비 "
경북,01,01,1층,128.397420300104,"경북 칠곡군 왜관읍 중앙로7길 17-1",16-02,,01,격주월요일,39893,NULL,족발상인,03,,300,,35.9912715729627,결식아동,"동반 2인",
경북,01,"01,02",1층카페,129.36025544082,"경북 포항시 남구 상공로 104",Am10~pm10,,01,목요일,37826,NULL,상공로104,01,,357,,36.0168502008245,"결식아동,독거노인","아이 본인만",
경북,99,01,상도코아루상가101호,129.344878754621,"경북 포항시 남구 상도남로 27",10시ㅡ7시30분,,99,매주일요일,37834,00b487cf7763451f9ac644dda1dfe6a3.jpg,"오늘은,",01,,532,컷.,36.0086408086293,결식아동,"아이 본인만",컷.
경북,01,"01,02","1층 앙클킴 디저트 ",129.316676645299,"경북 포항시 남구 연일읍 유강길17번길 22","오전 11 ~ 오후 10",,01,"매주 화요일 ",37656,NULL,"앙클킴 디저트 ",01,,171,,36.0041538695128,"결식아동,독거노인","아이 본인만",
경북,01,01,"지곡에드빌 102동 140호",129.324034933024,"경북 포항시 남구 지곡로 253",11시~20시,,01,,37670,NULL,신전떡볶이포항지곡점,03,,236,,36.0289758415482,결식아동,"동반 2인",
경북,01,01,1층,129.337739481226,"경북 포항시 남구 형산강북로 99","11시 ~ 21시 30분",,01,"매주 화요일",37836,bc10d54b16974defa9a4f99fd1f34ec7.jpg,효자동샤브칼국수,02,,67,,36.0048752205985,결식아동,"동반 1인",
경북,02,"01,02",102호,129.337022656619,"경북 포항시 남구 효성로29번길 17",11:00~21:00,,01,2:30~4:00,37836,552bdd2635124f1c9814ea9e50703152.png,우공초밥,02,,945,,36.0077277048675,"결식아동,독거노인","동반 1인",
경북,99,"01,99",애플꼬마김밥효자점(리오시티105호),129.342390986377,"경북 포항시 남구 효성로82번길 6-2","07:00-19:00/토요일,공휴일09:00-17:00",카드소지자,01,"매주일요일 휴무",37835,NULL,애플꼬마김밥효자점,01,,128,"메뉴중 택1",36.0056320866486,"결식아동,카드소지자","아이 본인만","메뉴중 택1"
경북,99,01,로제12,129.341863968367,"경북 포항시 남구 효자동 603-6",11.30~21.00,,01,없음,37835,80e0f14648e14473857728403eab47fc.png,로제12,01,,806,"파스타 피자 라이스",36.005584538643,결식아동,"아이 본인만","파스타 피자 라이스"
경북,99,01,더바른토스트,129.367846354259,"경북 포항시 북구 대신로 13","평일09:00~22:00, 일요일09:30~20:00",,01,,37726,NULL,더바른토스트,01,,768,"모든품목 중 택2",36.0453320666439,결식아동,"아이 본인만","모든품목 중 택2"
경북,02,"01,02,99","3층 레스트 인터홈",129.339041987992,"경북 포항시 북구 대이로 188",오전10시~오후10시,"한부모 가정",99,"매월 2째, 4째 일요일",37694,fb5009236e5f4a23a65118ac1ac26d16.jpeg,"레스트 포항지사 인터홈",01,,460,,36.0317786480652,"결식아동,독거노인,한부모 가정","아이 본인만",
경북,99,"01,02","(두호sk뷰푸르지오2단지상가동) 식사",129.372428701277,"경북 포항시 북구 두호로 53","오전10시30분 ㅡ 오후8시",,99,없음,37710,99466c0917dd4f10a281ceed87e6d735.jpg,식사준비,99,카드소지자,124,"원하는 밀키트 무상제공 (1가지제품)",36.0605353164927,"결식아동,독거노인",카드소지자,"원하는 밀키트 무상제공 (1가지제품)"
경북,99,01,1층,129.348692163397,"경북 포항시 북구 새천년대로 498",16~23,,01,월요일,37757,NULL,"감성족발 포항점",01,,1037,족발덥밥,36.0194540643485,결식아동,"아이 본인만",족발덥밥
경북,99,01,102-301,129.374005887119,"경북 포항시 북구 성실로 66-11",매일다릅니다,,01,매일다릅니다,37615,NULL,수풀림케이크,01,,444,"낱개보틀,생일당일은4구한상자",36.0702085802711,결식아동,"아이 본인만","낱개보틀,생일당일은4구한상자"
경북,99,01,"1층 105호 (승리빌딩)",129.386319437814,"경북 포항시 북구 신덕로 274","10:00 ~ 22:00",,01,없음,37572,fbf7abfbbabe41a8b2be50c0186c0d4a.jpg,"줄리앙와플앤커피 포항점",01,,156,"플레인 와플",36.0886587311979,결식아동,"아이 본인만","플레인 와플"
경북,01,01,"1층 오또상스테끼",129.40352732535,"경북 포항시 북구 장량로 212","12:00 ~ 21:50",,01,15:00~17:00,37596,f9ec98ed35fc46d0b67e1a80ba548d1f.jpg,오또상스테끼,02,,179,,36.0816090383474,결식아동,"동반 1인",
경북,99,,참뼈양덕점,129.397217404034,"경북 포항시 북구 천마로 84",10시-22시,,01,"둘째,  넷째 화요일",37589,2c502342f79e49b199301f16a082659a.jpg,참뼈양덕점,01,,78,뼈해장국,36.0840635251822,Nan,"아이 본인만",뼈해장국
경북,01,01,102호,129.400230031113,"경북 포항시 북구 천마로72번길 30","월-금 11시~8시, 토4시",,01,"월-금 3-4시",37589,ff82593e84ff48e8be5759bbbfbdfad2.jpg,"미상주먹김밥 포항점",01,,86,,36.0828936389943,결식아동,"아이 본인만",
경북,99,"01,02","식사준비 포항초곡점",129.335985091354,"경북 포항시 북구 흥해읍 초곡지구로58번길 38-4","오전10시 ㅡ 오후 8시",,99,없음,37560,97ed5a1b8b2440e984027c1d9b5f68e3.jpg,"식사준비 초곡점",99,카드소지자,125,"원하는 밀키트 무상제공 (1가지제품)",36.0970070431849,"결식아동,독거노인",카드소지자,"원하는 밀키트 무상제공 (1가지제품)"
광주,99,01,"라라브레드 1층",126.793427914414,"광주 광산구 광산로19번길 24",10:00~21:00,,01,x,62430,NULL,라라브레드,01,,657,"직원선택 2종",35.1392022463771,결식아동,"아이 본인만","직원선택 2종"
광주,99,01,3/4층,126.792971962519,"광주 광산구 송도로 160","12:00 ~ 13:00",,99,명절당일,62446,7e6d6199ebbf41a2a6732742578d9b72.jpg,한마음병원,01,,693,"병원식단표 상 음식",35.1287665863158,결식아동,"아이 본인만","병원식단표 상 음식"
광주,99,"01,02",상가106호,126.835320637274,"광주 광산구 왕버들로251번길 27",08:30~19:00,,03,"토 13:00~ / 일 휴무",62249,NULL,희망약국,01,,704,"위생용품(마스크, 생리대 등)",35.1976289284711,"결식아동,독거노인","아이 본인만","위생용품(마스크, 생리대 등)"
광주,02,01,다연닭갈비,126.814044649687,"광주 광산구 운남동 787-5",오전11시30분~오후10시,,01,매주월요일,62326,NULL,다연닭갈비,,,51,,35.1745800655137,결식아동,Nan,
광주,99,,15,126.810940543017,"광주 광산구 월곡중앙로 33","월-토 10:30~18:30",,99,"일요일 휴무",62347,51a11dc1045741a986ffc54af34ec6a7.jpg,샤론헤어,02,,600,커트,35.1694375302309,Nan,"동반 1인",커트
광주,02,"01,02",2층,126.818352028322,"광주 광산구 임방울대로 142-10",PM14시~20시,,02,공휴일,62318,1e5a3220cfbb4330a4724abbe25548b2.jpg,에프비아이아카데미학원,01,,895,,35.1737094017163,"결식아동,독거노인","아이 본인만",
광주,99,01,"A동 1층 짬뽕지존수완점",126.819443302387,"광주 광산구 임방울대로 507","09:30 ~ 00:00",,01,연중무휴,62244,NULL,"짬뽕지존 수완점",01,,432,"짬뽕, 짜장",35.204930502121,결식아동,"아이 본인만","짬뽕, 짜장"
광주,99,01,"1층 고귀한고깃간",126.897307080915,"광주 남구 광복마을길 49",08:30-20:30,,01,"매주 일요일 휴무",61726,aecf8db0fd6543d289b87f03aac2be5c.png,고귀한고깃간,01,,590,양념불고기+채소/돈까스+소스/사골곰국,35.122216821619,결식아동,"아이 본인만",양념불고기+채소/돈까스+소스/사골곰국
광주,01,"01,02","1층 웅이네식탁",126.90949000011,"광주 남구 백서로 4-2","10시주터 새벽2시",,01,,61661,9436838e28fe42dd88f6b9263d190597.jpg,웅이네식탁,99,상관안함,93,,35.1354969511644,"결식아동,독거노인",상관안함,
광주,99,01,"아크레타양림 111호 오키나와후라이",126.916025933942,"광주 남구 백서로 76",11:30~21:00,,01,"화요일 휴무 / 14:30~17:00 브레이크 타임",61662,6dc5e961e0af4092974f6c5160991271.png,오키나와후라이,02,,615,"텐동,가케우동,냉소바 중 1인 1메뉴",35.1392534882286,결식아동,"동반 1인","텐동,가케우동,냉소바 중 1인 1메뉴"
광주,99,01,IGA마트(편의점),126.878138288391,"광주 남구 송암로 52",07:30~22:00,,99,.,61740,abc9dbfa60fb43aaad38510af4ebcd7f.png,"아이지에이마트 송암공단점",01,,720,간식류,35.1099080457631,결식아동,"아이 본인만",간식류
광주,01,01,"1층 공차 광주 봉선점",126.907539903228,"광주 남구 제석로 110",09시~22시,,01,없음,61702,NULL,"공차 광주봉선점",01,,474,,35.1242069799219,결식아동,"아이 본인만",
광주,01,"01,02","1층 카페조율",126.914635517214,"광주 북구 면앙로 22",오전9시~오후9시,,01,"매주 일요일",61188,2b00bddca88244d0bdb9720d764dbf82.jpg,카페조율,01,,449,,35.1797349099467,"결식아동,독거노인","아이 본인만",
광주,01,01,"1층 오로지냉면",126.880771449173,"광주 북구 북문대로 43",11:00~21:00,,01,없음,61261,860e83ceca0b4ced862937dc9fec164f.jpg,오로지냉면,03,,1070,,35.1751898835041,결식아동,"동반 2인",
광주,01,01,"코아빌딩 1층 카페 에쏠로지",126.873385625711,"광주 북구 서강로54번길 22",07:30~22:00,,01,연중무휴,61258,0c0a420371154b95a3ec5d1682795ee5.png,"에쏠로지 서영대점",99,"아이 본인을 포함한 미성년 가족",714,,35.1759590875069,결식아동,"아이 본인을 포함한 미성년 가족",
광주,99,01,"1층 참치전문점 무명",126.876523501349,"광주 북구 양산동 810",11:30~23:30,,01,"매주일요일휴무 휴게시간14시~17시",61071,NULL,무명,02,,37,모듬초밥&수제돈까스,35.2106722060996,결식아동,"동반 1인",모듬초밥&수제돈까스
광주,99,01,"1층, 오태식해바라기치킨",126.875262661339,"광주 북구 양산동 959","pm 12:00 ~ am 01:00",,01,일요일휴무,61071,NULL,오태식해바라기치킨양산점,01,,134,"모든치킨메뉴 9,000원 포장 제공",35.2076137995322,결식아동,"아이 본인만","모든치킨메뉴 9,000원 포장 제공"
광주,02,"01,99",,126.900181789898,"광주 북구 일곡마을로 9","pm3시 ~ pm9시","바우처는 지원금 외 추가금 없음",02,"국경일(대체휴일포함) 및 토.일요일",61041,dde06b4b9b154bc993a27dffafc04bc4.jpg,"해동검도 우치도장",01,,254,,35.2060667509694,"결식아동,바우처는 지원금 외 추가금 없음","아이 본인만",
광주,01,"01,02","1층 주식박사",126.8910348015,"광주 북구 하백로6번길 3",11시30~23시00,,01,"매주일요일 17시부터 영업시작",61061,233c2af81fb9428a959f2cbd985bc1d0.jpg,주식박사,01,,699,,35.1881703319844,"결식아동,독거노인","아이 본인만",
광주,99,01,"103호 포코아포코",126.853912778342,"광주 서구 금호동 195-9","11:30 - 22:00",,01,"15:00 - 17:00",62012,3882f595ef1b4c129b5e5c1b7f643014.jpg,포코아포코,02,,492,"살치 스테이크 제외 다 가능",35.1271355594879,결식아동,"동반 1인","살치 스테이크 제외 다 가능"
광주,99,01,"1층 모토이시",126.858298845597,"광주 서구 금호동 763-1",17:00~02:00,,01,없음,62006,32d876d7fa1b4c18bfcc1eec502c8ea8.jpg,모토이시_광주(금호)점,02,,533,오마카셋set+식사류1,35.1327332745411,결식아동,"동반 1인",오마카셋set+식사류1
광주,02,01,"2층  효치과",126.883552642526,"광주 서구 내방로 392","09:30 ~18:00",,99,"12:30 ~ 14:00",61934,NULL,"광주 효 치과의원",99,"결식아동 가족",404,,35.1573413726629,결식아동,"결식아동 가족",
광주,99,"01,99","10동 111호",126.862868326391,"광주 서구 매월동 948","04시~ 18시","지역아동,소외계층",01,일요일,62074,dd762176df7045b79e88bfa69c3c9596.jpg,꿈채농산,02,,591,농산물,35.115876803292,"결식아동,지역아동,소외계층","동반 1인",농산물
대구,01,01,상가105호,128.604722274772,"대구 남구 대봉로 12","10:00 ~ 22:00",,01,없음,42512,4106ada187924037af64c2a2d313d11c.jpg,카페온오프,01,,954,,35.8408734848853,결식아동,"아이 본인만",
대구,99,,"블레스헤어 ",128.568453484683,"대구 남구 안지랑로19길 19","오전10시부터 오후7시까지",,03,일요일휴무,42485,3bc1133a68bb4362994021b5bda7aa36.jpg,블레스헤어,01,,453,"커트.꼭 해야될 상황이면 모든 서비스",35.8375722893602,Nan,"아이 본인만","커트.꼭 해야될 상황이면 모든 서비스"
대구,01,"01,02,99","1층 파슷타애요",128.581618903959,"대구 남구 현충로40길 8",10:00~01:00,"독거노인 ",01,x,42414,8aa7c2f89de04646b94569f1804dabeb.jpg,"파슷타애요 대명점",02,,1087,,35.8501485228504,"결식아동,독거노인,독거노인 ","동반 1인",
대구,99,"01,02","1층 모던뷰티",128.548199036372,"대구 달서구 상인로5길 50",10;30-20;00,,03,"월요일,일요일",42815,NULL,모던뷰티,01,,229,커트,35.8107598517214,"결식아동,독거노인","아이 본인만",커트
대구,,,"정문상가 B01-02 도담푸드",128.517146303273,"대구 달서구 선원로 241",,,01,,42606,NULL,도담푸드,,,328,,35.8602850997849,Nan,Nan,
대구,99,"01,02","1층 미용실",128.522225397704,"대구 달서구 선원로 269",13시~20시,,03,"매주 월화요일 휴무",42607,NULL,MINE,01,,198,무료컷,35.8590158192781,"결식아동,독거노인","아이 본인만",무료컷
대구,02,"01,99","상가 3층 센트럴1리딩영어 상인캠퍼스",128.546352667865,"대구 달서구 송현로7길 20",오후1시~7시,"영어공부를 하고싶은데 학원비가 없는 ",02,"토,일,공휴일",42802,32ffe653f7494c7397892712d5331ae1.jpg,센트럴1리딩클럽영어교습소(상인캠퍼스),01,,842,,35.8209186654239,"결식아동,영어공부를 하고싶은데 학원비가 없는 ","아이 본인만",
대구,01,01,떡의민족,128.516747177327,"대구 달서구 유천동 110-1",8시부터7시,,01,일요일,42761,NULL,떡의민족,01,,962,,35.8159603768373,결식아동,"아이 본인만",
대구,99,"01,99",1층,128.503856788969,"대구 달서구 이곡동 1178-7","낮12시부터 밤12시","결제 안받을게요 ,카드만 보여주세요",01,일요일,42604,ee23e7a45e7443f08f02b0f287be48e2.jpg,"후라이드양많고싼집 야후치킨 성서점",01,,495,"순살치킨 한마리 ",35.859691186035,"결식아동,결제 안받을게요 ,카드만 보여주세요","아이 본인만","순살치킨 한마리 "
대구,99,"01,02","1층 뒷편",128.510349508621,"대구 달서구 이곡동로 73",17시~22시,,01,"매주 월요일",42620,NULL,"이춘봉치킨 이곡점",01,,61,대표메뉴-이춘봉참숯바베큐,35.8545081906035,"결식아동,독거노인","아이 본인만",대표메뉴-이춘봉참숯바베큐
대구,99,01,"삼우티앤지빌딩 1층 서가커피",128.516477227795,"대구 달서구 조암남로 172-12",08:00~22:00,,01,"매주 일요일",42761,0f7438b378304ba397b7df2e48b39197.jpg,서가커피,02,,70,"인당 음료1잔, 디저트 1개",35.8160774198208,결식아동,"동반 1인","인당 음료1잔, 디저트 1개"
대구,99,01,102호,128.526813309632,"대구 달서구 조암로 29",9시부터22시까지,,01,없음,42757,bce208a3e8bc43d289c75d62815ebc1a.jpg,던킨,02,,54,음료1도넛1,35.8245539743231,결식아동,"동반 1인",음료1도넛1
대구,99,01,"삼성명가타운 상가 1층 118호",128.475698566941,"대구 달서구 파호동 89","12시 오픈 (제품 소진시 마감_sns or 카톡 문의",,01,"일, 월 휴무 (2월 한달간 토요일만 오픈)",42706,174c8e0539d44297b94e7e6cc77271c3.jpg,"미미 베이크샵",01,,1031,"음료1쿠키1 세트 또는 쿠키 1 ",35.8510251944117,결식아동,"아이 본인만","음료1쿠키1 세트 또는 쿠키 1 "
대구,01,"01,02","301동 109호",128.459106071893,"대구 달성군 다사읍 달구벌대로174길 50",12시~00시,,01,,42915,e6fc2eb53e464ad18197eb7d0ef8e87c.jpg,자담치킨다사점,02,,396,,35.859484319931,"결식아동,독거노인","동반 1인",
대구,01,01,,128.478634632364,"대구 달성군 다사읍 세천북로 11",10:00~19:00,,01,"주말, 공휴일 휴무",42922,0b985cf13281497fbc34a4e6bd76f49b.jpg,마;담(마음을담다),02,,973,,35.8756845555728,결식아동,"동반 1인",
대구,99,01,"대운빌딩 106호 아이플러스안경원",128.441226323249,"대구 달성군 옥포읍 돌미로 67","오전 10시 ~ 오후 9시",,99,명절당일,42974,85f1f6e381114c7ab8ee2319621e0e54.jpg,"아이플러스안경원 옥포",01,,115,"결식아동에 대하여 5만원까지 무상지원",35.7808191165633,결식아동,"아이 본인만","결식아동에 대하여 5만원까지 무상지원"
대구,01,01,"리더스뷰 204호(2층) 역세권",128.459698963271,"대구 달성군 유가읍 봉리 614","평일10:00~22:00  주말 11:00~22:00",,01,화요일,43018,bfb9a86acf7f4f42872e95c4a068f3fd.png,역세권,02,,867,,35.6920022855462,결식아동,"동반 1인",
대구,01,01,"현풍백년도깨비시장 청년몰 102호",128.442228532381,"대구 달성군 현풍읍 현풍로6길 5","11:00 ~ 21:00",,01,"매주 월요일 (월요일이 장날인 경우 정상 영업)",43003,2361868499fd48b6a89301212cc2178e.jpeg,"현주떡볶이 ",03,,426,,35.6947605589006,결식아동,"동반 2인",
대구,01,01,101동103호,128.6156342576,"대구 동구 동부로 29","10:00 ~ 22:40",,01,없음,41263,5cc199e2d38646aaa2c873febe831839.png,"카페온오프 신천점",01,,956,,35.8744005686659,결식아동,"아이 본인만",
대구,99,01,"1층듀얼몬스터 ",128.618085567856,"대구 동구 동부로 50",11:00~20:30,,01,,41254,60c963f88a0649d486f6fe66af329098.jpg,"듀얼몬스터 ",02,,510,파스타,35.874507784324,결식아동,"동반 1인",파스타
대구,01,01,108호,128.586154300416,"대구 북구 고성로 191",오후5시~익일01시,,01,,41594,68062b78ac6b45568844f66030fe0c80.png,"피자팜비어 대구FC침산점",03,,381,,35.883019345454,결식아동,"동반 2인",
대구,99,01,"동성빌딩 2층 ",128.556880072602,"대구 북구 구암로 147",11:00~19:00,,99,"매주 월,화",41431,79432cbfc9204c849e728aaeb1daa141.jpg,박수연헤어라인,01,,942,커트,35.9320000866148,결식아동,"아이 본인만",커트
대구,,,무지개파크골프,128.571884180144,"대구 북구 노원동3가 1038-4",,,02,,41555,NULL,대구밥상공동체,,,467,,35.8946998957301,Nan,Nan,
대구,99,01,"1층 더포",128.614490769725,"대구 북구 대불로 13",11시-21시,,01,"월요일 휴무, 3시30분~5시까지 휴식시간",41520,NULL,더포아담하니복현점,01,,626,"쌀국수, 볶음밥",35.9016447245243,결식아동,"아이 본인만","쌀국수, 볶음밥"
대구,01,,"1층 공원안쪽 끄티집",128.561852902683,"대구 북구 동천로 130-7","오후5시 ~ 새벽3시(금, 토 주말 4시)",,01,연중무휴,41423,NULL,끄티집,99,미정,917,,35.9433330722548,Nan,미정,
대구,01,01,정직유부매천점,128.546845410827,"대구 북구 매전로 78","월ㅡ금 오전10시ㅡ오후8시  토요일 오전8시30ㅡ오후5",,01,"매주 일요일",41471,NULL,"정직유부 매천점",01,,88,,35.9125856803415,결식아동,"아이 본인만",
대구,99,01,1층,128.605044094071,"대구 북구 산격로 13-3",09:00-18:00,,01,일요일,41543,39efeb4d19b848e489cac502bd754867.jpg,사랑가득한공동체협동조합,01,,433,도시락,35.8917994833698,결식아동,"아이 본인만",도시락
대구,01,01,"스펜트럼시티 3층 301호",128.589754735838,"대구 북구 칠성동2가 20-1",오전11:30~오후8:00,,01,매주일요일,41593,4a95ceeeb1bc4ffb955254d13a0577a4.jpg,"봉대박스파게티 침산이마트점",01,,49,,35.8850726575735,결식아동,"아이 본인만",
대구,99,01,"1층 갓샐러드두류평리점 ",128.557176520786,"대구 서구 국채보상로48길 8","오전10시50분  -오후 7시50분 ,주말 11시반-7",,01,"3시반 4시반. 금요일 2시반 5시",41824,704925fc62ec48a4aaff79ee88b6b2e1.jpg,"갓샐러드두류평리점 ",02,,1090,"샐러드.,토스트70% 할인+sv",35.8702485160061,결식아동,"동반 1인","샐러드.,토스트70% 할인+sv"
대구,99,01,"1층 소소식당",128.561407630131,"대구 서구 달구벌대로361길 11","평일,토요일:11:00~20:30",,01,일요일휴무,41864,8e82d253968348bf98d814e6f32b8cdc.jpg,소소식당,01,,244,식사메뉴1+음료,35.8605212008787,결식아동,"아이 본인만",식사메뉴1+음료
대구,99,01,"우방하이츠 상가 묭실언니 미용실",128.711471868973,"대구 수성구 달구벌대로645길 22","오전10부터 오후7시",,99,일요일,42270,648ffa021968445496799ed117fe69a0.jpg,묭실언니,01,,595,컷트,35.8416701815216,결식아동,"아이 본인만",컷트
대구,99,"01,02,99","반지하 족이좋아서",128.626731115276,"대구 수성구 동대구로38길 51","18시 ~ 06시","경찰, 군인",01,사장쉬고싶을때,42110,NULL,족이좋아서,03,,211,,35.8484529458942,"결식아동,독거노인,경찰, 군인","동반 2인",
대구,99,"01,99",제비원식당,128.623335008069,"대구 수성구 범어천로 51",오전11-오후9시50분,"악용이 되지 않길 바랍니다 ..",01,"매일오후4시-오후5시 ",42139,2a9be86042344daa88010ac2ad8e5a6e.png,제비원식당,99,"아이본인 / 동반1인까지  ",138,"메뉴소자(2인)기준으로 가능",35.8514936492433,"결식아동,악용이 되지 않길 바랍니다 ..","아이본인 / 동반1인까지  ","메뉴소자(2인)기준으로 가능"
대구,99,"01,02","1층 크리그레피 스튜디오",128.693489484215,"대구 수성구 알파시티2로12길 8-4",11:00~20:00,,99,"일요일 휴무",42251,NULL,"크리그레피 스튜디오",02,,610,"증명사진 , 프로필 사진 촬영",35.8374171799614,"결식아동,독거노인","동반 1인","증명사진 , 프로필 사진 촬영"
대구,01,99,"글나루 프리미엄 스터디센타",128.63658594116,"대구 수성구 청수로 264",09:00~02:00,"조용한 공부장소가 필요한분",02,연중무휴,42179,NULL,"글나루 프리미엄 스터디센타",99,"가정형편이 어렵지만 미래를 위해 꼭 ",761,,35.840340937842,"조용한 공부장소가 필요한분","가정형편이 어렵지만 미래를 위해 꼭 ",
대구,99,01,,128.588011240497,"대구 중구 경상감영길 10","화~금 10:00~19:00 토 10:00~17:00",,02,"일,월",41919,0533dacab05544628a761a83dbb6ff14.jpg,"메이커하우스 리움",01,,557,"메이커체험  1회",35.8710199658527,결식아동,"아이 본인만","메이커체험  1회"
대구,01,"01,02","303동103호 상가 1층",128.582326144854,"대구 중구 남산로7길 7",오후3시~12시까지,,01,없음,41977,9636eaa1cc954c91a8dd8a4fe80920c6.jpg,"자담치킨 대구남산점",02,,567,,35.8586896515091,"결식아동,독거노인","동반 1인",
대구,01,"01,02,99",1층,128.596536629031,"대구 중구 봉산동 28-1",오전11시오후10시,,01,없음,41943,c2a54280aeba40ed8b90c6293b1dfb54.png,신대장떡볶이,03,,227,,35.8655208088406,"결식아동,독거노인,","동반 2인",
대전,99,01,"1층 옛날통닭 석봉점 ",127.423975170975,"대전 대덕구 대덕대로 1586","낮12부터 저녁11시",,01,"정해진바 없음",34317,NULL,"옛날통닭 석봉점",03,,918,"모든품목 일정금액",36.4501275775894,결식아동,"동반 2인","모든품목 일정금액"
대전,99,"01,02",1층,127.414620457608,"대전 대덕구 오정동 64-2",10:00~09:00,,99,"토,일요일,법정공휴일",34379,0bf66cc74eac41bc82ce314db1bdb4cf.jpg,채움,02,,159,영양가득세포프로틴음료,36.359308879869,"결식아동,독거노인","동반 1인",영양가득세포프로틴음료
대전,01,01,"1층 진심만두",127.425808835729,"대전 대덕구 중리로64번길 11",10시~20시,,01,"매주 화요일",34389,c20cbcea72ce4ef2a07b6c809123eace.jpg,진심만두,01,,775,,36.3649282589742,결식아동,"아이 본인만",
대전,01,01,1층커피베이지,127.441758671919,"대전 동구 가양로132번길 11",11:00-20:00,,01,화요일,34574,bc4758d61cb04701825b3cb484a393cb.jpg,커피베이지,02,,431,,36.34831465,결식아동,"동반 1인",
대전,99,01,"1층 부어치킨",127.428225543702,"대전 동구 홍도로43번길 2",12:00~12:00,,01,"매주 월요일",34554,NULL,부어치킨한남대점,02,,568,"치킨버거세트 ",36.350005219914,결식아동,"동반 1인","치킨버거세트 "
대전,99,"01,02","1층 밍카페",127.377545941395,"대전 서구 갈마동 1403",9:00~18:00,,01,일요일,35266,bc1d715ef76e4f0fafc641410549db5a.jpg,밍카페,02,,391,음료1토스트1,36.3420974978484,"결식아동,독거노인","동반 1인",음료1토스트1
대전,99,01,1층(감성새우),127.372898005025,"대전 서구 갈마중로 33",18:30~02:00,,01,,35271,858236e04ef8410a843435121929ddf1.jpg,감성새우,02,,178,국물떡볶이,36.3477740899516,결식아동,"동반 1인",국물떡볶이
대전,99,01,"1층 HEIMISH 헤이미쉬 카페",127.340243388931,"대전 서구 관저동로 85",오전11시~오후22시,,99,"매주 일요일 격주 휴무",35378,96fe7adf0f144abbafb82b532738e3ab.jpg,헤이미쉬카페,01,,847,"디저트와 음료 제공",36.2997478753916,결식아동,"아이 본인만","디저트와 음료 제공"
대전,01,01,101호,127.344696707513,"대전 서구 도안동 970",pm4-12:30,,01,없음,35352,46f3fecb61bd4c16b642406cff05258d.jpg,"고기원칙 가수원점 ",99,"아이본인과  가족",382,,36.3304660340282,결식아동,"아이본인과  가족",
대전,01,01,"정스키친 108호",127.341072995945,"대전 서구 도안북로118번길 61",12:00~12:00,,01,"매주 목요일 휴무",35351,NULL,"곱떡치떡&찜꽁찜닭&치꼬뱅 도안점",03,,1064,,36.3287530144775,결식아동,"동반 2인",
대전,02,"01,02",1층,127.373055233072,"대전 서구 만년남로3번길 164","오전 11:00~오후 10::00",,01,"매주 월요일",35200,2310af33abf24c419272db87db9ced90.jpg,"오매불떡 매운떡볶이 ",01,,668,,36.3664840477938,"결식아동,독거노인","아이 본인만",
대전,99,"01,02",102호,127.38985615326,"대전 서구 문예로 73",9:30~21:30,,01,연중무휴,35240,69148fb206f84a22bd254faa604ef4eb.png,와이낫커피앤비,02,,531,"목살스테이크 3천원",36.3532883271247,"결식아동,독거노인","동반 1인","목살스테이크 3천원"
대전,01,"01,02","1층 각",127.353182810937,"대전 서구 벌곡로1379번길 5","오전11 ~ 오후 8",,01,"매주 월요일",35387,NULL,각,01,,219,,36.3041715696387,"결식아동,독거노인","아이 본인만",
대전,01,"01,02",103호,127.347091019183,"대전 서구 원도안로25번길 70","15:00 시부터 03:00시까지",,01,없음,35366,c3ce9fa4086c44ce96808610da0e021b.jpeg,"꾸브라꼬 숯불 두마리치킨",99,"아이 가족들, 동반인도 가능",212,,36.3081298312688,"결식아동,독거노인","아이 가족들, 동반인도 가능",
대전,01,"01,02","주공@101동 301호",127.369534354239,"대전 서구 월평북로 11",09:00~18:00,,99,"매주 토,일요일,법정공휴일",35211,NULL,천원리본,01,,140,,36.3633920703733,"결식아동,독거노인","아이 본인만",
대전,99,01,"1층 리보피체리아",127.392320386393,"대전 서구 탄방동 60-4","평일 11시~22시 일요일 11시~21시",,01,"3시~5시 브레이크 타임 , 월요일휴무",35257,NULL,리보피체리아,01,,82,"피자 or 파스타 택1",36.3434085218311,결식아동,"아이 본인만","피자 or 파스타 택1"
대전,99,01,"정윤빌딩 101,102호",127.339394077507,"대전 유성구 도안대로 511-12",am10:00~pm20:00,,99,없음,34199,NULL,"고기로운 정육점",01,,968,돈까스,36.3459872381928,결식아동,"아이 본인만",돈까스
대전,99,01,"스타타워 114호 아라니카노 ",127.337551074702,"대전 유성구 도안북로 85-31",10시-8시,,01,"매주 월요일",34218,53fe9ad64cf44f1e9a720f4e9dc968a9.jpg,아라니카노,01,,479," 홀 디저트,음료",36.3316503009198,결식아동,"아이 본인만"," 홀 디저트,음료"
충남,99,01,101호,127.406761345898,"대전 유성구 문지로 319-1",10:00-21:00,,01,14:00-17:00,34050,88cdf642a5a04403ba95a0185ad99857.jpg,치락골순대,01,,869,"순대국밥,뼈해장국,맛보기순대",36.3952138163,결식아동,"아이 본인만","순대국밥,뼈해장국,맛보기순대"
대전,02,"01,99","상가 105호",127.311451871385,"대전 유성구 반석동로 82",14:00-24:00,급식카드소지자,01,없음,34067,2a2e78cfc1144fc6a6fbed2c88f933ee.jpg,또래오래,02,,716,,36.3954029582102,"결식아동,급식카드소지자","동반 1인",
대전,01,"01,02","하우스디어반 상가A동 F101&102",127.395382761984,"대전 유성구 엑스포로151번길 19","평일 9시~21시30분 /공휴일,주말 11시~17시",,01,,34125,9578339874f24b618e4dd2603f78b781.jpg,"카멜로(CHAMELO) 도룡점",01,,516,,36.3761518348165,"결식아동,독거노인","아이 본인만",
대전,02,"01,02","101,102호 모어댄아이",127.338374382575,"대전 유성구 원신흥남로42번길 6-14","11:00 ~ 20:00",,99,"매주 일요일",34195,5c8ec84ccd7a475dbea24c25d5a51084.jpg,모어댄아이,01,,278,,36.3354897879831,"결식아동,독거노인","아이 본인만",
대전,01,"01,02","1층 카멜로커피 로스터스봉점",127.340363899314,"대전 유성구 원신흥동 550-4","평일10:30~21:30 주말&공휴일11:00~21:3",,01,없음,34195,efa4e69817da4bdcbe4ce527201aab1a.jpg,카멜로(CHAMELO)본점,01,,437,,36.3355160404109,"결식아동,독거노인","아이 본인만",
대전,99,01,금잔디뷰티,127.333094609057,"대전 유성구 장대동 268-1",10시~19시,,99,"일,월,화",34173,578848c15bb84b38944380994aa8694c.jpg,금잔디,01,,216,커트,36.3594682620708,결식아동,"아이 본인만",커트
대전,99,99,고기삼촌,127.334292811679,"대전 유성구 장대동 270-12","월~토 9시30분~20시50분","결식아동무상,소방관은10%할인(돼지)",99,일요일휴무,34173,00a6f066366f4367ad694a68d6fd5c80.jpg,고기삼촌,99,"아이본인만(한부모,조손가정)",790,"삼겹,목살,떡갈비등1팩 그외사장마음",36.3601781957101,"결식아동무상,소방관은10%할인(돼지)","아이본인만(한부모,조손가정)","삼겹,목살,떡갈비등1팩 그외사장마음"
대전,02,"01,02","지하1층 고민사진관 ",127.404584198508,"대전 유성구 전민동 385-9",오전10시~오후7시,,03,"매주 월화",34052,3348c25abf614a0a96ac8777bfefb7cb.jpg,고민사진관,02,,274,,36.396876384959,"결식아동,독거노인","동반 1인",
대전,01,01,1층,127.402505034698,"대전 유성구 전민로70번길 39",11시30분~21시,,01,"평일만 영업 , 11시30분~ 14시까지",34052,NULL,라멘히로시,02,,788,,36.3989891670472,결식아동,"동반 1인",
대전,99,"01,02","서밋마트 정육코너",127.339057115767,"대전 유성구 죽동로279번길 101",9시~21시,,99,,34127,NULL,미트스토아,02,,1021,"정육 2만원 상당 전품목",36.3725767277568,"결식아동,독거노인","동반 1인","정육 2만원 상당 전품목"
대전,99,01,1층,127.304237755141,"대전 유성구 지족동 1018-8",11~23,,01,17시30~19시,34070,6e63efaf6fcf4d0d9e444677c14c3a89.jpg,꿈커피앤세계맥주,02,,43,"주류제외 모든메뉴",36.3865593463509,결식아동,"동반 1인","주류제외 모든메뉴"
대전,01,"01,02","3층 에그드랍",127.398516767788,"대전 유성구 테크노중앙로 123",10:30-21:00,,01,"추석, 설날 당일 휴무",34030,NULL,"에그드랍 대전현대아울렛점",02,,177,,36.4234369155218,"결식아동,독거노인","동반 1인",
대전,99,01,"1층 파스토보이",127.415112840201,"대전 중구 선화동 419-30",11:00-23:00,,01,월요일,34860,2ca3ead5f1ff47b798d0c7c38663e444.png,"파스토보이 중구점",01,,166,"필라프 파스타 리조또 메뉴중 택1",36.3271820874953,결식아동,"아이 본인만","필라프 파스타 리조또 메뉴중 택1"
대전,99,01,"3층 어반헤어 은행점",127.427685249804,"대전 중구 은행동 33-10","오전11~오후7시(월,화,수만 가능)",,03,없음,34921,33e16359498b4522906ab47231cbed19.jpg,"어반헤어 은행점",01,,352,"컷트,펌,염색",36.3278609568165,결식아동,"아이 본인만","컷트,펌,염색"
대전,02,01,소문난집,127.396378457405,"대전 중구 태평로26번길 75",17:00~22:00,,01,일요일,34887,5d8ead524f8e4b00a4ee6be7d5ff3610.jpg,"소문난집  대전유천동점",02,,132,,36.3202574952459,결식아동,"동반 1인",
부산,01,"01,02,99","이편한세상 상가 3-34호",128.908422103948,"부산 강서구 명지국제2로 80",예약제,장애우,99,예약제,46726,de143793fbc54dca9eebd1ccd6a6db3d.jpg,오드에뜨왈,02,,197,,35.0987666150386,"결식아동,독거노인,장애우","동반 1인",
부산,02,01,,128.926340985369,"부산 강서구 명지국제6로318번길 32-2",11:00~20:00,,01,"매주 월요일 휴무",46773,7a31658bd7334407bab248ac0fcb8f43.jpg,미소칼국수,01,,944,,35.1033501324445,결식아동,"아이 본인만",
부산,02,01,우,129.091411571047,"부산 금정구 부곡로 92",10:10-23:00,,99,휴무일없음,46305,46ed1e382dbd4630b38d86a437b37fa1.jpeg,"떡군이네떡볶이 부산대점",02,,935,,35.2240146323809,결식아동,"동반 1인",
부산,01,01,"2층 ",129.214868508134,"부산 기장군 기장읍 읍내로104번길 16","수-일 10:30~6:30",,01,화요일,46066,df6ec7bd2cb64d68bab295aa13e53d4b.jpg,"원조기장손칼국수 기장시장본점",02,,1059,,35.2436967938759,결식아동,"동반 1인",
부산,01,01,나드리김밥,129.283946471096,"부산 기장군 장안읍 길천1길 14","9:30~8:30 브레이크 2시4시까지",,01,"매주 일요일",46036,NULL,나드리김밥고리점,01,,800,,35.3290298739097,결식아동,"아이 본인만",
부산,99,"01,99","2F 205호 담아내다.",129.175576383829,"부산 기장군 정관읍 정관로 566","12:00 ~ 22:00",,03,없음,46017,7cef1afa32544fd98ebfaa04080dc296.jpg,담아내다.,99,"동반자 가족 전체",234,"증명사진, 가족사진, 장수사진 촬영",35.3212784409129,"결식아동,","동반자 가족 전체","증명사진, 가족사진, 장수사진 촬영"
부산,02,"01,02","1층 하삼동커피 ",129.111700499531,"부산 남구 용호로 161",07:30~23:00,,01,연중무휴,48585,f2b46e32b8b74f96918e040f8f1bcd48.jpg,"하삼동커피 용호사거리점 ",01,,371,,35.1178751345869,"결식아동,독거노인","아이 본인만",
부산,99,01,"1층 갓블유피자 부산남구점",129.09039159854,"부산 남구 진남로46번길 36","오전11시 ~ 익일 오전1시",,01,"첫째,셋째 수요일",48436,ab90b89b6a5e4409858dc9cf31207403.jpg,"갓블유피자 부산남구점",01,,969,,35.139653413192,결식아동,"아이 본인만",
부산,99,99,"7층 유앤아이치과",129.059021378838,"부산 동구 범일로 97",평일9시~18시,"치아치료받고  잘 먹기를!",99,"점심시간 12시30분~2시,토일 공휴일 휴무",48735,804f2a224c7a43c9af0a5909e23be762.png,유앤아이치과,99,"아동급식(신한)카드제시시 아동만 무료",386,"충전/실란트/스켈링/신경치료 등",35.1386632405644,"치아치료받고  잘 먹기를!","아동급식(신한)카드제시시 아동만 무료","충전/실란트/스켈링/신경치료 등"
부산,99,01,"상가1층 집밥마켓 ",129.08366397392,"부산 동래구 명륜로 222",오전9시에서저녁8시까지,,01,매주일요일,47744,7752ea1cad8e481a8fb32b9a6b05ad18.png,"집밥마켓 ",01,,551,"1만원 음식 혹은 버팔로윙과 밑반찬",35.2139694459922,결식아동,"아이 본인만","1만원 음식 혹은 버팔로윙과 밑반찬"
부산,99,01,"1층 오삼겹",129.084435807066,"부산 동래구 명륜로112번길 27",13시~21시,,01,무,47808,428469d0b54c4bdab7155fb36b3214f0.png,오삼겹,99,본인포함4명까지,443,"대패삼겹살,음료,밥",35.2036162599366,결식아동,본인포함4명까지,"대패삼겹살,음료,밥"
부산,99,"02,99","1층 이동호피자",129.090844551806,"부산 동래구 복천동 67-2",12-12,포장할인50%단품피자구매시,01,,47804,6e8bdd8b3ed44b49bb147e46e7650b5d.jpg,이동호피자,01,,638,클래식피자M(미디움)사이즈,35.2058258217733,"독거노인,포장할인50%단품피자구매시","아이 본인만",클래식피자M(미디움)사이즈
부산,01,01,"6층 mk댄스아카데미",129.060631587849,"부산 동래구 사직북로 20",밤10시,,02,일요일,47866,NULL,MK댄스아카데미,01,,725,,35.1976001538894,결식아동,"아이 본인만",
부산,99,01,"1층 샤브향",129.060428215426,"부산 동래구 사직북로5번길 9","11시30 ~22시까지",,01,"16시~17시까지 명절",47865,189a0ee627dc49cc819138dd2027e8f5.jpg,"샤브향 사직점",02,,914,"소고기샤브,얼큰이샤브 ",35.1961726686938,결식아동,"동반 1인","소고기샤브,얼큰이샤브 "
부산,01,"01,02",1층구포국수,129.086702788478,"부산 동래구 수안동 389-1",오전11시-오후11시,,01,연중무휴,47813,2bc5e84248ae48ef84ef5ad28346c34f.jpg,구포국수&돈까스,02,,762,,35.2025269057961,"결식아동,독거노인","동반 1인",
부산,01,01,"베러먼데이 수안낙민점",129.090062731673,"부산 동래구 수안동 749","오전 8시 ~ 오후 11시",,01,없음,47887,281d1f72ad7746bf8f242233882fbb0d.jpg,"베러먼데이 수안낙민점",03,,385,,35.1944321974877,결식아동,"동반 2인",
부산,99,,"1층 매일이생일",129.103914711061,"부산 동래구 온천천로471번가길 18-3","오전 11시30분-오후7시30분",,01,"휴무일 변동",47900,ff7834b5dc094dd58c3913c982198c7f.jpg,매일이생일,01,,222,"특별한날 도시락케이크 주문가능",35.1921250866408,Nan,"아이 본인만","특별한날 도시락케이크 주문가능"
부산,99,01,"상가동2층 베이비데이즈 ",129.08557677639,"부산 동래구 중앙대로 1523",11시~5시,,03,일요일휴무,47710,1546a45479ee4f5a90eeac4f405ee638.jpg,베이비데이즈,01,,504,"머리핀 5000원",35.2212896964575,결식아동,"아이 본인만","머리핀 5000원"
부산,99,01,"1층 ",129.075899888071,"부산 동래구 중앙대로1367번길 38",12-22시,,01,매주월요일,47728,NULL,"OK도매횟집 동래점",03,,242,회덮밥,35.2099869532473,결식아동,"동반 2인",회덮밥
부산,02,"01,99","2층 더건강한치과 ",129.08654987,"부산 동래구 충렬대로 250-1","평일  오전10시~오후6시30분 화요일 저녁8시까지",독거노인,99,"오후1시~오후2시까지 토요일오후1시30분까지 공후일 휴",47877,633e0ad134624f908a757c1e884af72e.jpg,"더건강한치과 ",99,가족,871,,35.2010044335653,"결식아동,독거노인",가족,
부산,99,01,"부산큰병원 1층 내",129.026168574591,"부산 부산진구 가야대로 494","10시 ~ 16시",,01,"12시 ~ 12:30",47324,NULL,"작지만 큰카페",01,,933,"제조 음료",35.1528266829371,결식아동,"아이 본인만","제조 음료"
부산,99,"01,99",3층디에스키친,129.034245481365,"부산 부산진구 대학로 68-4",오전10:30~오후10:30,"한부모가정,저소득취약계층",01,"매주 월요일",47336,5308683dcc4f43569ef46f3fb8e44101.jpeg,엠슐랭,03,,285,"파스타,필라프 메뉴",35.1498739706377,"결식아동,한부모가정,저소득취약계층","동반 2인","파스타,필라프 메뉴"
부산,02,01,"1층 오늘쉐프",129.04985556475,"부산 부산진구 새싹로 184",오전9시-오후9시,,01,휴무일-명절,47132,1cdb90e3bfaa4ce387d2965a0fdab260.jpg,오늘쉐프연지점,01,,795,,35.1725080013579,결식아동,"아이 본인만",
부산,01,"01,02",1층,129.057539923574,"부산 부산진구 서면로 31",오전11~저녁12시,,01,"휴일없고 2~5시 사이에 장보러 갈때만 잠시 가게 비웁",47288,71350cedb4a24889927739199d82d435.jpg,제주맛순대,99,동반자가족일체,347,,35.1535346413664,"결식아동,독거노인",동반자가족일체,
부산,99,"01,02",1층카페/2층사진관,129.064916230953,"부산 부산진구 서전로47번길 52","오후11시 - 오후9시",,99,"인스타그램 별도 공지",47242,9e71496a43624079a9756679859d32bb.png,호텔필름/파트오브뮤라섹,99,"사진관은 본인만/카페는 동반 1인",21,"기본 증명사진/여권사진/음료메뉴",35.1601354603508,"결식아동,독거노인","사진관은 본인만/카페는 동반 1인","기본 증명사진/여권사진/음료메뉴"
부산,01,01,"2층 모토201호",129.065998454663,"부산 부산진구 서전로58번길 94","12시~ 21시",,01,"평일15시~17시, 일요일 휴뮤",47305,eee19332f8e44172971199ce30378975.jpeg,모토201호,02,,737,,35.15360331985,결식아동,"동반 1인",
부산,01,01,비와우동,129.064449648753,"부산 부산진구 전포대로209번길 11-5",11:30,,01,"매주 월요일 휴무",47294,3743a15fdeb84000ae8fb65abf8f4590.jpg,비와우동,02,,946,,35.1552080251752,결식아동,"동반 1인",
부산,02,01,"1층 상가 몽에그",129.063167582368,"부산 부산진구 중앙대로 786",08~22,,01,명절당일,47241,ea15848555c549f3a01a8922d1d71eae.jpeg,몽에그,01,,331,,35.1619362259482,결식아동,"아이 본인만",
부산,01,"01,02","2층 밥상극장",129.058484592382,"부산 부산진구 중앙대로635번길 11",오전11시-오후3시,,01,"토,일 휴무일",47351,150de3cb6d8d4cb0b8cd6fd7537450a0.png,밥상극장,02,,796,,35.1492036390139,"결식아동,독거노인","동반 1인",
부산,02,01,"네오플러스 111호 ",129.011637531786,"부산 북구 금곡대로285번길 29","오전10시 부터 오후9시",,01,"매주일요일 휴무",46526,e1ccafcda5804a81bb0b283552194c77.jpg,"양평칼국수화명점 ",02,,960,,35.2338731844281,결식아동,"동반 1인",
부산,,,"상가 108호",128.999449007463,"부산 북구 백양대로 1096",,,99,,46634,NULL,플랜츠비수족관,,,520,,35.2023607626408,Nan,Nan,
부산,99,"01,02,99",휴대폰놀이터,128.980548586136,"부산 사상구 운산로 33",오전10시~오후8시,장애우,03,"매주 일요일 혹은 빨간날",46955,6a18d88029cd4ed3bd4c7482a24fc1e5.jpg,휴대폰놀이터,02,,304,"보급형스마트폰 무료개통",35.1686512085114,"결식아동,독거노인,장애우","동반 1인","보급형스마트폰 무료개통"
부산,99,"01,02",1층,129.011580692312,"부산 사상구 주례로 7",17:00-02:00,,01,매주일요일,47006,577b139c17af4cc08e7180fd83ea6160.jpg,육회푀유,03,,807,"육회비빔밥 불고기비빔밥",35.1503976047128,"결식아동,독거노인","동반 2인","육회비빔밥 불고기비빔밥"
부산,99,01,"뚜레쥬르 부산하단역점",128.963941317437,"부산 사하구 낙동남로 1391",07시~23시,,01,,49312,29dd4f3f1a024af0a76c68e76f8fe51e.jpg,"뚜레쥬르 하단역점",01,,719,"당일 제조 빵류 1만원 상당",35.1066490608254,결식아동,"아이 본인만","당일 제조 빵류 1만원 상당"
부산,99,01,천지를먹다,128.975710770384,"부산 사하구 다대로144번길 73",17:00~23:00,,01,"매주 화요일 휴무",49442,8400d39d32ad44aea2e9a69d2932ef38.jpg,천지를먹다,01,,1008,"식사류 '육회비빔밥' 제공",35.0910663134647,결식아동,"아이 본인만","식사류 '육회비빔밥' 제공"
부산,99,"01,02,99","2층, 다대포예술기지 ",128.96930637378,"부산 사하구 윤공단로 12","11:00 - 21:30(last order)","보육시설출신청년 동반 1인",99,"월요일 휴무(지만 열려있을 수 있습니다.)",49494,d2494272a5fb4c829eb1773f52ce02f6.jpg,다대포예술기지,99,"음료(동반 1인), 책(본인/월)",167,"음료, 도서",35.0548164287183,"결식아동,독거노인,보육시설출신청년 동반 1인","음료(동반 1인), 책(본인/월)","음료, 도서"
부산,01,01,"1층 바로올레",129.017589876122,"부산 서구 고운들로 50-1",오전11~오후8시,,01,매주일요일,49233,ac73dd567d8d48c18dd02c6391ea6a32.jpg,바로올레,02,,880,,35.1063660498017,결식아동,"동반 1인",
부산,01,01,"1층 통큰갈비 수영점",129.11867405654,"부산 수영구 감포로 71",16시~24시,,01,,48268,b8ac8a781b014543b0e8dd0280e25243.jpg,"통큰갈비 수영점",02,,315,,35.1647213897736,결식아동,"동반 1인",
부산,01,01,"1층 정국수",129.112634186893,"부산 수영구 수영로611번길 17",오전11시~오후8시,,01,"브레이크타임:오후 4시~5시 매주 일요일 정기휴무",48254,9af8250f04524636a2b6167cb45833e6.jpeg,정국수,02,,318,,35.160547978705,결식아동,"동반 1인",
부산,99,01,"6층 사진찍는남자사진관",129.044246989721,"부산 영도구 대교로 1","오전 10시~오후6시(점심시간 12시~1시)",,03,"매주 일요일 휴무",49035,NULL,사진찍는남자,01,,527,"청소년증 발급용 증명사진",35.0926742287593,결식아동,"아이 본인만","청소년증 발급용 증명사진"
부산,01,01,,129.026334519278,"부산 중구 중구로47번길 30",am10~pm7:30,,01,"2,4째 일욜휴무",48977,76449236d6b4469da9b2e937e8362007.jpg,양산집,02,,90,,35.102307872299,결식아동,"동반 1인",
부산,99,01,"1층 스시카메",129.038023456303,"부산 중구 충장대로5번길 48-1",11시~21시30분,,01,14시30~17시,48936,d9a95e0fa7dd4d918bdd4b8c8719660c.jpg,스시카메,01,,616,초밥.우동.모밀,35.1094155137169,결식아동,"아이 본인만",초밥.우동.모밀
부산,01,01,"동부올림픽타운아파트 상가2층 월포식당",129.139840566086,"부산 해운대구 해운대로 428","월~금 오전 11시~오후 3시",,01,"주말 공휴일 휴무",48089,812abfa8a4a64a33832b33d4b99d3548.jpg,월포식당,02,,773,,35.1668836722389,결식아동,"동반 1인",
기타,01,01,804호,127.001952432432,"서울 중구 퇴계로 272",am10:00-pm10:00,,01,,04618,NULL,주)청어람플러스,01,,500,,37.5628056011862,결식아동,"아이 본인만",
세종,01,"01,02","1층 마라마라",127.290273968022,"세종특별자치시 조치원읍 내창1길 11-5",11:00~8:30,,01,없음,30019,31f9e7b569b244c6aa9dc7fc123bf713.jpg,마라마라,03,,182,,36.6081033789404,"결식아동,독거노인","동반 2인",
세종,99,01,"1층 우잉",127.288327214459,"세종특별자치시 조치원읍 봉산로 15",평7:30~21:30토11:00~21:30,,01,일요일휴무,30019,36c4606bf14a436db040492a2aafa21e.jpg,우잉,02,,491,"음료1잔 빵1개",36.6063025833209,결식아동,"동반 1인","음료1잔 빵1개"
세종,,,"202호 (나성동)",127.257679308241,"세종특별자치시 한누리대로 245",,,99,,30127,NULL,제본공작소,,,279,,36.486071073349,Nan,Nan,
울산,99,01,"1층  까끼헤어",129.332469319117,"울산 남구 달동 1349-10","10시-8시 30분",,99,일요일휴무,44703,9741685250ee42a782c6b507bbfd67ae.jpg,까끼헤어,01,,430,커트무료,35.5413942928665,결식아동,"아이 본인만",커트무료
울산,01,01,"1층 떡군이네떡볶이울산남구점",129.314790994056,"울산 남구 달동 882-1","10:00 ~ 23:00",,01,"둘째,넷째 월요일(격추휴무)",44691,8b9df1e65e8a4843bafa20193f1e6528.jpeg,떡군이네떡볶이울산남구점,02,,1060,,35.5360785052477,결식아동,"동반 1인",
울산,99,01,"3층 비즈단과",129.345064725297,"울산 남구 돋질로367번길 1",11:00~22:00,,02,,44710,dadce79d489e4bf1a5cb23a8129b80d4.png,비즈단과학원,01,,228,"중등과정, 고등과정 일부",35.5443420589498,결식아동,"아이 본인만","중등과정, 고등과정 일부"
울산,99,,1층(을지관),129.348924645743,"울산 남구 돋질로401번길 15",13시~23시,,02,"주말 및 공휴일",44711,72871627464f4e93bb6ac9dbdcf443e4.png,"합기도 을지관 효무도장",99,"교육비 납부가 힘든 아동",1055,"합기도 및 체육활동 수업",35.5452193084953,Nan,"교육비 납부가 힘든 아동","합기도 및 체육활동 수업"
울산,99,"01,02","1층 ",129.301065038961,"울산 남구 문수로435번길 16",10:30~20:00,,99,"매주 월요일",44655,68769cea9add4ee5a4c78cc115fa5e8a.jpg,열펌공화국with아미,01,,95,"컷트 무료  펌.염색 50%",35.5348705955855,"결식아동,독거노인","아이 본인만","컷트 무료  펌.염색 50%"
울산,99,"01,02","1층 청우횟집",129.329068648396,"울산 남구 번영로166번길 19",11:00~20:00,,01,"매월 첫번째 월요일",44703,9fbf6a2d462745aba756a32af9d78788.jpg,청우횟집,02,,1068,"점심특선 메뉴",35.5406793766752,"결식아동,독거노인","동반 1인","점심특선 메뉴"
울산,01,"01,02","상가 3호 칭찬반찬또바기",129.321502755455,"울산 남구 수암로116번길 59-21",09:00~20:00,,01,"일요일,공휴일휴무",44755,0274259680944dd2a18fcca3ef6e8d1d.png,"칭찬반찬 또바기 ",01,,888,,35.5236193797548,"결식아동,독거노인","아이 본인만",
울산,99,01,"고집센그집갈비탕 야음점",129.332843685795,"울산 남구 신선로 187",11:30~21:00,,01,"매주 일요일",44752,671f2c275ea44881bebc7c12751582d4.jpg,"고집센그집갈비탕 울산야음점",02,,79,갈비탕,35.522798006761,결식아동,"동반 1인",갈비탕
울산,02,"01,02,99","1층 연화",129.330438162877,"울산 남구 왕생로45번길 11",11시30분~23시30분,국가유공자,01,15시~17시,44718,b0d4586e057240ba867133c47574e71c.jpg,연화,03,,312,,35.5371734645329,"결식아동,독거노인,국가유공자","동반 2인",
울산,01,02,"2층 리베라뷰티",129.332795323911,"울산 남구 왕생로66번길 15",10:00~20:00,,99,,44703,fc057ed9f2cd400b99a3d341a6203810.jpeg,리베라뷰티,01,,80,,35.539830774131,독거노인,"아이 본인만",
울산,99,01,1층,129.427311114019,"울산 동구 대송로 19",9:30-20:30,,01,없음,44053,d6acf9059d6d45c5a22467ad8d4fd6a3.jpg,하남성,02,,839,"짜장면 볶음밥 탕수육",35.5040928404886,결식아동,"동반 1인","짜장면 볶음밥 탕수육"
울산,01,01,상가105호,129.437792231524,"울산 북구 강동산하2로 43",11~22,,01,일요일,44264,aff9c59efff9482ca86197fed1e1256d.jpg,용식이족발(강동점),03,,859,,35.6251708231597,결식아동,"동반 2인",
울산,02,01,101호,129.353640849658,"울산 북구 매곡2로 47",오후1시~6시,,02,토.일요일,44215,7b91d6bdc61643019c59c2ddb20b5044.jpg,조정윤아트,01,,675,,35.6490057859596,결식아동,"아이 본인만",
울산,01,01,104호,129.354194134972,"울산 북구 신기4길 42","오전10시30분부터 오후11시",,01,,44215,cc6e8500e134423380717e23bb7fdeb1.jpg,쭈니네식당,02,,603,,35.6499722351065,결식아동,"동반 1인",
울산,99,01,103호,129.354194134972,"울산 북구 신기4길 42",AM11:00~AM01:00,,01,,44215,430270131a264c59bdb0f53e3a8baad5.jpeg,로와네식당,02,,602,"쭈꾸미비빔밥  계란찜 반찬 ",35.6499722351065,결식아동,"동반 1인","쭈꾸미비빔밥  계란찜 반찬 "
울산,99,"01,99","2층 울산희망스포츠사회적협동조합",129.357186269733,"울산 북구 신기9길 10","평일 오후2시~9시 토요일 오전 9시~오후5시","상담후 어려운 가정의 자녀",02,"일요일은 쉽니다",44215,d573ce52a1ea40bc9e4d0480ef41c60b.png,울산희망스포츠사회적협동조합,01,,309,"원 회비전액 또는 감액",35.6492034798902,"결식아동,상담후 어려운 가정의 자녀","아이 본인만","원 회비전액 또는 감액"
울산,01,01,"상가 102호 처갓집양념치킨 구영점",129.239911963901,"울산 울주군 범서읍 구영리 798-1",13:00~01:00,,01,변동,44923,NULL,"처갓집양념치킨 구영점",02,,669,,35.5710606243825,결식아동,"동반 1인",
울산,01,01,해성관앞,129.230692538321,"울산 울주군 범서읍 천상1길 17","10시~오후 6시반",,01,"주말,공휴일",44931,0bb6bfdb085247e989622e57446f2305.jpeg,"미앤밀 ",02,,324,,35.5631372915375,결식아동,"동반 1인",
울산,99,01,"2층 박치과",129.31024930655,"울산 울주군 온산읍 덕남로 31","평일9시30분~19시, 토요일9시30분~13시",,99,"점심시간(12시30분~14시) 일요일, 공휴일",45006,9673c1c73ecf47799458dd79b0dab9a0.jpg,박치과,01,,411,"충전,실란트,스켈링, 신경치료 등 ",35.4320600218697,결식아동,"아이 본인만","충전,실란트,스켈링, 신경치료 등 "
울산,99,"01,02","1층 스튜디오민이",129.313132300331,"울산 울주군 온산읍 덕신로 290","11:00 ~19:30",,03,,45007,4b722b2662554697a2bf47df4e4cea91.jpg,스튜디오민이,01,,967,증명사진,35.4338618278563,"결식아동,독거노인","아이 본인만",증명사진
울산,99,99,2층,129.34543931535,"울산 중구 고복수길 6",1시~5시,"성적우수 초등생",02,"주말, 공휴일",44489,befa0b9467534438b3085b4ad2eaa680.jpg,제이앤제이뮤엠영어영재수학,01,,841,"영어 강의",35.5734389835038,"성적우수 초등생","아이 본인만","영어 강의"
울산,01,01,1층3호,129.321886729232,"울산 중구 시계탑거리 19",11:00~20:30,,01,없음,44531,5e97507da8f749509a3907a8d20eeeca.jpg,뚠뚠이돈가스,01,,71,,35.5543988090423,결식아동,"아이 본인만",
울산,01,01,"1층 온",129.343639445138,"울산 중구 종가25길 32",11:30~20:00,,01,14:30~16:30,44548,9119ae956c84477395ded168e480991d.jpg,온,01,,165,,35.5893696332292,결식아동,"아이 본인만",
인천,99,01,"1층 하와유카페",126.735805860343,"인천 계양구 까치말로49번길 5-1",오전10시,,01,월요일,21124,NULL,하우알유,01,,754,"음료하나 디저트하나",37.5298593476911,결식아동,"아이 본인만","음료하나 디저트하나"
인천,02,01,1층,126.724304824524,"인천 계양구 하느재로5번길 5",11:00~20:00,,01,"휴무 없음",21039,3a6831dcdd6e40e28bee3e4ef02cde66.png,카페루시,01,,373,,37.543910518801,결식아동,"아이 본인만",
인천,01,01,"1층 프랑킨숯불양념구이친 간석점",126.705681207853,"인천 남동구 간석동 355",오전11시~새벽2시,,01,,21551,77105007e473475e83d274e49acba473.jpg,"프랑킨숯불양념구이치킨 간석점",01,,680,,37.4587206222798,결식아동,"아이 본인만",
인천,01,"01,02","(구월동)힐캐슬프라자102호 에그드랍",126.714028470647,"인천 남동구 구월로 212",08~19시,,01,,21561,NULL,에그드랍구월힐캐슬점,02,,1000,,37.455992676305,"결식아동,독거노인","동반 1인",
인천,99,01,황금명태,126.720151134664,"인천 남동구 구월로266번길 25","오전 11시 ~오후 10시20분",,01,"매월 첫째주 수요일 휴무",21534,4dae8679eed94a19a349a1eca327d575.jpg,황금명태,02,,336,"매콤명태조림 ,갈치조림,쭈꾸미철판",37.454540939303,결식아동,"동반 1인","매콤명태조림 ,갈치조림,쭈꾸미철판"
인천,99,"01,02","휴먼빌딩 102호 냠냠족발",126.708659384889,"인천 남동구 남동대로702번길 25",16시~24시,,01,"매주 수요일",21577,c23eb201da984f2584292a85dc145f60.jpg,"냠냠족발&보쌈 구월점",01,,17,싱글세트,37.4450764326939,"결식아동,독거노인","아이 본인만",싱글세트
인천,01,01,"d104호 베이커리 새참",126.707187953551,"인천 남동구 남동대로799번길 34",08:00~20:00,,01,없음,21555,48d8bcfcd0964246a66d581b69089f1d.jpeg,베이커리새참,01,,703,,37.4544057357535,결식아동,"아이 본인만",
인천,99,"01,02","향촌휴먼시아 1단지상가1층106호",126.731892131761,"인천 남동구 만수서로 53",오후2시~저녁11,,01,매주일요일,21523,9643257840d74330af553bd6917f8ee7.jpeg,"타코붐타코야끼 ",01,,378,"타코야끼14알 + 복숭아아이스티",37.4619965344426,"결식아동,독거노인","아이 본인만","타코야끼14알 + 복숭아아이스티"
인천,01,01,"1층 삼화리",126.698966158316,"인천 남동구 문화로 83-1",Pm3:00~am01:00,,01,없음,21568,NULL,삼화리,02,,815,,37.4466228743214,결식아동,"동반 1인",
인천,02,"01,02","1층 카페 포모(PO-MO)",126.698956422198,"인천 남동구 문화로89번길 8-18",오후1시-오후10시,,01,"일,월 휴무",21569,196e0c0a70034dd2b90802fac90e4dae.jpeg,포모(PO-MO),03,,628,,37.4479527416256,"결식아동,독거노인","동반 2인",
인천,99,"01,99",102호,126.697289171042,"인천 남동구 문화서로4번길 41-25","오전 11시 ~ 오후 8시","결식아동 보호자-학습용 기기만 가능",03,"오후 12시 ~ 오후 1시",21568,26581c08b9e14f9ca89e11966fd842be.jpg,캐츠워즈리서치,99,"컴퓨터 점검/수리 (20만원 한도)",683,"컴퓨터 점검/수리 (20만원 한도)",37.4459900457995,"결식아동,결식아동 보호자-학습용 기기만 가능","컴퓨터 점검/수리 (20만원 한도)","컴퓨터 점검/수리 (20만원 한도)"
인천,01,"01,02",102호,126.751984441249,"인천 남동구 서창남로 16-41",08시~19시,,01,,21618,1be78fd51d3947b8b534ac56494797a4.jpg,데니쉬마블,01,,337,,37.4217465787273,"결식아동,독거노인","아이 본인만",
인천,99,01,"1층 육해공생칼국수",126.708694269968,"인천 남동구 성리로 59","11:00 ~ 21:00",,01,"15:00 ~ 17:00",21577,a0a4582c90ab47bc8ef2aea42ef30339.jpg,육해공생칼국수,01,,1082,"모든 종류 칼국수",37.4479706568664,결식아동,"아이 본인만","모든 종류 칼국수"
인천,99,"01,02",111호,126.732668479503,"인천 남동구 하촌로 28-14",오전9시~오후6시,,02,둘째.넷째일요일,21540,f4a0012d71e445649242bfa54988002f.jpg,토담플라워,02,,210,"원예활동을 통한 심리치료및 상담",37.4503626469283,"결식아동,독거노인","동반 1인","원예활동을 통한 심리치료및 상담"
인천,99,"01,99","2층 2호",126.719356350287,"인천 남동구 호구포로 796","10시30분 ~ 20시30분",차상위가정/기초생활수급가정/한부모가정,03,없음,21534,d12b21c40ea54ee4a4315a4e2ca3f446.jpg,"이진헤어 구월점",99,"아이 본인 (미성년자모두)",999,"커트무료 (전화로 예약)",37.4533672005915,"결식아동,차상위가정/기초생활수급가정/한부모가정","아이 본인 (미성년자모두)","커트무료 (전화로 예약)"
인천,02,01,"네오피자 남동구점",126.718202502092,"인천 남동구 호구포로765번길 10","오전 11:00 ~ 익일 01:00",,01,연중무휴,21563,NULL,"네오피자 남동구점",01,,934,,37.45090676842,결식아동,"아이 본인만",
인천,99,01,"시골농부 쌀베이커리",126.637841390326,"인천 동구 송현로 59",11~9시(마감은유동적),,01,"일,월",22546,8e2cd7266d664b0a8f2764b713423359.jpg,시골농부,01,,283,"음료1잔  빵또는 디저트1개",37.4805884634693,결식아동,"아이 본인만","음료1잔  빵또는 디저트1개"
인천,01,"01,02","시민협력플랫폼 공감 2층 돌봄교실",126.692030335534,"인천 미추홀구 구월남로 20","오전 9시~오후11시",,99,"명절연휴만 휴무",22147,72635e25b85d4592bdd201bdbf0ef00d.png,"해아놀이터 사회적협동조합",99,"아동 모두(형제,자매)",766,,37.454566962388,"결식아동,독거노인","아동 모두(형제,자매)",
인천,99,01,우가돈정육점,126.662009018576,"인천 미추홀구 도화동 1005-6",9~21,,03,,22114,932bbc65bba5445d95c7f9274d4af25c.jpg,우가돈정육점,01,,706,"찌개고기 및 제육고기",37.4721367369009,결식아동,"아이 본인만","찌개고기 및 제육고기"
인천,99,"01,99","113호 글라스밤안경 인하대역점",126.649120152916,"인천 미추홀구 독배로 311",11시~21시,독거노인,99,명절,22188,NULL,"글라스밤 인하대역점",99,,258,"안경렌즈 안경테 포함 10만원이하",37.4481462350889,"결식아동,독거노인",,"안경렌즈 안경테 포함 10만원이하"
인천,02,01,"1층 을찌로국물떡볶이 용현점",126.648753750886,"인천 미추홀구 독배로403번길 18","오전11시부터 새벽2시까지",,01,월요일정기휴무,22176,f361b4bb1aaf4958a79cc86e4b80a638.jpg,을찌로국물떡볶이용현점,02,,987,,37.4561747586084,결식아동,"동반 1인",
인천,99,"01,99","대신프라자 4층 온더데스크 용현센터",126.633270358414,"인천 미추홀구 매소홀로 63","8:00am ~ 다음날 1:30am","급식카드 소지자",02,"휴무는 블로그와 인스타그램에 공지를 올리고 있습니다.",22190,NULL,"온더데스크 용현센터",01,,338,"독서실과 스터디카페 이용",37.4501856648832,"결식아동,급식카드 소지자","아이 본인만","독서실과 스터디카페 이용"
인천,01,01,205-1703,126.632681303818,"인천 미추홀구 매소홀로 68","9시부터 18시",,01,,22192,NULL,아린이네생선가게,01,,549,,37.4473942213671,결식아동,"아이 본인만",
인천,01,01,"땅땅치킨 미추홀점",126.680569594204,"인천 미추홀구 미추홀대로698번길 6",11:00~00:00,,01,없음,22140,9186ae45d13c4336b38d725de028806c.jpg,"땅땅치킨 미추홀점",01,,349,,37.4596394055556,결식아동,"아이 본인만",
인천,99,01,105호,126.661806551257,"인천 미추홀구 숙골로95번길 9",10:00-8:00,,99,없음,22100,8520ff66c7fe4fb58a2713034cf7d1d4.jpg,치치살롱,01,,684,"컷트 남여 무료, 모든품목 50%",37.470229808222,결식아동,"아이 본인만","컷트 남여 무료, 모든품목 50%"
인천,99,01,"족보있는집 미추홀점",126.666110724114,"인천 미추홀구 용현동 4-1","오후3시 - 새벽 2시",,01,"매주 화요일",22209,35c4e9c17f03435eb93f25b9e6d9152a.jpeg,"족보있는집 미추홀점",01,,311,"1인세트 , 커플세트1",37.4519241945089,결식아동,"아이 본인만","1인세트 , 커플세트1"
인천,99,"01,02,99","215호, 인하대학교김현태인하드림센터",126.651542258118,"인천 미추홀구 인하로 100","주중, 주말 협의 가능","생활보호대상자, 무상 교육 필요한 자",02,"주중, 주말 협의 가능",22212,b153d27a32ab4d41bc7fdf9cdb640a81.jpg,(주)대명테크놀로지,02,,89,"컴퓨터 교육, 3D 프린팅, CAD",37.4514480321002,"결식아동,독거노인,생활보호대상자, 무상 교육 필요한 자","동반 1인","컴퓨터 교육, 3D 프린팅, CAD"
인천,01,01,"1층 배떡",126.684522602841,"인천 미추홀구 주안동 1497-15","월,화,수,목 11~23 금,토,일 11~24",,01,,22230,20314d8612d84d62863d2d3ccffc489c.jpg,"배떡 주안점",99,"결식아동 동반자",1010,,37.4478103978328,결식아동,"결식아동 동반자",
인천,01,01,309호,126.726677034859,"인천 부평구 대정로 66",11:00~23:00,,99,,21395,8827c8b024df43499257f09531b68e91.png,문제적도둑,02,,237,,37.4935727158642,결식아동,"동반 1인",
인천,01,01,"106호 키친심플",126.720225380675,"인천 부평구 부평대로165번길 10","11:00 ~ 22:00",,01,"15:00 ~ 17:00",21364,NULL,키친심플,01,,947,,37.5059121713659,결식아동,"아이 본인만",
인천,99,01,지하1층,126.737503439473,"인천 부평구 부평문화로 190",11:00~20:00,,02,금요일,21401,46e1a3e5374e4e53878d84cc67ef887d.png,k88스케이트보드클럽,03,,369,스케이트보드교육,37.4934614860603,결식아동,"동반 2인",스케이트보드교육
인천,02,01,"가동 55,56,75,76호",126.72325889854,"인천 부평구 시장로 지하 10",12:00~9:30,,03,"매주 화요일",21394,NULL,"sommers2nd 부평지하상가",99,"여성의류라 여자 아이만 가능합니다",374,,37.4912344001737,결식아동,"여성의류라 여자 아이만 가능합니다",
인천,99,01,"부평시장로터리지하상가 35.36.39",126.726604496918,"인천 부평구 시장로 지하 42",AM11~pm7,,99,"매주 2째4째주 목요일",21392,11b7441dbccd4d4c88a3c5166452bc2f.jpg,또와스넥,99,"상황에따른 제공 푸르미 소지자 가능 ",313,"찌개류 쫄면 국수",37.4946112258291,결식아동,"상황에따른 제공 푸르미 소지자 가능 ","찌개류 쫄면 국수"
인천,99,01,.,126.697295886093,"인천 부평구 원적로 280","평일 오전 10시~오후 7시/토요일 오전 11시~ 오후",,01,,21371,NULL,디저트꼼,02,,674,"샌드위치  1개",37.5045612589089,결식아동,"동반 1인","샌드위치  1개"
인천,99,01,1층,126.672596329104,"인천 서구 가정로 339","AM10:30 ~PM 9:00",,99,"매주 화요일",22782,06a23835b474461caea4ecd0b2ee6fc1.png,윤헤어,01,,282,컷트,37.5152172022287,결식아동,"아이 본인만",컷트
인천,02,01,제일프라자102호,126.696451078924,"인천 서구 고산후로121번길 25",,,01,,22647,3d5a8f925e704027b99e1af94c74168b.jpg,원당오징어,99,형제자매,996,,37.5946322173721,결식아동,형제자매,
인천,99,"01,02","LG타운 101동 301호",126.703066140677,"인천 서구 고산후로78번길 43","오후 4시~오후9시",,01,매주토요일,22683,6afa9fb7aa584bbd81b9074b459e0641.jpg,김군네초밥,02,,570,초밥,37.5902638418379,"결식아동,독거노인","동반 1인",초밥
인천,01,01,"1층 설카츠",126.672548758206,"인천 서구 당하동 1081-8","월요일 11:00~14:30그외요일11:00~21:00",,01,"14시 : 30분 ~ 16시 : 30분 까지 재료 준비",22675,096d7efe669e41298cfd7dde6260dd3d.jpg,설카츠,01,,958,,37.5907077707344,결식아동,"아이 본인만",
인천,01,01,"한신종합상가 106호 킴아쿠아",126.681500429033,"인천 서구 서곶로 16",10:00~21:00,,99,연중무휴,22797,NULL,킴아쿠아,01,,343,,37.5201609166896,결식아동,"아이 본인만",
인천,99,"01,02,99","102호 ",126.674289918846,"인천 서구 석곶로22번길 3-8",PM9시,경찰관,01,월요일,22777,bda3b48b19e14af286191291b40c3e0c.jpg,"스타골목카페 ",01,,1067,빵+음료,37.519702195458,"결식아동,독거노인,경찰관","아이 본인만",빵+음료
인천,01,,"3층 YJ건축학원",126.671456826894,"인천 서구 석남동 516-4",10시~16시,,02,"매주월요일 ,국가 공휴일",22789,acc798c063fe48d492ab9c2eca45a08a.jpg,"건축도장방수기능사F4비자 YJ건축학원",99,결식아동,434,,37.5080203601888,Nan,결식아동,
인천,01,01,카페요일,126.653259117431,"인천 서구 세자봉로 140",오전9시~오후10시,,01,,22608,NULL,카페요일,03,,27,,37.6144899817911,결식아동,"동반 2인",
인천,02,01,"꼬기만땅 점보비빔밥",126.640155230163,"인천 서구 왕길동 695-2",오전11시~오후11시,,01,"매주 월요일",22657,06c73e997eb741d485117c74f8e8b887.jpg,"꼬기만땅 점보비빔밥",01,,232,,37.5965086178429,결식아동,"아이 본인만",
인천,99,01,"신광빌딩 1층 고기예술",126.667052747981,"인천 서구 율도로 43-1",14:00~22:00,,01,"첫째 셋째 일요일",22781,f01a35ce341941c7bcadda3220b57120.jpg,고기예술,03,,399,"고기예술 소고기2종모듬 및 식사메뉴",37.5138582248388,결식아동,"동반 2인","고기예술 소고기2종모듬 및 식사메뉴"
인천,99,"01,02",B06호,126.651980223225,"인천 서구 중봉대로612번길 10-20",18:00~03:00,,01,,22736,9afea29817f044268145bb6bda857c1d.png,유케마시타,03,,151,육회,37.5333517509746,"결식아동,독거노인","동반 2인",육회
인천,01,"01,02",1층,126.630916327418,"인천 서구 청라동 105-81",요일별로상이,,01,없,22765,NULL,"픽스치킨 인천 청라점",02,,342,,37.5245465972578,"결식아동,독거노인","동반 1인",
인천,02,01,"후문상가 카페84KM",126.629883098367,"인천 서구 청라동 85-1","0시9 ~ 21시",,01,없음,22753,70cd61f5147946c380cdd976255ec158.jpg,84KM,03,,741,,37.5376297069505,결식아동,"동반 2인",
인천,99,01,"지하1층 비101호",126.647441200644,"인천 서구 청라커낼로288번길 26",오전11~오후9시,,01,월요일,22762,b043afffe28b4abbb3e98413bf8e7834.png,스테이플버거(청라점),01,,1091,"오리지널치즈버거 외 다수 음료",37.5336604838556,결식아동,"아이 본인만","오리지널치즈버거 외 다수 음료"
인천,99,01,"업텐브로피자 검단점",126.672516130965,"인천 서구 청마로51번안길 6","매일 오후5시~새벽2시",,01,"매주 수요일",22675,02fc0f2a12a54b82aca4d4e44a63a9e4.png,"업텐브로피자 검단점",01,,964,"클래식피자 M사이즈",37.5906860564917,결식아동,"아이 본인만","클래식피자 M사이즈"
인천,99,01,"선학하키경기장 103호",126.701798292975,"인천 연수구 경원대로 526",09:00-18:00,,02,연중무휴,21908,228cf8a528a048f182746a32b7f33460.png,한국심폐소생술교육원,01,,824,"심폐소생술 교육 및 병의원 의료지원",37.430755839344,결식아동,"아이 본인만","심폐소생술 교육 및 병의원 의료지원"
인천,01,01,백탄깍두기,126.680118495002,"인천 연수구 벚꽃로 130-3","평일 오후4시~11시 / 주말 오후 2시~11시",,01,,21927,5fc55c6eff084587ba9ff4b257d49989.jpg,백탄깍두기,01,,840,,37.4162081497101,결식아동,"아이 본인만",
인천,01,01,지하1층,126.657917047216,"인천 연수구 송도국제대로 123","오전10시30분에서 20시30분까지",,01,없음,21984,f2c70bbacbd04dd3b841364383b3f6e1.jpg,풍국면송도현대아울렛점,01,,401,,37.3816291013573,결식아동,"아이 본인만",
인천,99,"01,02","연수제일빌딩 305호",126.67082587945,"인천 연수구 앵고개로 242","토,일 10:00~20:00",,99,,21972,NULL,"꽃꽂이 하린",02,,1086,"주말 꽃꽂이 수업 월 1회",37.4086563679205,"결식아동,독거노인","동반 1인","주말 꽃꽂이 수업 월 1회"
인천,99,01,"102호 비바살롱",126.655860573425,"인천 연수구 옥련로 147",11:00~20:00,,99,"따로없음.매주일요일 휴무",21954,b568537066e04843ac739262e2f93a2e.jpeg,비바살롱,01,,813,컷트,37.4256422084646,결식아동,"아이 본인만",컷트
인천,99,"01,99","2층 으뜸플러스안경",126.678891735571,"인천 연수구 용담로 129","오전10시부터 오후10시까지",급식카드소지자,03,"연중무휴 (명절당일만휴무)",21929,0089d3725f53445c80167e39ebb23db8.jpg,"으뜸플러스안경 인천연수점",01,,24,"안경테,안경렌즈 포함 5만원, 연1회",37.4141926765893,"결식아동,급식카드소지자","아이 본인만","안경테,안경렌즈 포함 5만원, 연1회"
인천,99,"01,02",휴대폰하우스,126.64597274618,"인천 연수구 인천타워대로54번길 9","10:30 ~20:00",,99,,22000,3abadd2590dd4e9bb87c75a2f3bc68a0.jpg,휴대폰하우스,01,,320,"휴대폰케이스, 필름, 중고폰 개통",37.3789877482576,"결식아동,독거노인","아이 본인만","휴대폰케이스, 필름, 중고폰 개통"
인천,,,(옥련동)거산프라자1층마블링정육점,126.647754088012,"인천 연수구 한진로25번길 4",,,99,,21949,NULL,"마블링정육점 ",,,379,,37.4249507704916,Nan,Nan,
기타,99,"01,02,99","해외 거주지 선택이 안되네요...ㅜㅜ",126.427699293474,"인천 중구 공항로 272","예약제♥ (시차 있음: PST)","고아/가출/한부모가정 등",02,"트위터 참고♥",22382,e940fa7421ee4bd0b6eac074dbf5c578.jpg,"벙어리 영어(?) 뜯어 고쳐 드려요♥",99,"동반 인원수 제한 없음; 온라인이라서",215,"[자음/모음] 부터 [업무회화] 까지",37.458350712273,"결식아동,독거노인,고아/가출/한부모가정 등","동반 인원수 제한 없음; 온라인이라서","[자음/모음] 부터 [업무회화] 까지"
인천,99,01,106호,126.563517208536,"인천 중구 영종대로 911",11:00-22:00,,01,,22397,18f2f4618f4f435196e42462ab2b76e3.jpg,"고피자 영종하늘도시점",02,,563,"피자&사이드 세트",37.4873357099561,결식아동,"동반 1인","피자&사이드 세트"
인천,99,01,117호,126.563517208536,"인천 중구 영종대로 911",11:00-21:00,,01,15:30-17:00,22397,7f727078fabe481eb0130c7ae416d98e.png,"온센 영종하늘도시점",02,,562,"텐동류 중 택1",37.4873357099561,결식아동,"동반 1인","텐동류 중 택1"
인천,99,01,101호,126.563517208536,"인천 중구 영종대로 911",11:00-22:00,,01,15:30-17:00,22397,75a1d6c4e8d94b58a8e11e4d138a93b8.jpg,"샤브보트 영종하늘도시점",02,,564,"샤브샤브 택1+음료",37.4873357099561,결식아동,"동반 1인","샤브샤브 택1+음료"
인천,01,"01,02","1층 송가냉면",126.564427312939,"인천 중구 월촌길 30",11~~23시,,01,화요일휴무,22391,424b597276984dc3bbf33c27c2209325.jpg,송가냉면,02,,362,,37.4966032464579,"결식아동,독거노인","동반 1인",
전남,02,"01,02","2-1차상가 2층 대왕푸드",127.69043633463,"전남 광양시 광장로 70",10시30분~9시,,01,2시30분~4시30분,57792,NULL,대왕푸드(김치찌개&알곤이탕&비빔밥),01,,498,,34.9334073497958,"결식아동,독거노인","아이 본인만",
전남,99,01,"3층 아모레광양특약점",127.705040790287,"전남 광양시 눈소3길 35","오전 8시 30분 ~ 오후 5시",,99,"오전 12시 ~ 오후 1시",57797,NULL,아모레광양특약점,99,"인원 30명내",462,"비누 및 생활용품",34.9377019677681,결식아동,"인원 30명내","비누 및 생활용품"
전남,,"01,99",1층,127.701214117438,"전남 광양시 동광2길 22",11시~22시,"임산부 본인/현역병사 본인",01,"월요일 ",57786,d16e7a0d8cf34a5ea07e1b167ead7d93.jpg,"삼형제 장어마트 ",99,,149,,34.9425708664147,"결식아동,임산부 본인/현역병사 본인",,
전남,01,01,맘마쿡,127.69860853479,"전남 광양시 중마청룡길 29",09:00~18:00,,01,"토,일,공휴일",57786,651bed953cea4cf68010fcc05e7e1408.jpeg,맘마쿡,99,"아이 양육자",820,,34.9423113217873,결식아동,"아이 양육자",
전남,01,"01,02","1층 잘먹겠습니다 광양점",127.691494533717,"전남 광양시 중촌길 28",24시간,,01,14시~17시,57789,NULL,"잘먹겠습니다 광양점",01,,1003,,34.9383521975756,"결식아동,독거노인","아이 본인만",
전남,99,"01,99","상가 3층 하버드스터디카페 마동점 ",127.688752620487,"전남 광양시 진등길 55-5",24시간,"이용대상 :고등학생만이용가능",02,무,57778,244112cd732d4d84b42b552083bafea3.png,"하버드스터디카페 마동점",01,,885,일일권,34.9528714312747,"결식아동,이용대상 :고등학생만이용가능","아이 본인만",일일권
전남,01,"01,02","아주드림타워  111호",126.79389659186,"전남 나주시 그린로 351","12시~밤12시까지 ",,01,2시~4시,58325,cc017a22ce9c47e19f7a3c6158792df3.jpg,"고집쟁이족발 나주혁신점 ",02,,188,,35.0178940854565,"결식아동,독거노인","동반 1인",
전남,99,01,"1층 113호 동글 휴대폰매장",126.786862086971,"전남 나주시 월정1길 10",11시~20시,,99,"공휴일, 일요일",58328,NULL,동글,01,,953,"휴대폰케이스, 필름, 충전기",35.0127367741931,결식아동,"아이 본인만","휴대폰케이스, 필름, 충전기"
전남,02,"01,02",110호,126.464957309428,"전남 무안군 삼향읍 남악3로82번가길 45",,,01,,58567,ec1b6b4e0c3d4a3696ba1ba070c2c6fe.jpg,"낭만 꽃 한 송이",02,,1020,,34.8140078547342,"결식아동,독거노인","동반 1인",
전남,01,"01,02","삼대떡볶이 남악점",126.47256939025,"전남 무안군 삼향읍 남악리 1650","낮12시 ~ 밤 9시",,01,,58568,9b20ea7586c3482f83e2212b375f896f.jpg,"삼대떡볶이 남악점",03,,854,,34.8111398484007,"결식아동,독거노인","동반 2인",
전남,01,"01,02","2층 롤링파스타",126.461741736018,"전남 무안군 삼향읍 대죽서로 29",11:00-22:00,,01,15:00-17:00,58567,d4733a2acf1147d590e9233efe512ce8.jpeg,"롤링파스타 무안 전남도청점",03,,1050,,34.8113877333597,"결식아동,독거노인","동반 2인",
전남,99,02,,126.496324258513,"전남 무안군 일로읍 인의로 645","월-금 10-5시",,01,12-1시,58574,NULL,그랜마펌킨,02,,541,"그랜마펌킨 호박즙",34.847835571278,독거노인,"동반 1인","그랜마펌킨 호박즙"
전남,,"01,99",4층,127.483915289642,"전남 순천시 가곡1길 7",,"14세~20세 청소년",99,,57923,NULL,나디하타요가,01,,363,,34.9796811716472,"결식아동,14세~20세 청소년","아이 본인만",
전남,01,"01,02","2층 파운트리",127.519896578262,"전남 순천시 비봉길 88",10:00~20:00,,01,일요일,57934,9f9f75ed5b8247b8a650e157241fbf54.jpg,파운트리,01,,565,,34.9656113426491,"결식아동,독거노인","아이 본인만",
전남,02,01,초록마을오천점,127.494954456151,"전남 순천시 오천6길 54-1",10~21,,01,명절휴무,57999,NULL,초록마을오천점,02,,425,,34.9352420890045,결식아동,"동반 1인",
전남,02,01,"현대1차 상가 현대마트사과나무",127.530272876031,"전남 순천시 왕궁길 65",09:00~23:00,,99,"일요일 오전",57970,37b88e4141e44e27870930f9befe1306.jpg,현대마트사과나무,01,,390,,34.9572886946448,결식아동,"아이 본인만",
전남,99,,,127.490132221712,"전남 순천시 용당둑길 153",11시-18시,,01,,57943,NULL,"베니샤프본점 ",02,,578,모든음료+케이크한조각,34.9584282749371,Nan,"동반 1인",모든음료+케이크한조각
전남,99,01,"순천 케이글라스안경 ",127.526489678781,"전남 순천시 조례못등길 18","어전 10시 부터 오후 9시까지",,99,"일요일  휴무입니다",57968,b3c511320f6343e8a106682025ee3d23.jpg,"순천 케이글라스안경 ",01,,757,"시력교정용 안경",34.9540090878265,결식아동,"아이 본인만","시력교정용 안경"
전남,01,01,"1층 이디야 순천대 정문점",127.484080719694,"전남 순천시 중앙로 270","09:00  ~ 22:00",,01,무,57938,3fabe6739d514e329283ac432dac09c8.jpg,"이디야 순천대 정문점",02,,299,,34.969846318756,결식아동,"동반 1인",
전남,99,"01,99","2층 마스터짐",127.48268004269,"전남 순천시 중앙로 310",07:00~22:00,"어려움이 있는 모든 아이",99,"일요일, 공휴일",57923,639e94b516b64f5e9dd92298eccdb17d.png,마스터짐,01,,879,"헬스,킥복싱,엘리트선수트레이닝",34.9732928091698,"결식아동,어려움이 있는 모든 아이","아이 본인만","헬스,킥복싱,엘리트선수트레이닝"
전남,01,99,"메가박스 1층 126호 소율의캘리그라",127.510856293357,"전남 순천시 충효로 15",오전10~오후8시,"저소득자녀중 배우고싶어하는아이",02,일요일,57964,ed174ca6138d4d2dae90fdc26a4aaed2.jpg,"소율의캘리그라피 ",01,,200,,34.9412469710257,"저소득자녀중 배우고싶어하는아이","아이 본인만",
전남,01,"01,02",제주거멍돗,127.48673348587,"전남 순천시 환선로 145",17:00~22:00,,01,"첫째,셋째 화요일",57938,28cf2c6257814b708a715d70383aa23b.jpg,제주거멍돗,03,,387,,34.9682875105863,"결식아동,독거노인","동반 2인",
전남,01,"01,02","상가 A103호 식사준비",127.744372833286,"전남 여수시 덕충안길 84",am10:00~pm8:00,,99,"매주 일요일 휴무",59723,9b7117f1f8d447ccbae165502eefd6bf.jpeg,"식사준비 여수엑스포점",01,,1043,,34.7535512470771,"결식아동,독거노인","아이 본인만",
전남,99,01,"1층 하늘아쿠아",127.695072943393,"전남 여수시 문수7길 9-5",오후1시~오후7시,,99,,59703,NULL,하늘아쿠아,01,,732,"열대어, 사료",34.7552658432814,결식아동,"아이 본인만","열대어, 사료"
전남,01,"01,02","1층 만물상회",127.669922996417,"전남 여수시 신기남2길 24",11:30~20:00,,01,"15:00~17:00 홀 브레이크 / 매주 일요일 휴무",59687,b4d7ccb1f590402bb48dab0297d3d635.jpeg,만물상회,02,,893,,34.7601943967929,"결식아동,독거노인","동반 1인",
전남,01,01,1층,127.749026188958,"전남 여수시 이순신광장로 266",11:00~22:00,,01,.,59745,2ba3035650e943eb843ec0c98b60d8e4.jpg,"피자알볼로 여수엑스포점",01,,403,,34.7432435806294,결식아동,"아이 본인만",
전남,99,01,73,126.905998626373,"전남 장흥군 장흥읍 중앙로 73","평일 9시~7시,토요일 5시까지",,99,"일요일,공휴일 휴무",59328,5a1423e0ed574140a4ad7b5b41e4ff74.jpg,미래컴퓨터,02,,843,"컴퓨터 프로그램 수리비 무료",34.6822969728717,결식아동,"동반 1인","컴퓨터 프로그램 수리비 무료"
전남,99,01,3층,126.992790314297,"전남 화순군 화순읍 대교로 123",14시~21시30분,,02,법정공휴일,58115,859602dcfaec451cb57b56f440b16994.jpg,제3교실학원,01,,186,리드인독서,35.0635194721627,결식아동,"아이 본인만",리드인독서
전북,02,01,"언니네 찬",126.701385146865,"전북 군산시 나운4길 29-4",11시~7시,,99,"일요일 공휴일",54139,8e182d5cfdee48c4ae75e4ae4b81006d.jpg,"언니네 찬",01,,883,,35.9643420842461,결식아동,"아이 본인만",
전북,02,01,"2층 ",126.714122150454,"전북 군산시 동령길 12","오전 10~오후 5시",,01,"공휴일,토요일,일요일",54026,1a100c5dddcc41059f8e3535feccc895.jpg,soondubu,01,,252,,35.9867674139441,결식아동,"아이 본인만",
전북,99,"01,02","1층 시온사진관",126.745381467999,"전북 군산시 백릉로 174","(월 ~ 토) 10:00 ~ 19:00",,03,"일요일, 공휴일",54074,2fe4b8853ba84f46a021be5bcbb25213.png,시온사진관,01,,48,,35.9754940856905,"결식아동,독거노인","아이 본인만",
전북,99,01,군산미장원,126.70656061826,"전북 군산시 서수송안2길 26",am10:00~pm20:00,,99,"매주화요일 일요일12시오픈",54137,NULL,군산미장원,01,,651,남성컷,35.9655660210726,결식아동,"아이 본인만",남성컷
전북,02,"01,02,99","1층 마주봄펫",126.719476483017,"전북 군산시 수송동로 15","11:00 ~ 19:00 예약제로 운영되어 변동가능","기초생활수급자, 유기견입양자",99,"일월휴무 예약제로 운영되어 변동가능",54100,5c0c6f96d7cb4ce4827b48e84765fa3c.jpeg,마주봄펫,99,"제공대상 가정의 반려견",837,,35.9610129519441,"결식아동,독거노인,기초생활수급자, 유기견입양자","제공대상 가정의 반려견",
전북,99,01,"2층 미스터피자",126.900203184336,"전북 김제시 도작로 104",11:30~20:30,,01,14:00~17:00,54376,436b27a7ebd64c8ab12efad24b456434.jpg,미스터피자,01,,247,피자뷔페,35.8038496819627,결식아동,"아이 본인만",피자뷔페
전북,01,01,명진상가106호,127.161325998326,"전북 완주군 봉동읍 봉동동서로 76",10시30분~6시30분,,01,일요일,55328,262d280e4e9e436bbdbc8044942d3bec.jpg,간식열차,02,,499,,35.9358185704491,결식아동,"동반 1인",
전북,99,"01,99",1,127.052985669084,"전북 완주군 삼례읍 삼례역로 192-24",24시간,노인,03,무휴,55337,374d08e2a0bc45dfb1438a4b49d91deb.jpg,소유,99,"집수리 밎 경미한공산  단열 난방",739,"집수리 및  단열 난방공사",35.9064419351468,"결식아동,노인","집수리 밎 경미한공산  단열 난방","집수리 및  단열 난방공사"
전북,01,01,101호,127.057242530699,"전북 완주군 이서면 오공로 11-10",16:00~01:00,,01,,55365,f64bd7a1cd6b421bb1372f415864c810.jpg,가마꿉혁신점,03,,297,,35.8365066256817,결식아동,"동반 2인",
전북,99,01,새맛뜰,126.973312580829,"전북 익산시 고봉로34길 20","오전11시30분 오후8시30분",,01,매주일요일휴무,54545,756f222db7f242ef9cff18992a1bb2d5.jpg,새맛뜰,02,,135,갈비탕,35.9600232944035,결식아동,"동반 1인",갈비탕
전북,99,01,"1층 파양파군 두마리치킨",126.942912368183,"전북 익산시 고현로 74","화~금 : 낮12시~밤10시/주말 : 낮11시~밤10시",,01,"매주 월요일 휴무",54661,118928f9385a4a4b8142177874fd7420.jpg,"파양파군 두마리치킨",01,,487,"순살치킨 한마리 (맛선택가능)",35.9436651655887,결식아동,"아이 본인만","순살치킨 한마리 (맛선택가능)"
전북,02,01,"상가 온정성담아",126.987435770814,"전북 익산시 무왕로22길 41",09:30-19:30,,01,"매주일요일 휴무",54566,NULL,ON정성담아,01,,511,,35.9557333577877,결식아동,"아이 본인만",
전북,02,01,"상가 103호 우미분식",126.987435770814,"전북 익산시 무왕로22길 41",12:00-19:00,,01,"토요일 일요일 휴무",54566,NULL,우미분식,01,,649,,35.9557333577877,결식아동,"아이 본인만",
전북,99,01,"1층 모로롱",126.943677239231,"전북 익산시 선화로13길 49","08:00am ~ 07:00pm",,01,미정,54655,94b17960233d4a1aa307594e1da9af92.jpg,모로롱,01,,1005,"원하는 음료 1잔 + 쿠키 1개",35.952369897296,결식아동,"아이 본인만","원하는 음료 1잔 + 쿠키 1개"
전북,99,"01,02","카페 테리어",126.947453128228,"전북 익산시 황등면 황등중앙로 21",11:00~21:00,,01,,54533,1875f263d684402d9729cf7ef654f7ed.png,테리어,99,본인,99,"1인 1음료",35.9959865505026,"결식아동,독거노인",본인,"1인 1음료"
전북,99,01,만두가,127.155768244886,"전북 전주시 덕진구 견훤로 301","오전 10시~  오후10시",,01,일요일,54920,9640e7679e1a4a4586ed3c117a371ef8.jpg,"강경원달인 만두가",02,,414,"먹고 싶은 메뉴 2가지",35.8383005964239,결식아동,"동반 1인","먹고 싶은 메뉴 2가지"
전북,99,"01,02",쏘울메이드,127.115037045505,"전북 전주시 덕진구 두간11길 17",10시~19시,,03,"일요일,화요일",54830,d4a32d01862c4676ae3e0d064c1ae143.jpg,쏘울메이드헤어샾,01,,245,컷트,35.8638159706398,"결식아동,독거노인","아이 본인만",컷트
전북,01,01,"1층. 모두랑떡볶이 ",127.126432573429,"전북 전주시 덕진구 명륜4길 21-6","오전 10시~ 오후 21시까지",,01,없음,54898,fcae4aa547b94771b05a9f19bcffe3dd.jpg,모두랑떡볶이,02,,515,,35.8442020414777,결식아동,"동반 1인",
전북,01,"01,02","1층 커피니",127.159397828237,"전북 전주시 덕진구 백제대로 835",10:00~24:00,,01,없습니다,54908,66bd47a4e12941be865663385b28c800.jpg,커피니(전주역점),01,,920,,35.8492753905808,"결식아동,독거노인","아이 본인만",
전북,02,01,2층,127.156232853731,"전북 전주시 덕진구 인후동1가 765-23",14-20,,02,,54913,9f3d816c38f54751b1a2f33d99afe2d5.jpg,하이탑영어수학전문학원,01,,1041,,35.8385052095575,결식아동,"아이 본인만",
전북,99,01,"1층 103호 채선당도시락 전주송천점",127.12775606744,"전북 전주시 덕진구 천마산로 54",오전10시~오후8시,,01,,54823,8d33882913fa4032a238d8a748f0bd7a.jpg,"채선당도시락&샐러드 전주송천점",01,,711,"'정식도시락' 메뉴 중 택1",35.8641138712894,결식아동,"아이 본인만","'정식도시락' 메뉴 중 택1"
전북,02,"02,99","1층 101호 백구댁",127.157229707648,"전북 전주시 완산구 관선5길 8","오후1:00 오후 6:00",미혼모,99,토요일일요일,55033,NULL,백구댁,02,,743,,35.8224204160342,"독거노인,미혼모","동반 1인",
전북,99,01,"세컨페이스 안경원",127.117020616892,"전북 전주시 완산구 용머리로 62",09:00-20:30,,99,연중무휴,55081,2108a5e45f9d4ac88f9ed5f472bad6e3.jpg,"세컨페이스안경 전주점",01,,831,학생안경.안경렌즈,35.8063305582677,결식아동,"아이 본인만",학생안경.안경렌즈
전북,02,01,1층,127.117046831646,"전북 전주시 완산구 전룡로 36","10:00 ~ 23:30",,01,"비 정기적",54954,dca49f51d0aa43ee824014d630499607.jpg,지정환피자서신진북점,02,,801,,35.826379800418,결식아동,"동반 1인",
전북,99,01,3호,127.143216459473,"전북 전주시 완산구 태평5길 47",10:00~18:00,,01,"매주 일요일",54996,9715647c6da246f88ea30347b836d968.png,샘별방앗간,01,,76,"소매떡 중 1인2팩",35.824736321052,결식아동,"아이 본인만","소매떡 중 1인2팩"
기타,,,"풍남동 3가",127.153481760058,"전북 전주시 완산구 한지길 66",,,99,,55041,00d30fd56a614090b511a55e39455131.png,"유한회사 미래나르기 ",,,864,,35.8173892904894,Nan,Nan,
전북,99,"01,02,99","상가 101호",127.111360492773,"전북 전주시 완산구 홍산북로 83",09시~18시,"소방공무원 50% 할인(공무원증확인)",01,"공휴일, 매주 일요일 휴무",54969,c903bb7a61904fa5bbe49277e8debe22.jpg,카페더헤링본,99,"아이 본인 및 가족 등 동반인 모두",16,"모든메뉴, 없는메뉴도 만들어드립니다.",35.8183535350013,"결식아동,독거노인,소방공무원 50% 할인(공무원증확인)","아이 본인 및 가족 등 동반인 모두","모든메뉴, 없는메뉴도 만들어드립니다."
전북,99,01,군자대한곱창신시가지점,127.109320266749,"전북 전주시 완산구 홍산중앙로 30",16:30~02:30,,01,연중무휴,54969,027b946a84154cf1a2a89f093eaec762.png,군자대한곱창전주신시가지점,02,,288,"대창떡갈비 또는 깍두기볶음밥",35.8162925120606,결식아동,"동반 1인","대창떡갈비 또는 깍두기볶음밥"
제주,99,01,이노에듀타운A107호,126.277016607967,"제주특별자치도 서귀포시 대정읍 글로벌에듀로 382",,,01,"매주 일요일",63644,7a01d72c3dfe442ba98a29306d440581.jpg,홀푸르츠마켓,01,,243,과일도시락,33.2803239147106,결식아동,"아이 본인만",과일도시락
제주,02,01,"1층 스시구",126.511068193393,"제주특별자치도 서귀포시 신서귀로 49",오전11시30분~오후9시,,01,오후2시30분~오후5시,63566,1c1a5cbbde7f42808b667a548a05962b.jpg,스시구,02,,735,,33.2534197996435,결식아동,"동반 1인",
제주,01,"01,02",올드캡,126.301913338489,"제주특별자치도 서귀포시 안덕면 녹차분재로 58","오전11시-오후7시 (라스트오더:오후6시30분)",,01,"매주 수요일",63521,1cf4a0c9a9184110a379be95f93d0022.jpg,올드캡,02,,823,,33.2908735852658,"결식아동,독거노인","동반 1인",
제주,99,01,찰리스,126.369608982059,"제주특별자치도 서귀포시 예래로 454","11:30 - 20:00  15-17시 브레이크타임",,01,"일월 휴무",63538,NULL,찰리스,02,,26,"스테이크제외 모든 메뉴",33.235363439038,결식아동,"동반 1인","스테이크제외 모든 메뉴"
제주,99,01,"2층 낙곱새녀석들",126.564198344877,"제주특별자치도 서귀포시 이중섭로 19",11~01,,01,"매주 월요일",63595,bca147b3497a4bdba07ce9195e70ba3e.jpg,루트84,02,,965,"조리비,배달료,음료,밥*배달의민족참고",33.2461873614903,결식아동,"동반 1인","조리비,배달료,음료,밥*배달의민족참고"
제주,01,01,"1층 호끌랑 카페",126.557463659025,"제주특별자치도 서귀포시 장수로 98",오전11시~오후8시,,01,"매주토요일,설명절,추석명절 휴무",63584,3151d5a86a5d44a78734b5a8e7c5ca4a.jpg,호끌랑,01,,266,,33.256282301752,결식아동,"아이 본인만",
제주,99,01,"옛날아우내순대 중문점",126.433468672948,"제주특별자치도 서귀포시 천제연로 268",10시~22시,,01,"매주 토요일 휴무",63544,98edfc7e9f1c41f1b670cc3eafd2edb2.jpg,"옛날아우내순대 중문점",02,,936,식사류,33.250917948251,결식아동,"동반 1인",식사류
제주,02,01,"1층 갓더라면",126.843770637206,"제주특별자치도 서귀포시 표선면 민속해안로 580",8시~20시,,01,"매주 화요일",63629,7b377a9c901c4472a2b64e02a664b0fa.jpg,표선해비치갓더라면,02,,351,,33.3251834882187,결식아동,"동반 1인",
제주,01,99,네일홍,126.83140405492,"제주특별자치도 서귀포시 표선면 표선중앙로 64-1",07~22,손발톱관리케어필요한분,99,일요일,63629,121b5dc2335f4568bf2797f3b6fb00cf.jpg,네일홍,02,,406,,33.3269158480375,손발톱관리케어필요한분,"동반 1인",
제주,99,01,"1층뽕끌랑 ",126.538333900307,"제주특별자치도 제주시 구남동1길 11",12시~8시반,,01,토.일,63231,3eac6df83245418db78e9d1c8714b809.jpg,뽕끌랑,01,,221,생일케이크(원하는사이즈미리연락주세요),33.4914668102021,결식아동,"아이 본인만",생일케이크(원하는사이즈미리연락주세요)
제주,99,"01,02,99","2층 슛다요가",126.538789313763,"제주특별자치도 제주시 구산로 35","새벽 5시40분~ 밤 9시반까지","한부모 자녀",02,,63236,7b7e372095134c9799f8556ce46758d4.jpg,슛다요가,01,,428,"수련비 무료",33.4835442999061,"결식아동,독거노인,한부모 자녀","아이 본인만","수련비 무료"
제주,99,01,평대우유차,126.837174492841,"제주특별자치도 제주시 구좌읍 해맞이해안로 1108","오전 11시~오후 7시",,01,없음,63359,ccb6c2a416264b0ab8dab64523396006.jpg,평대우유차,01,,1057,"우유 선택 1병",33.537736582802,결식아동,"아이 본인만","우유 선택 1병"
제주,01,01,"1층 시나르",126.477654999146,"제주특별자치도 제주시 노형10길 3",am11:30-pm10:00,,01,pm2:30-pm5:00,63083,8d5576f9db4446ef8b7b8b32f765dc30.jpeg,시나르,03,,664,,33.4839087574425,결식아동,"동반 2인",
제주,02,"01,02","1층 카페파생",126.535736713925,"제주특별자치도 제주시 신산로11길 15","12:00 - 21:00",,01,목요일,63271,NULL,파생,01,,528,,33.507642501393,"결식아동,독거노인","아이 본인만",
제주,01,01,"지하 44호",126.528822780747,"제주특별자치도 제주시 신성로 91",12:00~20:00,,01,"매주 일요일 ",63200,defb8dd8136e492c93fd0ecc92330c2a.jpg,"시장초밥 ",02,,116,,33.4964446814038,결식아동,"동반 1인",
제주,02,"01,02",1층,126.5106388182,"제주특별자치도 제주시 용담이동 2630-1","오전 10시 - 오후 8시",,99,없음,63163,137409ef94ba4dc7a73a7e518dc7c2ef.jpg,"고릴라캠핑 제주점",01,,921,,33.5008675541224,"결식아동,독거노인","아이 본인만",
제주,01,01,"2층 살롱드청춘",126.548640534808,"제주특별자치도 제주시 인다5길 11-12","오전 11시 ~ 오후 8시",,99,"매주 월요일",63247,0d12d5f283cc4bb0affb734ea945dc0a.jpeg,살롱드청춘,01,,555,,33.4756914205058,결식아동,"아이 본인만",
제주,01,01,"1층 어셈블헤어",126.475099548242,"제주특별자치도 제주시 정존7길 3",11:00~20:00,,03,"없음, 예약제",63102,NULL,어셈블헤어,01,,28,,33.4836890617049,결식아동,"아이 본인만",
제주,99,01,"1층 롤타이드",126.665181343855,"제주특별자치도 제주시 조천읍 조함해안로 490",17:00~21:00,,01,,63333,5c1204c110414d34bc320e5ef9a0a8f8.jpg,롤타이드,03,,723,"타코 전 종류",33.5425514495786,결식아동,"동반 2인","타코 전 종류"
제주,99,"01,02","1층 해녀김밥",126.665181343855,"제주특별자치도 제주시 조천읍 조함해안로 490",9-20,,01,"목요일정기휴무 3-5시브레이크타임",63333,41120063f06c4a5e9d1ceac8e2028c39.jpg,"해녀김밥 본점",01,,535,전복김밥,33.5425514495786,"결식아동,독거노인","아이 본인만",전복김밥
제주,99,01,오데뜨,126.295578088098,"제주특별자치도 제주시 한림읍 중산간서로 4995-6",12:00~20:00,,01,월요일,63022,NULL,오데뜨,01,,733,날치알크림우동,33.4108751922188,결식아동,"아이 본인만",날치알크림우동
제주,01,01,1층,126.244514665622,"제주특별자치도 제주시 한림읍 협재3길 9","7시 ~ 10시 (대상자들은 언제든지 가능)",,01,일요일,63011,bc2852366594473a81fa18464ebe2700.jpg,엔게디식당,02,,523,,33.3984226172751,결식아동,"동반 1인",
제주,99,"01,99","1층 써니의놀이터",126.249119052132,"제주특별자치도 제주시 한림읍 협재로 113",11~7시,"한부모가정, 조부모가정,급식카드 아동",01,화수목금,63011,6ca664e248dd49ad9619df3793859588.jpg,써니의놀이터,01,,1058,"1인 1일 떡 2개",33.3881797513958,"결식아동,한부모가정, 조부모가정,급식카드 아동","아이 본인만","1인 1일 떡 2개"
충남,01,01,홍금순왕만두찐빵,127.08726372511,"충남 논산시 계백로 990",오전9시~오후9시,,01,"7월~8월 휴무",32974,e8603a8051814798be28e3e35a1bec60.jpg,홍금순왕만두찐빵,01,,250,,36.202661233216,결식아동,"아이 본인만",
충남,99,01,1층,127.08943666645,"충남 논산시 중앙로410번길 13-4",오전11시~오후9시,,01,없음,32974,NULL,짬뽕지존논산점,01,,873,짜장면,36.2017616706042,결식아동,"아이 본인만",짜장면
충남,01,01,불고기부대,126.774901303917,"충남 당진시 합덕읍 합덕교동1길 11",오전11시부터오후10시까지,,01,매주일요일휴무,31812,a8194f91fba84518b5d8d299c93ea6c3.jpg,불고기부대,03,,400,,36.8074337966397,결식아동,"동반 2인",
충남,01,01,1층,126.912949780315,"충남 부여군 부여읍 궁남로 5","오전 9시 ~ 오후 5시",,01,없음,33166,5c0fa06a2e364666a0b1c681aea1713f.jpeg,사비면옥,01,,857,,36.2756972202246,결식아동,"아이 본인만",
충남,99,01,"103호 루아공방",126.467609657121,"충남 서산시 고운로 290",예약제운영,,99,,31979,250742e728ec42ef9085191e1229b21b.png,루아공방,01,,1049,"원데이 클래스 체험비&재료비",36.7840640387555,결식아동,"아이 본인만","원데이 클래스 체험비&재료비"
충남,02,"01,02","상가동  103호",126.459110470012,"충남 서산시 서령로 107",13시~21시,,01,"일요일 휴무",31965,0daf8fd4e04a420e9be2f9a001d18cfb.jpg,"효자동닭꼬치 서산점",02,,606,,36.791045740707,"결식아동,독거노인","동반 1인",
충남,99,01,"2층 헤어바이제이제이 ",126.464806183792,"충남 서산시 율지18로 31","10:00 - 18:30",,99,일요일휴무,31993,5a26546133d34c68a3630643901cfa84.jpg,"헤어바이제이제이 ",01,,955,컷트,36.7784233404593,결식아동,"아이 본인만",컷트
충남,99,"01,02","1층 버터몽",126.457756307626,"충남 서산시 한마음3로 27-4","11:00~19:00 소진시마감",,01,"월,화",31991,8fa9a9996fa64a4a9a34c9f053dcb444.jpg,버터몽,01,,617,"쿠키1개,우유1개",36.7765394643002,"결식아동,독거노인","아이 본인만","쿠키1개,우유1개"
충남,,01,동근이숯불두마리치킨,127.011606787328,"충남 아산시 권곡동 534-15","오후4시~익일 새벽1시30분",,01,,31519,NULL,동근이숯불두마리치킨,02,,822,,36.7865693971478,결식아동,"동반 1인",
충남,99,"01,99",105-1307,127.05712639276,"충남 아산시 배방읍 배방로 57-22",24시,독거노인,01,,31488,23ddc8f381b64749ba5c7caa95f278e0.jpg,집밥뚝딱,02,,1088,밀키트,36.7719726778516,"결식아동,독거노인","동반 1인",밀키트
충남,01,"01,02",이마트24,127.077533019099,"충남 아산시 배방읍 월천6길 35",6시~24시,,99,,31496,285278e4ab2647b38c5d8eeb6ac8aeb4.jpg,이마트24아산북수리치점,01,,253,,36.7709495352694,"결식아동,독거노인","아이 본인만",
충남,01,01,"1층 한그릇",127.00807897203,"충남 아산시 온화로 97",오전11시~오후8시,,01,"매주 수요일휴무",31574,a4535a3b131342808ad8573661a71a50.jpg,한그릇,02,,896,,36.776725001274,결식아동,"동반 1인",
충남,01,01,상가2동11호,127.088785283004,"충남 아산시 탕정면 매곡중앙3로 36","평일 08:30~19:30 주말,휴일 08:30~21:",,01,없음,31465,73a1883856f64761853f7ef72b02fce0.jpg,구공제주커피아산탕정역점,01,,970,,36.7841532908917,결식아동,"아이 본인만",
충남,01,"01,02","1층 생과일다방",127.149650032138,"충남 천안시 동남구 대흥로 301","08:00 ~ 21:00",,01,"매주 일요일",31121,72848b44bfc040c0ad51cf5d3c7721f8.png,생과일다방,02,,803,,36.8148045327732,"결식아동,독거노인","동반 1인",
충남,02,"01,02","1층 카페데이오프",127.150124727591,"충남 천안시 동남구 영성로 86","월-금 09:00~20:00",,01,"인스타그램,네이버에 공지",31131,108cbf2a686c411ca2cb9d6ed000b912.jpeg,카페데이오프,01,,646,,36.8058833024357,"결식아동,독거노인","아이 본인만",
충남,01,01,2층,127.170391057866,"충남 천안시 동남구 향교1길 104-24",12:00~21:00,,01,"월요일 정기휴무",31068,df1a7709919048379ed179f506b03e80.png,카프닉,02,,1039,,36.8146187488338,결식아동,"동반 1인",
충남,99,01,"봉하빌딩 1층 반디오 미용실",127.131019525416,"충남 천안시 서북구 두정동 682-3","10:00 ~ 20:00",,03,"매주 화요일",31090,56624bb19f984b898b3fcf47c5baf936.jpeg,반디오,01,,1024,커트,36.833100818314,결식아동,"아이 본인만",커트
충남,01,01,"102호 포호아쌀국수",127.14371450053,"충남 천안시 서북구 두정상가5길 24",10:00~22:00,,01,"매주 화요일 휴무",31105,025ffba1041542da819bea6ff79a826d.jpg,"포호아 천안두정점",02,,922,,36.8320033810664,결식아동,"동반 1인",
충남,01,01,"1층 이팔떡볶이",127.130505472287,"충남 천안시 서북구 미라8길 28",오전10시~오후9시,,01,"매주 일요일 휴무",31155,0d8167f313c54b6faabc6af543793e1b.jpeg,이팔떡볶이,02,,566,,36.8027563439221,결식아동,"동반 1인",
충남,02,01,"1층 라모르카페",127.107568126373,"충남 천안시 서북구 불당12길 22-7",10:00~23:00,,01,,31164,11704dfba1414e6087d9537e5d175032.jpg,라모르;사랑을담아,01,,1001,,36.8064064556969,결식아동,"아이 본인만",
충남,02,01,"에이블타워 106호",127.108604163813,"충남 천안시 서북구 불당동 1532",오전11시-오후9시,,01,"브레이크타임: 오후3시-오후5시 (*매주 일요일 휴무)",31156,08b0781fa0cd4fde92ddde97b956a1e8.png,"킹콩부대찌개 신불당점",02,,463,,36.8169804070523,결식아동,"동반 1인",
충남,02,01,"1층 ",127.11110123868,"충남 천안시 서북구 불당동 737",오전10시~오후10시,,01,15시~16시30분,31163,ec638a198c1548d99bcaef36e38cadc0.jpg,"인생감자탕 직영점",01,,979,,36.8105475073803,결식아동,"아이 본인만",
충남,99,01,"1층 카페804",127.138991545116,"충남 천안시 서북구 서부2길 59",오전9시~오후9시,,01,오후2시30분~4시,31134,b51703e6d614405497ab31dc8545a2ce.jpg,카페804,01,,1025,"샌드위치(에그,단호박)우유 나 사이다",36.8237514241728,결식아동,"아이 본인만","샌드위치(에그,단호박)우유 나 사이다"
충남,01,01,"2층 인생감자탕",127.133998708623,"충남 천안시 서북구 서부대로 788","매일 오전 11 오후 22시까지",,99,"오후 3시부터 4시30분",31100,43b4480abe3e4cedaa9f614e10c79b3d.jpg,원조인생감자탕본점,02,,974,,36.8375401345072,결식아동,"동반 1인",
충남,01,01,"2층 210호",127.159047948539,"충남 천안시 서북구 성거읍 봉주로 120","오전 10~오후 5시",,02,"토요일 ,일요일",31049,8b0f73f20154455783562893f72c6eaf.jpg,"이리고은 (도자기 공방)",01,,751,,36.8767841142743,결식아동,"아이 본인만",
충남,99,01,"1층 BLACKN",127.129015664893,"충남 천안시 서북구 성성8로 14-5","05:00~01:00 중 11:00~17:00 상주",,03,12:30~13:60,31078,NULL,BLACKN,99,"아이와 어린 형제",774,"계절마다 상하복 한벌",36.8407354721438,결식아동,"아이와 어린 형제","계절마다 상하복 한벌"
충남,99,"01,99","1층 계릴라도리탕(쌍용점)",127.119014015867,"충남 천안시 서북구 쌍용13길 12",17:00~01:00,"결식아동제공후 추후에 소방관",01,연중무휴,31172,cb6330ecf17d48f88db095cd428d7f28.jpg,계릴라도리탕(쌍용점),02,,32,"닭도리탕(반마리) 또는 옛날통닭",36.800363059966,"결식아동,결식아동제공후 추후에 소방관","동반 1인","닭도리탕(반마리) 또는 옛날통닭"
충남,02,01,STCO,127.131323638946,"충남 천안시 서북구 쌍용동 1023",Am10~Pm21,,99,"없슴(명절당일 휴무)",31155,768a51e740f74d3789ab15273d95ba2e.jpg,"STCO천안쌍용점 ",01,,251,,36.8030458716366,결식아동,"아이 본인만",
충남,01,"01,02","1층104호 동네빵집",127.116186442383,"충남 천안시 서북구 쌍용동 1592",오전10:00~오후20:00,,01,"토요일 오후 15시까지 영업 및 매주 일요일 휴무",31174,NULL,동네빵집,02,,307,,36.7915072852626,"결식아동,독거노인","동반 1인",
충남,02,99,청솔아파트203-1103,127.115412212644,"충남 천안시 서북구 월봉7길 77",오전10부터,가족,99,없음,31171,1bc8a89239ee4354a825c92a28149058.jpg,다하리홈크리닉,99,아이의집,451,,36.7936492646787,가족,아이의집,
충남,01,"01,02",1층,126.33115508194,"충남 태안군 태안읍 진벌로 703-22",24시,,99,365일,32137,8d1d7e7c59234dbd884ca22ad9e2779b.jpg,나랑별보러가지않을래,99,동반4인,1033,,36.8144387855837,"결식아동,독거노인",동반4인,
충남,99,01,"120호 퀴즈노스 충남내포신도시점",126.679366777464,"충남 홍성군 홍북읍 청사로 146","평일 am8~pm9, 주말공휴일 am10~pm8",,01,없음,32256,aa67e1e514a5404f80699cb1f5f8bd86.jpg,퀴즈노스충남내포신도시점,01,,710,"샌드위치 레귤러사이즈와 소다음료",36.6570432945004,결식아동,"아이 본인만","샌드위치 레귤러사이즈와 소다음료"
충남,99,01,(주)홍주일보사,126.694835822884,"충남 홍성군 홍북읍 홍북로573번길 83","월~금 09:00~18:00",,03,"명절, 공휴일 휴무",32278,c070c04a30b64832a91a431d4cf7160f.jpg,(주)홍주일보사,99,"아이 본인 또는 보호자",136,"정기 구독 서비스",36.6580608467518,결식아동,"아이 본인 또는 보호자","정기 구독 서비스"
충남,99,01,모아빌딩106호,126.675133502942,"충남 홍성군 홍북읍 홍학로 81",12시~23시,,01,무,32265,8c95e027f9e64a8b9a9bc3808c45a818.jpg,"가마로강정 내포신도시점",03,,452,"달콤 (대)",36.6477203470037,결식아동,"동반 2인","달콤 (대)"
충남,02,01,"3층 시티아일랜드 탑텐키즈",126.676313860442,"충남 홍성군 홍성읍 조양로247번길 9",10:30~21:00,,03,연중무휴,32220,cd2d2450eff54029835383fb8df07ca6.jpeg,"탑텐키즈 홍성 시티아일랜드",99,"홍성지역 아동 본인만 가능",882,,36.6010394368146,결식아동,"홍성지역 아동 본인만 가능",
충남,99,01,"4층 연안식당",126.676313860442,"충남 홍성군 홍성읍 조양로247번길 9","10:30 ~ 21:00",,01,"브레이크타임 15:00~16:00  / 연중무휴",32220,ea13c8a2e029417898441242ea6e9f2b.jpeg,"연안식당 홍성터미널점",03,,695,식사메뉴,36.6010394368146,결식아동,"동반 2인",식사메뉴
충북,02,"01,99",배떡,127.570528660077,"충북 옥천군 옥천읍 금장로 62","오전11:00 마감 오후21:00","소외계층 한부모가정",01,연중무휴,29047,e382838eaff94c16aea658162151dfa1.jpg,"배떡 옥천점",01,,354,,36.3003010195032,"결식아동,소외계층 한부모가정","아이 본인만",
충북,01,,"빅토리해빗 커피 로스터즈",127.498227318958,"충북 진천군 덕산읍 덕금로 723",10:30-09:00,,01,연중무휴,27856,24db5ad9f0f54d38bf12e1abb7eb484f.jpg,"빅토리해빗 커피 로스터즈",01,,92,,36.9097728232481,Nan,"아이 본인만",
충북,02,01,이박순대국,127.527745876342,"충북 진천군 덕산읍 연미1길 39",오전9시부터오후10시까지,,01,,27875,a8d33c98b94c4a0fb44d1711beb42db8.jpg,이박순대국,01,,1080,,36.9018509694745,결식아동,"아이 본인만",
충북,01,01,"미래센터 우석카페",127.436922366221,"충북 진천군 진천읍 대학로 66","08:00 ~ 20:00",,01,"주말 및 공휴일",27841,fa4d7b37e4fd4a90a528555444923415.jpg,우석카페,01,,938,,36.8452703460677,결식아동,"아이 본인만",
충북,01,"01,02",1층,127.488870185591,"충북 청주시 상당구 북문로2가 96-12","홀오전 11:00~오후7:00 이후 배달포장",,01,,28543,e790bb6796274b98a2f6c3a91e4be0b5.jpg,북문로떡볶이,02,,265,,36.6394760913681,"결식아동,독거노인","동반 1인",
충북,99,,,127.499339761318,"충북 청주시 상당구 산성로49번길 32-8",10:00~17:00,,99,일요일,28721,ae6233fbb25b4d25bd0714a7ed6235fb.jpg,"원예하다 콩나",99,"지역아동  본인만",740,"원예체험 활동",36.6295748686624,Nan,"지역아동  본인만","원예체험 활동"
충북,02,"01,02",402-2호,127.485529553931,"충북 청주시 서원구 1순환로1063번길 61-54",3:00~10:00,,02,공휴일,28797,NULL,"수비니겨수학교습소 ",01,,303,,36.6105177048065,"결식아동,독거노인","아이 본인만",
충북,01,99,"상가동 2층",127.47017903938,"충북 청주시 서원구 남이면 2순환로 1717",13:00-20:00,중학생,02,"휴일,공휴일",28633,a8b5d277ba9044c8a992bc0ab3e68fc5.jpg,"한솔플러스영어 청주가마점",99,초등학생,995,,36.5985174062193,중학생,초등학생,
충북,01,"01,02","1층 일미리 금계찜닭 매장",127.4570768565,"충북 청주시 서원구 사창동 460",11:00~23:00,,01,연중무휴,28643,NULL,"일미리 금계찜닭 충북대학교점",02,,579,,36.6323199303256,"결식아동,독거노인","동반 1인",
충북,01,"01,02","1층 소미칼국수",127.469700635891,"충북 청주시 서원구 산남동 405","오전11:30 ~ 오후 21:00",,01,"연중무휴 매주 월요일 15:00까지만 영업",28626,efe291c7a1144d75ab413d82d9951d64.jpeg,소미칼국수,99,"아이 포함 동반 2인까지 ",383,,36.6124409037676,"결식아동,독거노인","아이 포함 동반 2인까지 ",
충북,01,01,"1층 카페590",127.466920633839,"충북 청주시 서원구 산남동 590","월요일 - 오전 11시 ~ 오후 6시 화~금 - 오전 7시반 ~ 오후 6시 토요일 - 오전 10시 ~ 오후 6시",,01,"일요일,공휴일",28625,096aa878ec574c2d8f117a5e69cb2323.jpg,cafe590,01,,174,,36.6123013398935,결식아동,"아이 본인만",
충북,01,"01,02","송이하우스 1층 터공인중개사사무소",127.497831237715,"충북 청주시 청원구 내덕동 130-17","09:00 ~ 17:00 (10시간)",,03,연중무휴,28497,NULL,터공인중개사사무소,99,"청주대학생 및 교직원 누구나",223,,36.6584433652403,"결식아동,독거노인","청주대학생 및 교직원 누구나",
충북,01,01,이쉐프컵밥,127.49378069966,"충북 청주시 청원구 수암로 98-3","10:00~20:00 (주말 10:30~15:00)",,01,,28504,NULL,이쉐프컵밥,02,,380,,36.6511129926576,결식아동,"동반 1인",
충북,01,"01,02","1층 한판돈까스 ",127.454498706124,"충북 청주시 청원구 오창읍 2산단로 185",10:30~21:00,,01,"매주 월요일 (브레이크타임 14:30~17:00)",28117,4407faae65d64b08a4e5a5ca4b209841.jpeg,"한판돈까스 청주",02,,480,,36.7369815201578,"결식아동,독거노인","동반 1인",
충북,01,01,1층,127.455532652727,"충북 청주시 청원구 오창읍 두릉유리로 1130-19",,,02,공휴일,28129,NULL,"주식회사  행복마을학교 ",99,초등학생♡중학생,991,,36.7409986976906,결식아동,초등학생♡중학생,
충북,01,01,"성서빌 101호",127.423581186979,"충북 청주시 청원구 오창읍 양청택지로 87",오후4시~새벽3시,,01,,28115,b037d80f12b3416ab734e162b4881a23.jpeg,뚜담숯불치킨,02,,1048,,36.7182843147389,결식아동,"동반 1인",
충북,01,01,"129호 할매안흥찐빵 오창점 ",127.428608181722,"충북 청주시 청원구 오창읍 중심상업1로 8-9",1300~07,,01,,28120,5d651baffb084cb4bcbe19a1c30e763c.jpg,"안흥찐빵 오창점",02,,368,,36.7122600956898,결식아동,"동반 1인",
충북,02,01,"엘마트네 수산코너",127.487736323081,"충북 청주시 청원구 중앙로 91",09시부터21시,,99,없음,28538,NULL,다정유통우암점,01,,797,,36.6453955578467,결식아동,"아이 본인만",
충북,99,01,"디저트39 한국교원대점 ",127.355994105178,"충북 청주시 흥덕구 강내면 탑연리 339","평일 9시~22시 주말 10시~22시",,01,,28172,NULL,"디저트39 한국교원대점 ",01,,191,"1인 1음료 1종 베이커리",36.6173723295338,결식아동,"아이 본인만","1인 1음료 1종 베이커리"
충북,99,01,"1층 플랜디",127.353608066356,"충북 청주시 흥덕구 강내면 태성탑연로 258",5:30~7:00,,01,토요일,28173,2f8edba217c5469283824220b09f4956.png,플랜디,03,,218,"파스타, 음료",36.6073445607576,결식아동,"동반 2인","파스타, 음료"
충북,02,01,"4층 플렉스 피트니스",127.43368324621,"충북 청주시 흥덕구 복대동 3268","09:00 ~ 23:00",,03,일요일,28426,53765832fe1646af9023691010035bca.jpg,"플렉스 피트니스",03,,323,,36.6394501653715,결식아동,"동반 2인",
충북,01,"01,99","3층, 엑스클래스 수학학원",127.42760674152,"충북 청주시 흥덕구 서현북로 44","평일 17:00~24:00, 주말 13:00~24:00","집안 사정으로 학원을 못다니는 학생",02,금요일,28383,05cc86051dd6432389d7f279c159e8a5.png,"엑스클래스 수학학원",99,"고등학생 및 고등부 선행진행할 중학생",423,,36.6208983738348,"결식아동,집안 사정으로 학원을 못다니는 학생","고등학생 및 고등부 선행진행할 중학생",
충북,01,01,102호,127.328618793201,"충북 청주시 흥덕구 오송읍 만수리 835",11시~22시40분,,01,"매주 일요일휴무",28166,56b0867082c24cda9be0ed97ac1d4b38.jpg,"불스떡볶이 오송점",02,,256,,36.6228500346457,결식아동,"동반 1인",
충북,01,01,"솔리드빌딩 101호",127.328046334463,"충북 청주시 흥덕구 오송읍 오송생명3로 65-15",11:30~20:00,,01,,28165,NULL,에이프런레시피(순수덮밥),01,,614,,36.6316972405474,결식아동,"아이 본인만",
충북,01,01,115호,127.431060254591,"충북 청주시 흥덕구 진재로 141",11:00~21:00,,01,"명절 연휴",28425,30d0cc5b3d374983be6bbe42c534651c.jpg,"키와마루아지 청주점",01,,582,,36.6436916593296,결식아동,"아이 본인만",
충북,99,"01,02","푸르지오3차 105동1903호 ",127.942255288347,"충북 충주시 염밭로 13",6~20시,,99,없음,27403,d2db482e1fc44728b273a27d7858856f.jpg,태경사다리차&태경스카이차,02,,296,"집수리 및 이사시 고소장비 대여",36.9586607757541,"결식아동,독거노인","동반 1인","집수리 및 이사시 고소장비 대여"
