area,item_code,target2_code,addr2,lng,addr1,open_info,target2_etc,type,close_info,zipcode,img_name,name,target1_code,target1_etc,idx,item_etc,lat,제공대상,제공인원,제공품목
서울,99,,"1층 (논현동, 두원빌딩) 더 수제비",127.0327484,서울 강남구 논현로132길 29,"11시~8시 (평일),  11시~6시 (토)",,1,일요일,6053,c5ab989ad40d4f7ba804b68ae7449d3a.jpg,삼청골명가 더수제비 ,2,,348,"수제비, 들깨수제비,들깨감자옹심이,감",37.51555641,Nan,동반 1인,"수제비, 들깨수제비,들깨감자옹심이,감"
서울,2,"01,02",지하 1층,127.0593834,서울 강남구 대치동 1016-4,오후1시 - 오후 10시,,2,일요일 휴무,6279,7f956996ed404dd888f5102b267fe245.jpg,87.5 탭댄스 컴퍼니,2,,393,,37.49751412,"결식아동,독거노인",동반 1인,
서울,,,남자빌딩3층,127.0410676,서울 강남구 도곡로 203,,,3,,6231,NULL,피트니스플랜비,,,748,,37.49277901,Nan,Nan,
서울,2,1,아가도스빌딩 1층 바바에스 대치점,127.0595582,서울 강남구 도곡로 449,10:00 ~21:00,,3,,6209,NULL,바바에스안경원(대치점),1,,729,,37.49883014,결식아동,아이 본인만,
서울,99,"01,02",,127.040892,서울 강남구 선릉로111길 33,9~19,,2,없음,6103,afb257251b1244c4ae21e3a8b2272213.jpeg,한국전문연주자협회,3,,872,티켓,37.51007091,"결식아동,독거노인",동반 2인,티켓
서울,1,"01,02",101,127.0439124,서울 강남구 언주로69길 16,10~21,,1,연중무휴,6226,dc68812e49754702b668c0b61171173c.jpg,우리카페,2,,454,,37.49642535,"결식아동,독거노인",동반 1인,
서울,,,3층,127.0348978,서울 강남구 테헤란로 143,,,99,,6132,NULL,메이머스트,,,925,,37.50061921,Nan,Nan,
서울,99,,다른타워 8층 법률사무소 서화담,127.0396507,서울 강남구 학동로 335,09시 ~ 18시,,99,"토요일, 일요일, 관공서 공휴일 등",6060,NULL,법률사무소 서화담,1,,64,급식카드소지학생대상법률서비스,37.51698816,Nan,아이 본인만,급식카드소지학생대상법률서비스
서울,99,"01,02,99",102-2호 통닭&강동생족발보쌈,127.1687802,서울 강동구 고덕로 390,점심12시~밤12시,소방관은 전메뉴 50%할인,1,"연중무휴 , 포장 배달 전문점",5274,cf423ae9061341bdad4f5031b168a4d4.jpg,통닭&강동생족발보쌈,99,포장 배달 전문점입니다.,624,아동=통닭1마리무료&전메뉴50%할인,37.55662641,"결식아동,독거노인,소방관은 전메뉴 50%할인",포장 배달 전문점입니다.,아동=통닭1마리무료&전메뉴50%할인
서울,99,1,203호,127.1637038,서울 강동구 동남로82길 120,20-Oct,,3,공휴일 일요일,5224,bc173fd2a34149a3850d85a3ca8dbc70.jpeg,벨라로그,1,,833,주니어컷,37.5600131,결식아동,아이 본인만,주니어컷
서울,1,"01,02",2층 암사비치푸드마켓,127.1262047,서울 강동구 상암로 24,pm 4::30 ~ PM 12:00,,1,없음,5242,NULL,암사비치푸드마켓,3,,512,,37.55052146,"결식아동,독거노인",동반 2인,
서울,2,1,1층 101호(성내동),127.1217148,서울 강동구 성내로 7,09:00 ~ 21:00,,1,"1, 3주 일요일",5392,2fad6b7e0ab54666b65b8e130cccf62e.jpg,미미고찹쌀꽈배기강동구청점,2,,978,,37.53062111,결식아동,동반 1인,
서울,1,1,1층 103호 엥겔커피,127.1303196,서울 강동구 성안로 39,12:00-24:00,,1,매주 수요일,5396,NULL,엥겔플랜트,2,,330,,37.52738373,결식아동,동반 1인,
서울,1,1,105호 식사준비,127.174498,서울 강동구 아리수로93나길 50,10:00~20:00,,1,없음,5415,7a3e969675c24fceba5d7edbe1510e68.png,식사준비 강일점,1,,123,,37.57209972,결식아동,아이 본인만,
서울,2,1,신참떡볶이,127.1420544,서울 강동구 양재대로 1549,10시30분~22시 30분,,1,없음,5315,NULL,신참떡볶이 굽은다리역점,2,,596,,37.54404843,결식아동,동반 1인,
서울,99,1,라라브레드 1층,127.1412204,서울 강동구 양재대로116길 13,11:00 ~ 20:00,,1,x,5343,NULL,라라브레드,1,,654,직원선택 빵2종,37.53867777,결식아동,아이 본인만,직원선택 빵2종
서울,,,,127.1321077,서울 강동구 진황도로29길 8,,,99,,5337,NULL,청춘집합소,,,270,,37.53851199,Nan,Nan,
서울,2,1,b114 미화동,127.1331156,서울 강동구 천호대로 1089,10시30분~20시,,1,15-17시,5339,7b57cff0eea441e3bcda1ceb05171170.png,미화동,1,,519,,37.53660488,결식아동,아이 본인만,
서울,1,"01,02",1층,127.1489976,서울 강동구 천호대로 1240-13,10:00~8:00,,2,금요일,5359,6747d5cf1fb34004a8af1963dbee0ebc.jpg,허브문화예술창작소,1,,1045,,37.53586511,"결식아동,독거노인",아이 본인만,
서울,99,1,동아빌딩 2층,127.0224522,서울 강북구 노해로 41,17시~02시,,1,"월,화요일  17~18시  식사제공가능",1077,c11ace05a0cf422983dd803a6ef41891.jpg,아이엠,1,,204,파스타 메뉴,37.63930588,결식아동,아이 본인만,파스타 메뉴
서울,,"01,99",1층,127.0266419,서울 강북구 덕릉로 115,,"입양보류아동,무연고아동",1,,1069,NULL,인생푸드,,,844,,37.63513651,"결식아동,입양보류아동,무연고아동",Nan,
서울,1,"01,02",B2 송탄영빈루,127.0305177,서울 강북구 도봉로 62,10:30~19:30,,1,,1215,71f6fa046fcf49838ba2ec4c54fe4cf3.jpg,롯데백화점 미아점 송탄영빈루 ,1,,175,,37.61459298,"결식아동,독거노인",아이 본인만,
서울,99,1,1층,127.0168281,서울 강북구 삼양로93길 3,,,1,,1087,NULL,땅땅치킨 수유점,1,,940,1인식사제공(서울회관) 스몰치킨제공,37.63730555,결식아동,아이 본인만,1인식사제공(서울회관) 스몰치킨제공
서울,1,"01,02",진영빌딩 1층 달리는커피,127.0166481,서울 강북구 솔샘로 216,평일 10시~20시 /토요일 10시~18시,,1,매주 일요일 휴무,1193,51f2ae71e02f4bd3902ae72c2fe44a7a.jpeg,달리는커피 서울 삼각산점,1,,1042,,37.61989293,"결식아동,독거노인",아이 본인만,
서울,1,"01,02",2층 작심스터디카페 발산점,126.8373033,서울 강서구 강서로 324,24시간,,2,365일 영업,7680,478a824727114b6484272f3a0e33dcaa.png,작심스터디카페 발산점,1,,792,,37.55459095,"결식아동,독거노인",아이 본인만,
서울,99,1,지하1층,126.8404988,서울 강서구 강서로56길 17,매일10:30~20:30,,1,없음,7584,5f0111fc3a8344878c626521a0223ecb.jpg,마라홀릭,1,,199,마라탕,37.55993353,결식아동,아이 본인만,마라탕
서울,2,1,야채가게 ,126.8467649,서울 강서구 곰달래로25길 65-27,09시-20시까지,,99,없음,7756,6ba053ca33c149f083d38290f7d86c6e.jpg,우리상회,2,,483,,37.53297009,결식아동,동반 1인,
서울,99,"01,02",류마타워 1층 111호 엘로이카페,126.8255148,서울 강서구 공항대로 164,08:00~19:00,,1,2주 4주 일요일,7807,09259e6692f040c190b505b51fb33965.jpg,엘로이카페,2,,891,카드 제시 할 시 1인당 음료 한잔,37.55932597,"결식아동,독거노인",동반 1인,카드 제시 할 시 1인당 음료 한잔
서울,1,1,2층 212호 양평해장국,126.8343276,서울 강서구 공항대로 242,매일 09 : 00 ~ 21 : 00,,1,"휴무시간 업음, 휴무일 설, 추석 연휴 ",7805,a73f0a82b961448ba0a5f068bfc1d3b7.png,양평해장국 강서마곡점,99,동반자 모두,31,,37.5584802,결식아동,동반자 모두,
서울,99,"01,02",,126.8642673,서울 강서구 공항대로59가길 7,예약제로 운영,,2,,7563,909655424fe745099b84d69de959eea0.png,심리상담연구소 문,99,아동 및 가족,776,심리상담 심리평가 등 심리상담서비스,37.55218449,"결식아동,독거노인",아동 및 가족,심리상담 심리평가 등 심리상담서비스
서울,1,"01,02",101동 앞 상가 개러지키친 7호,126.8470287,서울 강서구 등촌동 701,16:30~02:00,,1,x,7587,68070fbccaee45acb619659570ec3fb3.jpg,연어꽃,1,,731,,37.55983847,"결식아동,독거노인",아이 본인만,
서울,99,1,"2층 223,4호",126.8274661,서울 강서구 마곡동 760-2,10:30 - 20:30,,3,"1월1일, 명절당일휴무",7788,NULL,샵일구구공,1,,545,컷트 무료,37.56785424,결식아동,아이 본인만,컷트 무료
서울,99,"01,02",B동 221호,126.8256454,서울 강서구 마곡서로 152,17:00~00:00,,1,매주 월요일 & 매달 마지막 주의 일요일,7788,f274963b783743a19399346928d81184.jpg,EXPER2,99,4명까지 가능,717,당일날 제일 맛있는 메뉴들로 제공!,37.56771074,"결식아동,독거노인",4명까지 가능,당일날 제일 맛있는 메뉴들로 제공!
서울,1,"01,02",,126.8256454,서울 강서구 마곡서로 152,,,3,,7788,NULL,아트포유 셀프사진관,2,,923,,37.56771074,"결식아동,독거노인",동반 1인,
서울,1,1,103호 순흑네,126.8256377,서울 강서구 마곡중앙로 59-9,07~20시까지,,1,일요일 휴무,7807,e7505477c05e44c9a38a6be76c6307da.png,순희네 꼬마김밥,1,,553,,37.55884745,결식아동,아이 본인만,
서울,99,2,2층 금수저"",126.8379095,서울 강서구 양천로47길 24,월-금/11:00~20:00 토/11:00~15:00,,1,매주 일요일 휴무,7522,93cf93cb8d9b44f58af5d508a5b52ef2.png,금수저,3,,648,백숙을 제외한 전메뉴 (1인 1메뉴),37.57151275,독거노인,동반 2인,백숙을 제외한 전메뉴 (1인 1메뉴)
서울,2,1,1층 샌드위치만드는언니,126.8394323,서울 강서구 월정로30길 64,월-토 10시~9시,,1,매주 일요일,7767,a11cd095b3aa4331b5acadf40ac27bf2.jpg,샌드위치만드는언니,1,,409,,37.53487822,결식아동,아이 본인만,
서울,2,1,1층정육점,126.8449262,서울 강서구 화곡동 348-4,9/30/2022 22:00,,99,없음,7770,a00e830f04494c50b8121d015cb29bc3.jpg,청춘푸줏간,1,,366,,37.53300706,결식아동,아이 본인만,
서울,,,2f,126.8568023,서울 강서구 화곡동 822-20,non,,99,non,7738,NULL,(주)지니글로벌네트웍스,,,23,,37.53443312,Nan,Nan,
서울,99,1,1층 컴포즈커피,126.8497029,서울 강서구 화곡로 313,08:00~23:00,,1,없음,7686,d388176af7db4ace801c1f56a2ddb110.jpg,컴포즈커피 강서구청점,99,아이 본인 직접 방문,117,원하는 음료 한잔,37.55228371,결식아동,아이 본인 직접 방문,원하는 음료 한잔
서울,2,1,그랜드아이파크 1층/2층,126.8512924,서울 강서구 화곡로 347,오전08:00~오후11:00,,1,연중무휴,7649,b7511b8423534f0195de65e7d8c80470.png,투썸플레이스강서구청점,1,,62,,37.55483518,결식아동,아이 본인만,
서울,99,1,이루는교회 2층 카핏,126.9563,서울 관악구 관악로 234,오전10시 ~ 오후7시,,1,일요일.공휴일,8737,b591a418317640c49e7ffc7fd91bfb78.jpg,카핏,1,,290,음료1. 디저트1,37.4849602,결식아동,아이 본인만,음료1. 디저트1
서울,1,"01,02",모두의주방 지하1층 3호,126.9567893,서울 관악구 관악로 251,오전9시~익일 오전12시,,1,,8727,NULL,까사피에스타,2,,676,,37.48689701,"결식아동,독거노인",동반 1인,
서울,1,1,1층 부타앤카츠,126.9228698,서울 관악구 난곡로34길 70,오전 9시30분 ~ 오후11시,,1,연중무휴,8854,cd1f155fd8b9401b95ecdab00d125f2a.jpeg,부타앤카츠,99,사장 맘대루,718,,37.47197623,결식아동,사장 맘대루,
서울,2,1,1층 피자헛,126.9182755,서울 관악구 남부순환로 1508,10:30~22:30,,99,,8772,NULL,피자헛난곡2호점,1,,446,,37.48224817,결식아동,아이 본인만,
서울,2,1,1층 커피플래닛,126.9182755,서울 관악구 남부순환로 1508,월-토 7:00-23:00  일9:00-23:00,,1,,8772,NULL,커피플래닛,2,,738,,37.48224817,결식아동,동반 1인,
서울,1,"01,02",지하 1층 13호,126.9606899,서울 관악구 남부순환로 1904,11시~10,,1,없음,8792,0c28f05534e04c0a865da8a6d47b9423.jpg,하루하나,2,,855,,37.47786558,"결식아동,독거노인",동반 1인,
서울,99,1,5층 티나에스테틱 ,126.9776984,서울 관악구 남현길 7,11시~10시,,99,일요일 공휴일,8806,c9af89d43c184c9f83c961162d90f479.jpg,티나에스테틱 ,1,,862,두피케어,37.47606844,결식아동,아이 본인만,두피케어
서울,1,"01,02",지하1층,126.9382423,서울 관악구 대학5길 8,오후2시-오후10시,,99,"목요일, 일요일 ",8814,9f4602055d4e4ef29075cf2e7409f6f0.jpg,위드짐,1,,143,,37.46917583,"결식아동,독거노인",아이 본인만,
서울,1,"01,02",1층 커피정류장,126.9385051,서울 관악구 복은길 46,9시~9시,,1,매주 월요일 휴무,8834,5f7f81eb8d954e50a98bdbbb82b34dff.jpg,커피정류장,1,,263,,37.47444309,"결식아동,독거노인",아이 본인만,
서울,1,1,2층 오후의과일,126.9534873,서울 관악구 봉천동 1599-4,11~22,,1,"매주화요일(주말토,일은제외)",8788,d2577cc8b8b44d20a783220e01b691ff.jpg,오후의과일,2,,793,,37.47927764,결식아동,동반 1인,
서울,2,"01,02",1층 Dal.lem,126.9480721,서울 관악구 봉천동 464-25,화-토 오후2시~오후10시,,1,,8729,746bdc6e0af54d4484779117f641cf54.jpg,달렘,1,,173,,37.48721399,"결식아동,독거노인",아이 본인만,
서울,99,,1층 피자나라치킨공주,126.9478424,서울 관악구 봉천동 892-2,12~24시,,1,매주 화요일,8748,NULL,피자나라치킨공주,1,,514,피치세트,37.48313764,Nan,아이 본인만,피치세트
서울,99,1,제1싱가동 104호 백년카츠,126.9432503,서울 관악구 봉천로 391,11시 ~ 21시,,1,3시~4시,8750,fcff53e57c6842f8ab0bfe2ec2287b72.png,백년카츠 관악점,1,,536,"개별메뉴 전부(세트,정식 제외)",37.48347141,결식아동,아이 본인만,"개별메뉴 전부(세트,정식 제외)"
서울,99,1,1층 한우육회마을2호점 ,126.9557439,서울 관악구 봉천로 520-1,오후6시~9시,,1,일요일휴무,8789,NULL,한우육회마을2호점 ,2,,1034,육회비빔밥,37.47938807,결식아동,동반 1인,육회비빔밥
서울,1,"01,99",1층 cu편의점 옆,126.9352285,서울 관악구 신림동 1741,24시간,소개추천,1,없음,8780,cd3f884895954b2b84cb13430bb6fcac.png,바다가내손아귀,99,가족포함,753,,37.48272396,"결식아동,소개추천",가족포함,
서울,1,"01,02",101호  별꿈다락,126.9403552,서울 관악구 장군봉1길 3,12:00~22:00,,1,정기휴일 없음,8784,464d8ac13d514f858f27918c9a483daf.jpg,별꿈다락 ,1,,770,,37.48229543,"결식아동,독거노인",아이 본인만,
서울,1,1,1층 백가집,126.9339123,서울 관악구 호암로24길 11,오전 11시 ~ 오후 8시,,1,매주 토요일,8812,NULL,백가집,1,,584,,37.47001899,결식아동,아이 본인만,
서울,1,1,3층 초심스터디카페 구의점,127.0938461,서울 광진구 광나루로 588,24시간,,2,없음,5033,e85a29f3090f4e7db2a25c5de1d112bb.jpeg,초심스터디카페 구의점,1,,327,,37.5426904,결식아동,아이 본인만,
서울,1,"01,02",1층 카페더네네,127.0752425,서울 광진구 광나루로20가길 21,07:00~17:00,,1,"토요일, 일요일",5021,695bda944d774484acfef954ba9339d6.png,카페더네네,2,,176,,37.54522363,"결식아동,독거노인",동반 1인,
서울,1,1,지하1층 초심스터디카페,127.0976335,서울 광진구 광장동 470-10,24시간,,2,365일 영업,4974,02c2348df85642b7833907a174c62dbf.jpg,초심스터디카페 광장점,1,,325,,37.54141746,결식아동,아이 본인만,
서울,1,1,1층,127.0893767,서울 광진구 구의로 8,오전 11:30~ 오후 11:30,,1,평일 오후 3시~5시,5045,634b4b4f54624a79a189234127647d0e.jpeg,먹오삼,2,,392,,37.53866603,결식아동,동반 1인,
서울,99,1,102동 130호,127.081583,서울 광진구 아차산로 345,09:00 ~ 04:30,,1,연중무휴,5026,NULL,프레드피자건대점,1,,984,피자L한판+음료,37.53750524,결식아동,아이 본인만,피자L한판+음료
서울,1,"01,02",1층 와플소녀,127.0877256,서울 광진구 용마산로22길 12,12:00 ~ 19:30,,1,주말,4941,e3723bef3b134c4c9bca740336ed1c9e.jpg,와플소녀,99,누구든지!,552,,37.56352347,"결식아동,독거노인",누구든지!,
서울,99,1,1층 사무실,127.0861322,서울 광진구 천호대로119길 6,평일 오전 9:00 ~ 오후 5:00,,99,"주말,공휴일",4931,14ce6bcfe1844970babcae72796d8146.jpg,주식회사 중원디앤케이,1,,673,핫팩 한달치 30개. 매달 지급^^,37.55515978,결식아동,아이 본인만,핫팩 한달치 30개. 매달 지급^^
서울,99,1,1층 잉크마루,126.8563095,서울 구로구 개봉로 50,오전 10시부터 오후 7시까지,,99,"일요일,공휴일",8332,0838590cb15348b288d16ee6316d4210.jpg,잉크마루,1,,301,"잉크충전, 출력, 복사, 코팅",37.49012558,결식아동,아이 본인만,"잉크충전, 출력, 복사, 코팅"
서울,99,1,007호 곱창의축복,126.8569352,서울 구로구 경인로 331,오후 12시 저녁 9시,,1,일요일,8226,d517c458dad94f92b84284605229f880.jpg,곱창의축복,99,"본인과 가족(어린이, 청소년)",522,"곱창, 국밥",37.49769182,결식아동,"본인과 가족(어린이, 청소년)","곱창, 국밥"
서울,1,1,지하115호 식당가,126.8954191,서울 구로구 구로동 212-8,11-20시,,1,공휴일 및 주말,8390,effa2164200d4f168a917f516ac319af.jpg,어부식당,3,,494,,37.48367843,결식아동,동반 2인,
서울,99,"01,02",201호 육회지존,126.8588797,서울 구로구 남부순환로97길 20-7,16:30~익일 02:00,,1,별도공지,8328,a0eeb1005b7140d2a8afc793d89f5f18.jpg,육회지존(개봉역점),99,가족 구성원 전부 가능,101,"육회비빔밥,연어장덮밥,외 모든 식사류",37.49391885,"결식아동,독거노인",가족 구성원 전부 가능,"육회비빔밥,연어장덮밥,외 모든 식사류"
서울,99,"01,02",1층 113호,126.8953185,서울 구로구 디지털로26길 38,11:00 ~ 21:00,,1,15:00~17:00,8393,8bcd01079fdd4c5fa98484ce59fc1a28.jpeg,오로지라멘 구로지타워몰점,2,,548,"차슈동, 교자, 가라아게",37.4798477,"결식아동,독거노인",동반 1인,"차슈동, 교자, 가라아게"
서울,99,1,이레가구,126.9085988,서울 금천구 금하로23길 33,10시-20시,,3,매주 주일(일요일),8573,9177fbb09c2e4171bb2c9f06a885e17d.jpg,이레가구,1,,780,책상/의자,37.45278001,결식아동,아이 본인만,책상/의자
서울,99,1,306호,126.8871007,서울 금천구 디지털로9길 46,오전 10시 ~ 밤 10시,,2,일요일,8512,3ec8e39606be4f42914f9bd245532af3.png,티엔티 스피치,1,,856,보이스 트레이닝 (예약 필수),37.48005881,결식아동,아이 본인만,보이스 트레이닝 (예약 필수)
서울,99,"01,02",1층 더카페 이네스트점,126.8900295,서울 금천구 범안로 1155,07:30~21:00,,1,,8587,09ea7f4adc0f413fb7e430694fff1409.jpg,더카페 이네스트점,2,,850,"음료1, 베이커리1",37.46681871,"결식아동,독거노인",동반 1인,"음료1, 베이커리1"
서울,99,1,라라브레드1층,127.0777431,서울 노원구 공릉동 350-22,10:00~21:00,,1,x,1835,NULL,라라브레드,1,,656,직원선택 2종,37.62493456,결식아동,아이 본인만,직원선택 2종
서울,99,"01,02",태릉해링턴플레이스 상가 2층 올가드림,127.081601,서울 노원구 공릉로34길 86,오전10시~오후8시,,99,"월요일,토요일,일요일",1817,NULL,올가드림뷰티 공릉점,1,,884,"모공케어,여드름케어",37.62576537,"결식아동,독거노인",아이 본인만,"모공케어,여드름케어"
서울,99,1,상가동 209호,127.0719352,서울 노원구 덕릉로73길 28,평일 :13시-20시30분 / 토요일 : 11시-18시,,1,"매주 일요일,월요일 정기휴무",1706,b9711536cfea4dd38badb90314d3cec7.jpg,헤스론,1,,924,구움과자류,37.65247558,결식아동,아이 본인만,구움과자류
서울,99,1,지층,127.0563999,서울 노원구 동일로 1598,11:30~21:30,,1,15:00~17:00,1631,NULL,달인보쌈,1,,475,마늘보쌈도시락,37.67105614,결식아동,아이 본인만,마늘보쌈도시락
서울,1,"01,02,99",효영빌딩 102호,127.0732331,서울 노원구 동일로173가길 25,09~20,"산악구조대, 산림청,",3,일요밀 휴무,1860,b35109ecae0f41ff8640136b36bfd311.jpg,슈마스터태릉점,2,,405,,37.61941061,"결식아동,독거노인,산악구조대, 산림청,",동반 1인,
서울,1,"01,99",상가동 2층 201호 용인대금메달태권,127.0569993,서울 노원구 동일로250길 18,12:00 ~ 22:00,사회적배려대상자,2,토. 일. 공휴일,1623,422e88b1d9f64b30907e25cb4c9f5f59.jpg,용인대금메달태권도,1,,892,,37.68184246,"결식아동,사회적배려대상자",아이 본인만,
서울,1,"01,02",현성빌딩 지하1층 B04호,127.0622496,서울 노원구 상계로 65,10:00-02:00,,99,연중무휴,1693,6b69647919aa4dbca00b07486664b36a.png,카툰공감 노원역점,1,,559,,37.65635432,"결식아동,독거노인",아이 본인만,
서울,99,"01,02",1층 미소한가득,127.0634673,서울 노원구 석계로9길 10,12:00~19:00,,99,"일,월,화,공휴일",1901,29261b9d60d64b0cac2290daae94394d.jpg,미소한가득,1,,1061,보틀케이크 2개 ,37.61759699,"결식아동,독거노인",아이 본인만,보틀케이크 2개 
서울,99,1,1층이리로레스토랑 ,127.0702955,서울 노원구 하계동 208-19,11시30분 ㅡ5시,,1,없음,1790,716fb033e9d24cc4a8079e9e203620fa.png,이리로,1,,985,"돈가스,파스타",37.63887505,결식아동,아이 본인만,"돈가스,파스타"
서울,99,"01,02",1층 카페거실,127.0666312,서울 노원구 화랑로47길 9,,,1,,1914,e1721cbcbaec405e91268455b4a7948b.jpeg,카페거실,1,,329,음료메뉴 전부,37.61574588,"결식아동,독거노인",아이 본인만,음료메뉴 전부
서울,2,1,영진빌딩 106호,127.0500754,서울 도봉구 노해로69길 21-11,"평일오후4시-12시 주말,휴일오전11시~밤 12시",,1,둘째넷째 화요일 휴무,1414,1cc9ad8369884b49afad580b4ac29b99.jpg,족발야시장창동역점,3,,359,,37.65310992,결식아동,동반 2인,
서울,99,99,405호,127.0359669,서울 도봉구 도당로 76,wannabegoods_lux,마스크가 필요한 어린이,99,"토,일",1343,e2a4090e32ce4669b6570cb8d9354a4a.jpg,워너비굿즈 ,2,,808,어린이 구리사마스크,37.66457204,마스크가 필요한 어린이,동반 1인,어린이 구리사마스크
서울,2,1,1층,127.0435593,서울 도봉구 도봉동 597-21,평일 오전 11시30분 부터 오후 9시30분,,1,오후2시30분 부터 오후 6시까지,1307,NULL,써이포차나,2,,271,,37.67783199,결식아동,동반 1인,
서울,1,"01,02",1층 교촌치킨 쌍문역점,127.0356034,서울 도봉구 도봉로 505,12:00 ~ 01:00,,1,,1442,77166023ca9a479ebdaa2439a075e6c6.jpg,교촌치킨 쌍문역점,3,,100,,37.65072874,"결식아동,독거노인",동반 2인,
서울,99,,메가커피 창동역점,127.0492033,서울 도봉구 마들로11가길 13,09:00~21:00,,1,,1414,NULL,메가커피 창동역점,99,첫방문시 맴버쉽쿠폰발급(아이 본인만),660,모든 음료,37.65290468,Nan,첫방문시 맴버쉽쿠폰발급(아이 본인만),모든 음료
서울,1,"01,02",무중력 지대 달 1/6,127.0487467,서울 도봉구 마들로11길 75,11::00 - 21:00,,1,일요일,1414,1680fab24b974c73b5c0d8077327325c.jpg,소스공작단,2,,509,,37.65315868,"결식아동,독거노인",동반 1인,
서울,2,1,105호 나주곰탕,127.0448214,서울 도봉구 방학동 717-2,오잔8시  부터 오후9시,,1,없음,1332,NULL,바우네나주곰탕,1,,1052,,37.66728591,결식아동,아이 본인만,
서울,1,"01,02",1층,127.0385739,서울 도봉구 창동 554-1,16:00-02:00,,1,일요일,1477,NULL,청춘불닭발,2,,1084,,37.63683067,"결식아동,독거노인",동반 1인,
서울,2,1,2층 주크(모드베베),127.037945,서울 도봉구 창동 703,,,99,,1428,60ff90ee67534226bb10b8ec9db5f5ab.jpg,주크(모드베베),,,827,,37.65304462,결식아동,Nan,
서울,99,"01,02,99",2층,127.0531211,서울 동대문구 이문로1길 16-3,오후2시부터 7시,기초생활수급자 ,2,"토,일,공휴일",2461,1552e0747ff84c12ae5f7e19a9f67475.jpeg,예술의악당음악학원,1,,782,피아노 교습비 90% 감면,37.58910135,"결식아동,독거노인,기초생활수급자 ",아이 본인만,피아노 교습비 90% 감면
서울,1,"01,02",1층 사미커피,127.0716423,서울 동대문구 장한로14길 70,09:30~23:59,,1,"평일 17:30~20:00, 주말X, 공휴일휴무",2642,0facd33502194a9581fe9d3ba50d0bbe.png,사미커피,2,,141,,37.56512557,"결식아동,독거노인",동반 1인,
서울,1,1,1층 유끼노하나,127.0728255,서울 동대문구 장한로36길 10,"낮12시~익일 새벽 1시(금,토 익일 새벽 2시)",,1,오후 4시20분~6시 브레이크타임,2522,91f5b229660740f6981fb9e3aca27339.jpg,유끼노하나,1,,419,,37.57742109,결식아동,아이 본인만,
서울,99,1,1층,127.0584512,서울 동대문구 전농동 46-71,오전11시부터 오후11시까지,,1,없음,2507,be9f317bf82943e9896e9ee5c5b63183.jpg,봉수아피자 답십리점,1,,196,콤비네이션XL 불고기XL 하와이안XL,37.57880066,결식아동,아이 본인만,콤비네이션XL 불고기XL 하와이안XL
서울,1,"01,02",지하 1층 너나들이,127.0508587,서울 동대문구 회기동 60-71,12:00~22:00,,1,연중무휴,2454,ab8a85111e9144219ee7b9ccd4909aff.jpeg,너나들이 만화카페 ,1,,588,,37.59232195,"결식아동,독거노인",아이 본인만,
서울,1,1, 3층 정재광 복싱클럽,127.0531009,서울 동대문구 회기로 152,오전 12시 부터  오후 10시 까지,,2,법정 공휴일 모두 쉽니다.,2460,aec747b5bb794391acb2d52205ee752a.jpg,정재광 복싱 클럽,1,,468,,37.59106832,결식아동,아이 본인만,
서울,99,1,1층 우측,127.0605774,서울 동대문구 휘경로 6-8,오전 11시~오후 7시,,1,매주 월요일 휴무,2440,f343267741984b2bae35970f7dc3eeed.jpg,이문동辛냉면 ,1,,904,"냉면, 만두",37.59580646,결식아동,아이 본인만,"냉면, 만두"
서울,1,1,1층 봉식이떡볶이 ,126.9313244,서울 동작구 국사봉1길 70,오전 11시30분~오후9시30분,,1,월요일,7043,dd708970061a481cb4ce2d6f690977e2.jpg,봉식이떡볶이,1,,650,,37.49827945,결식아동,아이 본인만,
서울,99,,스페이스살림 1층 스타트업매장 2호,126.9272725,서울 동작구 노량진로 10,13:00 - 20:00 (요일별 상이),,3,"일,월 휴무",6938,5f33988923e040b78cb960811e1d4f88.jpg,월경상점,2,,181,누르 생리대,37.51239334,Nan,동반 1인,누르 생리대
서울,99,"01,99",1층 육대장,126.9813284,서울 동작구 사당동 89-6,오전11시~오후9시,독거노인,1,연중무휴,6997,1e1f5f40c5484f6992432d9bcd378a74.jpg,육대장이수역점,2,,239,"육개장,설렁탕",37.48876924,"결식아동,독거노인",동반 1인,"육개장,설렁탕"
서울,1,1,오태식해바라기치킨,126.971246,서울 동작구 사당로16가길 42,오전 11시 ~ 새벽 1시,,1,주일,7010,51eb19e92a1342c7bbf8fde0085662e9.jpg,오태식해바라기치킨 사당153점,1,,544,,37.48357948,결식아동,아이 본인만,
서울,1,1,지하2층 Bread.co 브레댄코,126.9477004,서울 동작구 상도로 지하 272,07:00-22:00,,1,,7032,30cf962d1bfa49b3982b3ebd06ec84f6.jpg,브레댄코,2,,910,,37.50320805,결식아동,동반 1인,
서울,1,"01,02,99","지상 1,2층",126.9542749,서울 마포구 굴레방로7길 22,09:00~22:00,경찰,1,"구정, 추석 휴무",4115,3e5bb874fd654b32b4e31de088d00d1c.jpg,커피프릭,1,,929,,37.55635049,"결식아동,독거노인,경찰",아이 본인만,
서울,1,"01,02",피에스타7커피,126.9239017,서울 마포구 동교동 164-18,"평일 : 오전 8시~23시,주말 : 오전 9시~23시",,1,연중무휴,4050,e145bd03f14d4927b1f4323c74ea9845.png,피에스타7커피,1,,941,,37.55596451,"결식아동,독거노인",아이 본인만,
서울,1,"01,02","2층 (망원동,삼운빌딩)",126.9096697,서울 마포구 동교로 67,1200~1900,,2,"토,일요일",4018,NULL,성산베스트플러스학원,2,,623,,37.5537428,"결식아동,독거노인",동반 1인,
서울,99,1,1층 소빛골드스테이션,126.9470541,서울 마포구 마포대로 53,09:00~20:00,,1,없음,4158,1a6d0cc3ca76472a80ca63e40aedcc19.png,sobit gold station,1,,1077,라면세트와 케잌,37.54143216,결식아동,아이 본인만,라면세트와 케잌
서울,1,"01,02",102호,126.9041936,서울 마포구 망원동 424-9,10시~20시,,3,없어요(예약하면 됩니다),3964,16b3720736304ec78434e0e1303b8e07.jpg,달콤헤어,1,,763,,37.55812751,"결식아동,독거노인",아이 본인만,
서울,1,"01,02",1층 동경규동,126.8961494,서울 마포구 매봉산로2길 68,11:00 ~ 20:00,,1,"15:00~17:00 휴무시간 / 공휴일, 일요일 휴무",3930,db74628119934a94a13b57d621cdd15c.jpg,동경규동상암,3,,898,,37.57637326,"결식아동,독거노인",동반 2인,
서울,1,"01,02,99",1층 깊이커피,126.9134894,서울 마포구 서교동 384-14,매일 10:00 ~ 24:00,경찰 공무원 소방공무원 20% 할인 ,1,없음,4035,3c1252ec44644f9cba06385689c737e6.jpg,깊이,2,,537,,37.55223793,"결식아동,독거노인,경찰 공무원 소방공무원 20% 할인 ",동반 1인,
서울,1,"01,99",2층,126.9209387,서울 마포구 서교동 405-17,오전11~익일 오전6시,초등~고등학교1학년까지만(학생증확인),1,연중무휴,4048,4921a1e8403349fda0b6b99fa0d2c3d6.jpeg,슈츄안,99,"본인+동반1인, 복지카드+학생증지참",575,,37.5503889,"결식아동,초등~고등학교1학년까지만(학생증확인)","본인+동반1인, 복지카드+학생증지참",
서울,2,1,지층 좌측호,126.9160515,서울 마포구 성미산로13길 89,평일 10~20시 토요일 11~20시 일요일 11~18,,1,매주 수요일,3974,40247e40ad334a96b07024f542cb71c6.jpg,네임리스커피,2,,750,,37.56481518,결식아동,동반 1인,
서울,99,"01,02",1층 꽃집,126.930336,서울 마포구 와우산로 161,12:00~19:00,,99,"월,화 휴무",4052,634580c512944e23beb723d85e9ac726.jpeg,블루밍부케,2,,360,오늘의꽃다발,37.55536391,"결식아동,독거노인",동반 1인,오늘의꽃다발
서울,99,"01,02",전원빌딩 2층 진짜파스타,126.9232713,서울 마포구 와우산로 64,화~일 11:30 ~ 21:00,,1,15:30~16:30 월요일 휴무,4067,NULL,진짜파스타,2,,30,전메뉴 2만원 이내 제공,37.55021997,"결식아동,독거노인",동반 1인,전메뉴 2만원 이내 제공
서울,1,1,2층 카페,126.9222762,서울 마포구 와우산로11길 9-10,12:00~20:00,,1,,4049,ac59c6bae10c41f78da082586d39363b.png,코코아트리,,,415,,37.54847247,결식아동,Nan,
서울,99,"01,02",101호 로샤뷰티,126.9296221,서울 마포구 와우산로29길 4-24,10:30-8:00,,99,매주 달라짐,4052,5f53446e345b47a49857023a4379eb96.jpeg,로샤뷰티,1,,1085,헤어 커트,37.5549238,"결식아동,독거노인",아이 본인만,헤어 커트
서울,99,1,2층 201호 두두리두팡,126.9078092,서울 마포구 월드컵로23길 18,매주 금토일 오후12시~18시(조기품절시 조기마감),,1,매주 월화수목 휴무,4011,6936d260e4bb449aab4f39b743517e7f.jpeg,두두리두팡,1,,56,1메뉴(케이크/제과 모두포함) 1음료,37.55709127,결식아동,아이 본인만,1메뉴(케이크/제과 모두포함) 1음료
서울,1,1,"kgit센터 1층 117,118호",126.8889823,서울 마포구 월드컵북로 402,평일 11시~9시,,1,,3925,52bf8fa2ef15446cb86a0afba33971c2.png,블리스버거상암점,2,,521,,37.58010775,결식아동,동반 1인,
서울,1,"01,02",kgit센터 지하1층 푸드코트 109,126.8889823,서울 마포구 월드컵북로 402,11:30~20:00,,1,토일휴무,3925,8c17b93226ee4dfdaecaf69e17a0675d.jpg,모데나,1,,642,,37.58010775,"결식아동,독거노인",아이 본인만,
서울,2,,전자회관 B1 피트니스플랜비,126.8883895,서울 마포구 월드컵북로54길 11,오전10~오후9시,,99,공휴일 휴무,3924,a251e38b79344ed4b7bb4bfb2bf05aa4.jpg,피트니스플랜비,99,청소년,749,,37.58088763,Nan,청소년,
서울,1,"01,02",218,126.9178974,서울 서대문구 가재울미래로 2,9시-18시,,2,,3709,NULL,아하하일본어,1,,448,,37.57442036,"결식아동,독거노인",아이 본인만,
서울,1,"01,02",1층,126.9131872,서울 서대문구 거북골로 150,오전10시새벽1시,,1,3시~4시,3690,3715e31d6e7c4fc694a5e8149e7cb01d.jpg,줄리앙와플and커피,1,,671,,37.57555558,"결식아동,독거노인",아이 본인만,
서울,2,1,1층 EYE OH,126.9273951,서울 서대문구 신촌로 1,10:00~21:00,,99,없음,3785,NULL,아이오안경원,1,,15,,37.55887396,결식아동,아이 본인만,
서울,99,"01,99",1층 JUNH,126.9288694,서울 서대문구 연희동 130-13,11-6pm,저소득층 복지누리카드소지자,2,월요일,3707,1ec0ddf5477e495599be286a3b26beea.jpeg,준에이치(JUNH),2,,915,원데이클래스,37.56735783,"결식아동,저소득층 복지누리카드소지자",동반 1인,원데이클래스
서울,99,1,1층,126.929991,서울 서대문구 연희로 89-8,오전11시~밤9시,,1,매주 일요일,3708,01787a4713cb404cbcc72e5f49180ffc.jpg,황카페,1,,875,"로제떡볶이, 음료",37.56643453,결식아동,아이 본인만,"로제떡볶이, 음료"
서울,99,1,1층 고스트요거트,126.9448747,서울 서대문구 이화여대길 52-15,월-금 11-19/토 12-19,,1,"14-15휴게시간/첫째주 토요일,일요일 및 공휴일 휴무",3765,NULL,고스트요거트 이대점,2,,529,요거트+콤비네이션 토핑,37.55933427,결식아동,동반 1인,요거트+콤비네이션 토핑
서울,1,1,1층,126.9457978,서울 서대문구 홍은동 48-106,11:00-22:00,,1,없음,3616,d11c3e0d92324dafaef953528248361b.jpg,싸움의고수,2,,63,,37.59387089,결식아동,동반 1인,
서울,1,1,지하 116호,127.0299709,서울 서초구 강남대로 321,오전11시-밤12시,,1,매주월요일 정기휴무,6627,d9c5db27967f4108bacc8a22625fdbbe.jpg,구슬함박 서초점,99,만19세 미만 청소년 및 아동,1013,,37.49155734,결식아동,만19세 미만 청소년 및 아동,
서울,99,1,1층,127.0415619,서울 서초구 강남대로12길 50,11시30~14시,,1,14시~17시,6779,1a398b9021244e6eb11ee23f97b2c2c8.jpg,해물과차돌박이 ,2,,819,점심단품메뉴,37.47081116,결식아동,동반 1인,점심단품메뉴
서울,99,"01,02",장금수부대찌개양재점 ,127.0409967,서울 서초구 강남대로30길 73-3,오전11시 오후9시30,,1,일요일  구정 신정  추석  전일 당일,6741,53491f2f56b5406c8307590061905b75.jpg,장금수부대찌개양재점 ,2,,44,부대찌개 ,37.48287579,"결식아동,독거노인",동반 1인,부대찌개 
서울,1,1,신사제2빌딩 101호 돈가스신사,127.0186323,서울 서초구 나루터로15길 6,평일 11:00-21:00 토요일 11:00-15:00,,1,"일요일, 국경일",6524,NULL,돈가스신사,1,,169,,37.51618262,결식아동,아이 본인만,
서울,99,1,하이브랜드 리빙관 지하1층  림돈,127.0369479,서울 서초구 매헌로 16,오전11시~오후8시,,1,매주 일요일,6771,5aa27dada9dc47e7a3f55da8b4df7362.png,림돈(돈가스),1,,1053,돈가스,37.46246735,결식아동,아이 본인만,돈가스
서울,1,"01,02",하이브랜드 지하1층 푸드코트내 113,127.0369479,서울 서초구 매헌로 16,09~20,,1,일요일휴무 14~16시 브레이크타임,6771,a162bf4bab1346a7bf8c7342b7f481ea.jpg,아이언그릴,1,,1069,,37.46246735,"결식아동,독거노인",아이 본인만,
서울,1,1,1층 101호 자판기가게,126.984171,서울 서초구 방배천로2안길 96,24시간,,1,없음,6677,535563bd853344e1a1e681ee5f33bddb.jpg,자판기가게,2,,556,,37.4812784,결식아동,동반 1인,
서울,,,럭스빌딩 6층,126.9980048,서울 서초구 서래로 17,,,2,,6581,NULL,원더스잉글리시아카데미,,,413,,37.49666677,Nan,Nan,
서울,99,1,1층 고스트요거트,127.0162371,서울 서초구 서초중앙로20길 37,월-금 10-19:30/토 11-19,,1,"14-15휴게시간/첫째주토요일, 일요일 및 공휴일휴무",6634,51fd163190084f8e9a62356733328acf.jpeg,고스트요거트 교대본점,2,,530,요거트+콤비네이션 토핑,37.49254068,결식아동,동반 1인,요거트+콤비네이션 토핑
서울,99,1,만석돼지갈비,127.0347489,서울 성동구 고산자로12길 2,11시반부터 10시,,1,없음,4744,4c4bc9de51bc4436852bf4a22bd4c8e4.jpg,만석돼지갈비,2,,612,"정심식사 2인분,저녁 삼겹또는갈비 2",37.56018581,결식아동,동반 1인,"정심식사 2인분,저녁 삼겹또는갈비 2"
서울,1,"01,02",카페 드 모나코,127.0388365,서울 성동구 고산자로2길 65,오전9시 ~ 오후 10시,,1,연중무휴,4745,NULL,카페 드 모나코,1,,1011,,37.55619853,"결식아동,독거노인",아이 본인만,
서울,99,1,투썸플레이스  금호하이리버점,127.0245531,서울 성동구 금호로 105,8~23시,,99,없음,4728,fe855ad33ae64f6abe0e246a43acd983.jpg, 투썸플레이스  금호하이리버점,1,,83,샌드위치류. 브레드류. 음료류. 케익,37.55237636,결식아동,아이 본인만,샌드위치류. 브레드류. 음료류. 케익
서울,1,1,상가152동 비1층 비106호,127.0263479,서울 성동구 무학로 33,10:00~21:00,,1,매주 월요일,4702,6aad57af5ffa49cfb0fbc85bd7708efd.jpg,돈카츠마켙왕십리점,2,,696,,37.56916416,결식아동,동반 1인,
서울,,1,1층 쑤쑤타이,127.0490942,서울 성동구 상원1길 12,,,1,,4779,NULL,쑤쑤타이,1,,658,,37.54497088,결식아동,아이 본인만,
서울,1,"01,02,99",성원상떼뷰오피스텔 107호 루트비커피,127.0626068,서울 성동구 아차산로15길 10,07:00 ~ 18:30,"소방관 1인 무료, 추가인원50%할인",1,일요일 (임시휴무있음),4798,d6cd6ec5b9634719b09c62427c8b4cb2.png,루트비커피 성수점,1,,848,,37.54369624,"결식아동,독거노인,소방관 1인 무료, 추가인원50%할인",아이 본인만,
서울,99,1,vip빌딩 2층,127.0306507,서울 성동구 왕십리로 353,11:00 ~ 21:00,,99,없음,4710,aa6c3078c77746f2ab9a91f7304b53a6.jpg,어반그라운드헤어 상왕십리점,1,,619,쥬니어 커트,37.56363389,결식아동,아이 본인만,쥬니어 커트
서울,99,"01,02",1층,127.0330712,서울 성동구 왕십리로21가길 1,11:00~23:00,,1,없음,4715,NULL,더짜글왕십리점,2,,988,"짜글이1인분,짜글이2인분",37.56105242,"결식아동,독거노인",동반 1인,"짜글이1인분,짜글이2인분"
서울,99,1,Golden House 1층,127.0303206,서울 성북구 고려대로24가길 13-2,PM 5:00 ~ AM 1:00,,1,정기휴무 없음.,2856,8629c0845dc94935b2d489d9ae1de841.png,주식회사 늘,1,,429,식사류 모든 품목,37.58533768,결식아동,아이 본인만,식사류 모든 품목
서울,99,1,1층 대연생고깃간,127.0611484,서울 성북구 돌곶이로22나길 29,오전9시30분~ 저녁9시30분,,1,,2784,348744d6fc504e8e8825ebf5f2f1a965.jpg,대연생고깃간,1,,1079,모든 고기 20.000원 상당,37.60920605,결식아동,아이 본인만,모든 고기 20.000원 상당
서울,99,"01,02",지층 사계절치킨,127.0189355,서울 성북구 동소문로24길 31,오전10시부터 새벽2시까지,,1,앖음,2845,3de914eca6f4496eb9c718a21e0a2097.jpg,대한푸드(사계절치킨),2,,346,치킨 세가지 후라이드간장 양념,37.59226157,"결식아동,독거노인",동반 1인,치킨 세가지 후라이드간장 양념
서울,99,"01,02",1층,127.0193769,서울 성북구 보문로34길 72-4,오전 10시 30분~ 밤 12시,,1,매주 월요일,2849,b7c3a1230d4f45fab4e9801c4897f731.jpg,나이스 샌드위치,99,아이 본인과 친구들 사주고 싶을때  ,298,모든 품목이고 간식도 챙겨 보낼께요,37.59097109,"결식아동,독거노인",아이 본인과 친구들 사주고 싶을때  ,모든 품목이고 간식도 챙겨 보낼께요
서울,1,"01,02,99",1층,127.0154451,서울 성북구 서경로 37,11:00 ~ 21:30 (마지막 주문 20:30),군인 경찰,1,"평일 15:00 ~ 17:00 신정,명절당일",2716,08949426e4244223b94f8a1921d30975.png,하오하오츠,2,,240,,37.60712437,"결식아동,독거노인,군인 경찰",동반 1인,
서울,99,,근린상가2동 2103호(108동상가),127.028784,서울 성북구 숭인로 50,11:00~21:00,,1,15:00~16:30,2727,39af29003b2a4e18b73c8bb2c7ec3c15.jpg,72420미아사거리점,2,,147,쌀국수 및 볶음밥,37.61198667,Nan,동반 1인,쌀국수 및 볶음밥
서울,99,1,지하1층,127.029729,서울 성북구 안암동5가 104-30,9시부터 새벽3시,,99,없습니다.,2856,NULL,닥터브이 코인노래연습장,1,,344,"의류,신발사업도하고있습니다 신발,옷",37.58396192,결식아동,아이 본인만,"의류,신발사업도하고있습니다 신발,옷"
서울,2,"01,99",1층,127.0429812,서울 성북구 장월로1길 111,화수목금 12:30~7시(제품 소진시 조기마감),기초수급가정아동,1,토일월,2752,387a290a2eb44ae881e327e20ecf934a.jpg,샤롱샤롱,1,,257,,37.604307,"결식아동,기초수급가정아동",아이 본인만,
서울,99,1,1층,127.0521737,서울 성북구 장위동 66-323,오전11시30분 ~ 오후9시,,1,"오후2시~오후5시 재료준비시간, 마지막주문 8시30분",2771,af77a86280214cf6a3cbc0b16c6d34fe.gif,서민스시,2,,506,"점심메뉴 2인 지급 26,000원상당",37.60957472,결식아동,동반 1인,"점심메뉴 2인 지급 26,000원상당"
서울,1,"01,02",상가1층 쌀똑핫도그,127.0421197,서울 성북구 하월곡동 227,11:00-23:0,,1,연중무휴,2751,45dcdccc710242ceabee6556e7b3ec8b.jpg,쌀똑핫도그 월곡직영점,2,,501,,37.60327757,"결식아동,독거노인",동반 1인,
서울,99,"01,99",기와집갈비,127.0522897,서울 성북구 화랑로25길 18,오전11~오후10,독거노인,1,매주 일요일,2771,NULL,발효명가기와집갈비,2,,129,식사류,37.60945421,"결식아동,독거노인",동반 1인,식사류
서울,1,1,102동119호 필라멘,127.1204362,서울 송파구 가락동 80,11-14.30  16:30-21:00,,1,15:00-16:30,5718,52e8bd07e7dd40cd9693f2f1d7dffa29.jpg,필라멘,1,,183,,37.49506449,결식아동,아이 본인만,
서울,1,"01,02",1층 카페시아 아틀리에,127.1236663,서울 송파구 문정로1길 34,10:00 ~ 20:00,,1,없음,5805,73a0fe1b3bf04b3ca3c0664d50a79a1f.jpg,카페시아아틀리에,1,,118,,37.48916353,"결식아동,독거노인",아이 본인만,
서울,99,1,106호,127.0985952,서울 송파구 삼학사로12길 14,10:00 ~ 22:00,,1,,5679,04fa263d79684337ab3d43ff74869011.jpg,달떡볶이 잠실점,2,,620,"초승달세트(떡볶이,순대,튀김,음료)",37.50154387,결식아동,동반 1인,"초승달세트(떡볶이,순대,튀김,음료)"
서울,2,1,2층 입분식가정집,127.1104017,서울 송파구 송파동 51-4,11:30~21시,,1,없음,5619,NULL,입분식가정집,3,,321,,37.50999855,결식아동,동반 2인,
서울,99,"01,02,99",101호,127.1103261,서울 송파구 송파동 51-8,10:00 -22:00,65세이상 어르신,1,연중무휴,5619,a68ce74d494045d2b973174b6cb84dab.jpg,천향마라탕잠실점,3,,507,마라탕,37.50988915,"결식아동,독거노인,65세이상 어르신",동반 2인,마라탕
서울,99,1,장미상가 A동 314호,127.0992805,서울 송파구 신천동 7,8-Oct,,3,명절 외 연중무휴,5504,3540ca9f394847518e118822c2cb4e36.jpg,헤어매직,1,,418,컷트 무료,37.51888493,결식아동,아이 본인만,컷트 무료
서울,2,1,현대백조아파트상가 a동 102호,127.1292595,서울 송파구 오금동 11,오후 3시~새벽 1시,,1,없음,5652,1ff26b78ea274cc1be1bd18d8b206cb4.jpg,1974,2,,818,,37.50939106,결식아동,동반 1인,
서울,99,1,라라브레드 1층,127.1091047,서울 송파구 오금로16길 4,10:00 ~ 21:00,,1,x,5618,NULL,라라브레드 잠실점,1,,655,직원선택 2종,37.51113268,결식아동,아이 본인만,직원선택 2종
서울,99,"01,02",상가동 103호,127.1022358,서울 송파구 올림픽로35가길 10,오전8:00 ~ 오후7:00,,1,주말 및 공휴일 휴무,5510,7c431ea4c25f4855980c55920e5b56e1.jpg,티테리아 (TEA TERIA),1,,992,"음료 1잔 (4,000원 기준)",37.51691299,"결식아동,독거노인",아이 본인만,"음료 1잔 (4,000원 기준)"
서울,99,"01,02,99",1층 북경짜장,127.1416298,서울 송파구 위례광장로 120,10:00~20:30,정말 돈없고 배고픈 사람들,1,없음,5852,2a126e2cc2904fc69dbdbfd4d72fc803.jpg,북경짜장 위례신도시점,1,,598,"짜장, 짬뽕, 볶음밥,1인탕수육등등",37.47501456,"결식아동,독거노인,정말 돈없고 배고픈 사람들",아이 본인만,"짜장, 짬뽕, 볶음밥,1인탕수육등등"
서울,2,"01,02",1층 105호 서서울,126.8313073,서울 양천구 남부순환로58길 33,오전9시~저녁10시,,1,연중무휴,7915,e42543fe10864cb88fa05b06daccfaed.jpg,서서울,2,,262,,37.52917527,"결식아동,독거노인",동반 1인,
서울,,,B1,126.8706157,서울 양천구 목동서로 213,,,1,,7995,NULL,한옥안동국시,,,85,,37.52801699,Nan,Nan,
서울,99,"01,02","1층 성찬푸드/족발,냉면,짜글이",126.8355991,서울 양천구 신월동 122-15,오전11시30분~익일 02시 까지,,1,없음,7923,beadedd2f92e4098a226e9e643631c06.jpg,성찬푸드,99,그날 상황에 따라 달라질수 있습니다,260,냉면류,37.53011521,"결식아동,독거노인",그날 상황에 따라 달라질수 있습니다,냉면류
서울,1,"01,02",104호 유캔두잇신월점,126.8333616,서울 양천구 신월동 22-19,오전10시~밤10시,,1,연중무휴,7903,NULL,유캔두잇 신월점,1,,1065,,37.54073459,"결식아동,독거노인",아이 본인만,
서울,99,"01,02,99",1층 피자베이,126.8600582,서울 양천구 신월로 351,오전 11시부터 밤 12시까지,식사를 잘못하는 불우한이웃!!,1,,8021,a2d2c05bfa7548a19dc37c3e7b87247b.jpg,피자베이본점,99,피자 한판으로 제공 ,184,오늘의요일피자 와 음료수 증정,37.52216881,"결식아동,독거노인,식사를 잘못하는 불우한이웃!!",피자 한판으로 제공 ,오늘의요일피자 와 음료수 증정
서울,99,1,1층,126.8584534,서울 양천구 신월로36길 3-1,12시~24시,,1,연중무휴,8086,NULL,푸라닭신정1동점,1,,546,푸라닭치킨,37.5212686,결식아동,아이 본인만,푸라닭치킨
서울,1,1,601호 엘리트태권도장,126.8325647,서울 양천구 신정이펜2로 22,13시30분~21시,,2,"토,일,공휴일",8049,40bc632c9f0d4ecc9300b24388d3cfaa.jpg,엘리트태권도,1,,264,,37.51289569,결식아동,아이 본인만,
서울,99,1,1층,126.8971809,서울 영등포구 당산로35길 6,11:00 ~ 22:00,,1,"공휴일, 일요일 (코로나로 인해 토요일 당분간 휴무)",7219,NULL,당산돈,1,,189,김치찌개,37.52898745,결식아동,아이 본인만,김치찌개
서울,2,1,1층식당,126.898142,서울 영등포구 도림동 232-2,11시~~9시,,1,3시~5시주말휴무,7374,NULL,쿠이대,1,,412,,37.50715635,결식아동,아이 본인만,
서울,99,1,모두의주방 5호 홍대돈부리,126.9049457,서울 영등포구 도신로29사길 3,09:00-20:50,,1,연중무휴,7368,c8d89272273b4e8e9279f1d9ca0e8bf0.jpg,홍대돈부리 영등포점,2,,58,"가츠동, 믹스가츠동, 가라아게동, 규",37.51018327,결식아동,동반 1인,"가츠동, 믹스가츠동, 가라아게동, 규"
서울,2,"01,02",모두의주방 1호 까사피에스타,126.9049457,서울 영등포구 도신로29사길 3,09:00-20:50,,1,"연중무휴, 16:00-17:00 쉬는시간",7368,d2bc1a7e929540f881a4418f3d72f270.jpg,까사피에스타 영등포점,2,,59,,37.51018327,"결식아동,독거노인",동반 1인,
서울,1,"01,02",1층 직구삼,126.9045513,서울 영등포구 디지털로66길 8,11:00에서 새벽1시,,1,연중무휴,7439,b1a63f49cc974787a33a5774f3bfd301.jpg,직화삼겹직구삼 대림신길점,1,,268,,37.49252558,"결식아동,독거노인",아이 본인만,
서울,1,1,1층 브로스키친,126.891781,서울 영등포구 선유동1로 6-4,25-Nov,,1,없음,7263,af0fe8516c2349a99ce6556a055a519c.jpg,브로스키친,99,어려운아이들과 어려운 가정에게,461,,37.52246613,결식아동,어려운아이들과 어려운 가정에게,
서울,1,1,롯데마트 1층 샐러디,126.891572,서울 영등포구 선유로 138,오전11시-오후8시,,1,오후3-5시(변동있음),7255,NULL,샐러디 롯데마트서울양평점,1,,496,,37.52606589,결식아동,아이 본인만,
서울,99,,105호 갤러리딤,126.8868154,서울 영등포구 선유로3길 10,11:00~19:00,,3,주말 및 공휴일,7285,bd5c4337e359450fbca0cef94c0295b5.jpg,디와이코퍼레이션(GalleryDIM),2,,194,제로웨이스트 제품 or  체험,37.51610031,Nan,동반 1인,제로웨이스트 제품 or  체험
서울,1,"01,02",1층,126.9183635,서울 영등포구 신풍로 110,09~21,,1,없음(로테이션),7432,5acdcc30be7b4e8783e11f27c07196fd.jpg,신길점추오정남원추어탕 ,2,,928,,37.499763,"결식아동,독거노인",동반 1인,
서울,99,1,지하1층 113호 더복희네,126.9181067,서울 영등포구 의사당대로 26,오전11:00~오후10:00,,1,없음,7236,c91cfffcd1d74a5f9e5e6fffb2c32785.jpg,더복희네,2,,122,1인 1메뉴 제공가능합니다.,37.52653714,결식아동,동반 1인,1인 1메뉴 제공가능합니다.
서울,1,1,107호,127.0078018,서울 용산구 독서당로 22,09:00~20:00,,1,일요일,4410,5652a6fe6c32462c961681b83236348d.jpg,본도시락 한남점 ,2,,445,,37.53016316,결식아동,동반 1인,
서울,99,1,805호,126.9677763,서울 용산구 새창로 217,6:30-22:00,,99,"법정공휴일, 주말",4376,8595f5ee5594457aaae9a3c8228ca59d.jpg,아힘사 요가&명상,2,,29,요가 일반 수련,37.53021668,결식아동,동반 1인,요가 일반 수련
서울,99,"01,02,99",전자랜드 본관 5층 B501호,126.9595585,서울 용산구 청파로 74,11시~20시,군장병,1,없음,4372,0bd7425eaaf9488eb1e45bcc16de150d.png,더트레인,2,,295,음료 및 기차모디오라마 10분 무료,37.53278886,"결식아동,독거노인,군장병",동반 1인,음료 및 기차모디오라마 10분 무료
서울,2,1,용산역내인포메이션앞꽃집,126.9647415,서울 용산구 한강대로23길 55,08~23,,99,연중무휴,4377,abef114865004ac9af338c6da174d31c.jpg,인스타일,1,,889,,37.5297718,결식아동,아이 본인만,
서울,2,1,1층 얌샘김밥,126.9716704,서울 용산구 한강대로77길 18,07시 ~ 24시,,1,명절 휴무,4321,NULL,얌샘김밥 남영점,1,,113,,37.54207521,결식아동,아이 본인만,
서울,1,1,1층 ,126.911789,서울 은평구 갈현동 509-1,09~19시,,3,,3325,08fbc2ac75834f45a21ed10180076746.jpg,선경하우징,1,,812,,37.61519564,결식아동,아이 본인만,
서울,99,1,1층,126.9226733,서울 은평구 서오릉로 72,아침 10시~ 저녁 9시반,,1,매주일요일,3395,NULL,일월만두,1,,764,아이가 먹고싶은거,37.60685272,결식아동,아이 본인만,아이가 먹고싶은거
서울,2,1,1층 로드락후라이드,126.9104816,서울 은평구 신사동 7-24,14시-02시,,1,없음,3422,a35893e39cc24959ad269fadd24a2917.png,로드락후라이드 은평신사점,2,,332,,37.60144952,결식아동,동반 1인,
서울,99,"01,02,99",514동 상가 105B,126.936819,서울 은평구 연서로48길 11,10시부터 2시,독거노인,99,없음,3308,da9578db093a418ea1d1cb73ce509ca1.jpg,달아요,2,,919,과일,37.6377915,"결식아동,독거노인,독거노인",동반 1인,과일
서울,1,"01,02,99",1층 카페단발소녀,126.9197235,서울 은평구 응암로 285,11~21,국가유공자,1,,3454,cfd1a1784ae04d8097b1242485df2a8f.jpg,단발소녀,1,,81,,37.5971843,"결식아동,독거노인,국가유공자",아이 본인만,
서울,99,1,1층 108호 갓츠킹 가마솥돈까스 진,126.9185725,서울 은평구 진관1로 21-39,11:00~21 :00/ 라스트오더 20:00,,1,,3311,57e564f070f243e0a57f4d688699fcb5.png,갓츠킹 가마솥돈까스 진관점,1,,730,아이가 먹고싶은거,37.63386256,결식아동,아이 본인만,아이가 먹고싶은거
서울,1,1,911동103호 갈현동할머니떡볶이 ,126.9209327,서울 은평구 진관3로 67,10:30~19:30,,1,"일,월요일",3301,297b1cb2c49849dfb930a8f01006dfc1.jpg,갈현동할머니떡볶이 ,1,,441,,37.64276446,결식아동,아이 본인만,
서울,1,1,1층,126.9672412,서울 종로구 옥인길 28,24시간,,99,없음,3034,1f8123a650ae43529c4594ee4080c07f.jpg,콤콤오락실,1,,805,,37.58097324,결식아동,아이 본인만,
서울,1,1,104-1101,126.9797758,서울 종로구 율곡로 6,10:30~19:30,,1,일요일 격주 휴무,3142,c1caf2782c6148cc890a984add62d63c.png,부산아지매국밥 트윈트리타워점,2,,505,,37.57545386,결식아동,동반 1인,
서울,99,1,2층연혜인참치,127.0103483,서울 종로구 종로 286,오전10:00~오후10:00까지,,99,15:00~16:30까지,3119,NULL,연혜인참치,2,,692,초밥.매운탕(대구.알탕.회덮밥.알밥,37.57085836,결식아동,동반 1인,초밥.매운탕(대구.알탕.회덮밥.알밥
서울,1,1,1층 102호 넘버나인,127.0147848,서울 종로구 창신동 436-64,밤12-낮12시,,99,일요일,3120,54483236fdfd45cb884ff43df8b00bf0.jpeg,"레기돌(넘버나인,해피필링)",1,,310,,37.57011375,결식아동,아이 본인만,
서울,1,1,2층,126.9615712,서울 종로구 창의문로11길 23,11:30 - 21:00,,1,15:00 - 16:30,3022,6abff8f6f10d46a8942d87829dddd1cf.jpeg,레이지버거클럽,3,,630,,37.59338974,결식아동,동반 2인,
서울,1,"01,02",글로리아타운 A동 107호,126.9690062,서울 종로구 평창문화로 75,12:00~23:30,,1,"구정, 추석",3009,NULL,교촌치킨평창점,2,,783,,37.60686264,"결식아동,독거노인",동반 1인,
서울,1,"01,02",1층,126.9681386,서울 중구 만리재로 209,11시~10시,,1,3시~5시,4508,ec19ca298eeb4d7683ad0daf62716e26.jpg,공일부엌,3,,736,,37.55606592,"결식아동,독거노인",동반 2인,
서울,99,"01,02,99",지하1층,127.0931941,서울 중랑구 겸재로50길 53,11:00~23:00,독거노인,1,없음,2199,9afcff159785451ebe1b213e3e4865ac.jpg,소소한얼,3,,721,식혜.수정과,37.58907805,"결식아동,독거노인,독거노인",동반 2인,식혜.수정과
서울,1,"01,02",1층,127.0810183,서울 중랑구 공릉로12가길 29,평일 1시 - 12시  주말 11시 - 12시,,1,없음,2019,NULL,쌀똑핫도그 태릉점,1,,25,,37.61727613,"결식아동,독거노인",아이 본인만,
서울,1,"01,99",1층,127.0741511,서울 중랑구 동일로157길 65,11:00-20:00,독거노인 어르신,1,매주 수요일 휴무,2008,ccb98eb56ffe4cb588c2aef655a33adf.jpeg,카페더메뉴얼,99,가족이나 친구들과 함께 와도 좋습니다,126,,37.60933564,"결식아동,독거노인 어르신",가족이나 친구들과 함께 와도 좋습니다,
서울,99,1,함평국밥,127.0892169,서울 중랑구 봉우재로33길 73,오전 11:30오픈 오후 10시 마감,,1,일요일,2149,6460347d4dbf46ec9560e483a2aefbd4.jpeg,함평국밥,2,,109,국밥/비빔밥,37.59547032,결식아동,동반 1인,국밥/비빔밥
서울,1,1,네네치킨,127.0958495,서울 중랑구 신내로 135,18:00~24:00,,1,매주월요일,2026,788695d0e08a4668b5e967c2dd7637e1.jpg,네네치킨신내1점,1,,319,,37.6113848,결식아동,아이 본인만,
서울,99,"01,02",1층,127.0972138,서울 중랑구 신내로10길 29,10:00 ~22:00,,1,15:00 ~16:00,2069,b50f5e8fd0bf42659436f976ee75cc16.jpg,마석감자탕,1,,911,뼈해장국 / 돈가스 / 뚝배기불고기,37.60451914,"결식아동,독거노인",아이 본인만,뼈해장국 / 돈가스 / 뚝배기불고기
서울,1,"01,02",1층 Breeze,127.0986946,서울 중랑구 용마산로100길 7,평일 09시 ~ 18시,,1,"매주 일요일, 첫째/셋째 토요일",2184,cf408ef5ebe24e688ead4450811d6aa7.jpeg,브리즈,2,,376,,37.59161095,"결식아동,독거노인",동반 1인,
기타,1,1,804호,127.0019524,서울 중구 퇴계로 272,am10:00-pm10:00,,1,,4618,NULL,주)청어람플러스,1,,500,,37.5628056,결식아동,아이 본인만,
